"airportCode","airportName","cityName","countryName","countryCode","latitude","longitude","geometry"
"YYNG","Young","Young","Australia","AUS",-34.250277777777775,148.24888888888887,"{""type"":""Point"",""coordinates"":[148.24888888888887,-34.250277777777775]}"
"YYKI","Yorke Island","Yorke Island","Australia","AUS",-9.753333333333334,143.405,"{""type"":""Point"",""coordinates"":[143.405,-9.753333333333334]}"
"YWYY","Wynyard","Wynyard","Australia","AUS",-40.99888888888889,145.73111111111112,"{""type"":""Point"",""coordinates"":[145.73111111111112,-40.99888888888889]}"
"YWYM","Wyndham","Wyndham","Australia","AUS",-15.511388888888888,128.15305555555557,"{""type"":""Point"",""coordinates"":[128.15305555555557,-15.511388888888888]}"
"YWYF","Wycheproof","Wycheproof","Australia","AUS",-36.05888888888889,143.2433333333333,"{""type"":""Point"",""coordinates"":[143.2433333333333,-36.05888888888889]}"
"YWWL","West Wyalong","West Wyalong","Australia","AUS",-33.93722222222222,147.1913888888889,"{""type"":""Point"",""coordinates"":[147.1913888888889,-33.93722222222222]}"
"YWWI","Woodie Woodie","Woodie Woodie","Australia","AUS",-21.64527777777778,121.19166666666668,"{""type"":""Point"",""coordinates"":[121.19166666666668,-21.64527777777778]}"
"YWUD","Wudinna","Wudinna","Australia","AUS",-33.04333333333333,135.44722222222222,"{""type"":""Point"",""coordinates"":[135.44722222222222,-33.04333333333333]}"
"YWTO","Wentworth","Wentworth","Australia","AUS",-34.08833333333334,141.89166666666665,"{""type"":""Point"",""coordinates"":[141.89166666666665,-34.08833333333334]}"
"YWTN","Winton","Winton","Australia","AUS",-22.363611111111112,143.08555555555557,"{""type"":""Point"",""coordinates"":[143.08555555555557,-22.363611111111112]}"
"YWOL","Wollongong","Wollongong","Australia","AUS",-34.56111111111111,150.78861111111112,"{""type"":""Point"",""coordinates"":[150.78861111111112,-34.56111111111111]}"
"YWMC","William Creek","William Creek","Australia","AUS",-28.906666666666666,136.34166666666667,"{""type"":""Point"",""coordinates"":[136.34166666666667,-28.906666666666666]}"
"YWKI","Waikerie","Waikerie","Australia","AUS",-34.18416666666666,140.03055555555557,"{""type"":""Point"",""coordinates"":[140.03055555555557,-34.18416666666666]}"
"YWIS","Williamson","Williamson","Australia","AUS",-22.473333333333333,150.1783333333333,"{""type"":""Point"",""coordinates"":[150.1783333333333,-22.473333333333333]}"
"YWHA","Whyalla","Whyalla","Australia","AUS",-33.05888888888889,137.51444444444445,"{""type"":""Point"",""coordinates"":[137.51444444444445,-33.05888888888889]}"
"YWDH","Windorah","Windorah","Australia","AUS",-25.413055555555555,142.66722222222222,"{""type"":""Point"",""coordinates"":[142.66722222222222,-25.413055555555555]}"
"YWDG","Windarling","Windarling","Australia","AUS",-30.031666666666666,119.39,"{""type"":""Point"",""coordinates"":[119.39,-30.031666666666666]}"
"YWCK","Warwick","Warwick","Australia","AUS",-28.149444444444445,151.94305555555556,"{""type"":""Point"",""coordinates"":[151.94305555555556,-28.149444444444445]}"
"YWBS","Warraber Island","Warraber Island","Australia","AUS",-10.206666666666665,142.82333333333332,"{""type"":""Point"",""coordinates"":[142.82333333333332,-10.206666666666665]}"
"YWBR","Warburton","Warburton","Australia","AUS",-26.128333333333334,126.58333333333333,"{""type"":""Point"",""coordinates"":[126.58333333333333,-26.128333333333334]}"
"YVRD","Victoria River Downs","Victoria River Downs","Australia","AUS",-16.402719444444443,131.0040138888889,"{""type"":""Point"",""coordinates"":[131.0040138888889,-16.402719444444443]}"
"YTTI","Troughton I","Troughton I","Australia","AUS",-13.751666666666667,126.14833333333334,"{""type"":""Point"",""coordinates"":[126.14833333333334,-13.751666666666667]}"
"YTST","Truscott-Mungalalu","Truscott-Mungalalu","Australia","AUS",-14.089722222222223,126.38083333333333,"{""type"":""Point"",""coordinates"":[126.38083333333333,-14.089722222222223]}"
"YTRE","Taree","Taree","Australia","AUS",-31.88861111111111,152.51388888888889,"{""type"":""Point"",""coordinates"":[152.51388888888889,-31.88861111111111]}"
"YTRA","Tropicana","Tropicana","Australia","AUS",-29.186666666666667,124.55027777777778,"{""type"":""Point"",""coordinates"":[124.55027777777778,-29.186666666666667]}"
"YTIB","Tibooburra","Tibooburra","Australia","AUS",-29.45111111111111,142.0577777777778,"{""type"":""Point"",""coordinates"":[142.0577777777778,-29.45111111111111]}"
"YPPH","Perth Intl","Perth","Australia","AUS",-31.940277777777776,115.96694444444445,"{""type"":""Point"",""coordinates"":[115.96694444444445,-31.940277777777776]}"
"YTGM","Thargomindah","Thargomindah","Australia","AUS",-27.98638888888889,143.81083333333333,"{""type"":""Point"",""coordinates"":[143.81083333333333,-27.98638888888889]}"
"YGFN","Grafton","Grafton","Australia","AUS",-29.759444444444444,153.03,"{""type"":""Point"",""coordinates"":[153.03,-29.759444444444444]}"
"YTEM","Temora","Temora","Australia","AUS",-34.421388888888885,147.51166666666666,"{""type"":""Point"",""coordinates"":[147.51166666666666,-34.421388888888885]}"
"YTEE","Trepell","Trepell","Australia","AUS",-21.834999999999997,140.88805555555555,"{""type"":""Point"",""coordinates"":[140.88805555555555,-21.834999999999997]}"
"YMMU","Middlemount","Middlemount","Australia","AUS",-22.803333333333335,148.70499999999998,"{""type"":""Point"",""coordinates"":[148.70499999999998,-22.803333333333335]}"
"YTDN","Tooradin","Tooradin","Australia","AUS",-38.215,145.42333333333332,"{""type"":""Point"",""coordinates"":[145.42333333333332,-38.215]}"
"YSTA","Saint Arnaud","Saint Arnaud","Australia","AUS",-36.63666666666666,143.18583333333333,"{""type"":""Point"",""coordinates"":[143.18583333333333,-36.63666666666666]}"
"YLEG","Leongatha","Leongatha","Australia","AUS",-38.49305555555556,145.85972222222222,"{""type"":""Point"",""coordinates"":[145.85972222222222,-38.49305555555556]}"
"YLMQ","Lake Macquarie","Lake Macquarie","Australia","AUS",-33.066111111111105,151.64805555555554,"{""type"":""Point"",""coordinates"":[151.64805555555554,-33.066111111111105]}"
"YPCC","Cocos (Keeling) I Intl","Cocos (Keeling) I","Australia","AUS",-12.188333333333334,96.83,"{""type"":""Point"",""coordinates"":[96.83,-12.188333333333334]}"
"YSSY","Kingsford Smith Intl","Sydney","Australia","AUS",-33.94611111111111,151.1772222222222,"{""type"":""Point"",""coordinates"":[151.1772222222222,-33.94611111111111]}"
"YGPT","Garden Point","Garden Point","Australia","AUS",-11.399166666666666,130.42527777777778,"{""type"":""Point"",""coordinates"":[130.42527777777778,-11.399166666666666]}"
"YSNW","Nowra Military","Nowra","Australia","AUS",-34.94888888888889,150.53694444444443,"{""type"":""Point"",""coordinates"":[150.53694444444443,-34.94888888888889]}"
"YAMB","Amberley Military","Amberley","Australia","AUS",-27.640555555555554,152.71194444444444,"{""type"":""Point"",""coordinates"":[152.71194444444444,-27.640555555555554]}"
"YSNF","Norfolk Island","Norfolk I","Australia","AUS",-29.0425,167.93805555555556,"{""type"":""Point"",""coordinates"":[167.93805555555556,-29.0425]}"
"YSNC","Sinclair","Sinclair","Australia","AUS",-28.33833333333333,120.85333333333332,"{""type"":""Point"",""coordinates"":[120.85333333333332,-28.33833333333333]}"
"YSMI","Smithton","Smithton","Australia","AUS",-40.835,145.0836111111111,"{""type"":""Point"",""coordinates"":[145.0836111111111,-40.835]}"
"YSII","Saibai Island","Saibai Island","Australia","AUS",-9.378333333333334,142.625,"{""type"":""Point"",""coordinates"":[142.625,-9.378333333333334]}"
"YKID","Kidston","Kidston","Australia","AUS",-18.87,144.17333333333332,"{""type"":""Point"",""coordinates"":[144.17333333333332,-18.87]}"
"YRTI","Rottnest I","Rottnest I","Australia","AUS",-32.00666666666667,115.53972222222222,"{""type"":""Point"",""coordinates"":[115.53972222222222,-32.00666666666667]}"
"YROM","Roma","Roma","Australia","AUS",-26.545,148.77472222222224,"{""type"":""Point"",""coordinates"":[148.77472222222224,-26.545]}"
"YRMD","Richmond","Richmond","Australia","AUS",-20.701944444444443,143.1147222222222,"{""type"":""Point"",""coordinates"":[143.1147222222222,-20.701944444444443]}"
"YREN","Renmark","Renmark","Australia","AUS",-34.19638888888888,140.67388888888888,"{""type"":""Point"",""coordinates"":[140.67388888888888,-34.19638888888888]}"
"YQNS","Queenstown","Queenstown","Australia","AUS",-42.07555555555556,145.53083333333333,"{""type"":""Point"",""coordinates"":[145.53083333333333,-42.07555555555556]}"
"YTMO","The Monument","The Monument","Australia","AUS",-21.811111111111114,139.92361111111111,"{""type"":""Point"",""coordinates"":[139.92361111111111,-21.811111111111114]}"
"YQDI","Quirindi","Quirindi","Australia","AUS",-31.498611111111114,150.51805555555558,"{""type"":""Point"",""coordinates"":[150.51805555555558,-31.498611111111114]}"
"YELD","Elcho I","Elcho I","Australia","AUS",-12.019338888888889,135.57065,"{""type"":""Point"",""coordinates"":[135.57065,-12.019338888888889]}"
"YPXM","Christmas I","Christmas I","Australia","AUS",-10.450555555555555,105.69027777777778,"{""type"":""Point"",""coordinates"":[105.69027777777778,-10.450555555555555]}"
"YMBA","Mareeba","Mareeba","Australia","AUS",-17.069166666666668,145.41916666666665,"{""type"":""Point"",""coordinates"":[145.41916666666665,-17.069166666666668]}"
"YPWR","Woomera","Woomera","Australia","AUS",-31.144166666666667,136.81694444444443,"{""type"":""Point"",""coordinates"":[136.81694444444443,-31.144166666666667]}"
"YMLS","Miles","Miles","Australia","AUS",-26.80611111111111,150.16972222222222,"{""type"":""Point"",""coordinates"":[150.16972222222222,-26.80611111111111]}"
"YPMP","Pormpuraaw","Pormpuraaw","Australia","AUS",-14.897499999999999,141.61083333333332,"{""type"":""Point"",""coordinates"":[141.61083333333332,-14.897499999999999]}"
"YPLU","Plutonic","Plutonic","Australia","AUS",-25.313333333333333,119.42333333333333,"{""type"":""Point"",""coordinates"":[119.42333333333333,-25.313333333333333]}"
"YPLM","Learmonth","Learmonth","Australia","AUS",-22.235555555555557,114.0886111111111,"{""type"":""Point"",""coordinates"":[114.0886111111111,-22.235555555555557]}"
"YNGU","Ngukurr","Ngukurr","Australia","AUS",-14.723333333333333,134.7483333333333,"{""type"":""Point"",""coordinates"":[134.7483333333333,-14.723333333333333]}"
"YPKU","Kununurra","Kununurra","Australia","AUS",-15.778055555555556,128.70749999999998,"{""type"":""Point"",""coordinates"":[128.70749999999998,-15.778055555555556]}"
"YCMW","Camooweal Ala","Camooweal","Australia","AUS",-19.911666666666665,138.125,"{""type"":""Point"",""coordinates"":[138.125,-19.911666666666665]}"
"YPKA","Karratha","Karratha","Australia","AUS",-20.71222222222222,116.77333333333333,"{""type"":""Point"",""coordinates"":[116.77333333333333,-20.71222222222222]}"
"YTGT","The Granites","The Granites","Australia","AUS",-20.548333333333336,130.35,"{""type"":""Point"",""coordinates"":[130.35,-20.548333333333336]}"
"YPBO","Paraburdoo","Paraburdoo","Australia","AUS",-23.171111111111113,117.74527777777777,"{""type"":""Point"",""coordinates"":[117.74527777777777,-23.171111111111113]}"
"YPAG","Port Augusta","Port Augusta","Australia","AUS",-32.50694444444444,137.71666666666667,"{""type"":""Point"",""coordinates"":[137.71666666666667,-32.50694444444444]}"
"YPAD","Adelaide Intl","Adelaide","Australia","AUS",-34.94499999999999,138.53055555555557,"{""type"":""Point"",""coordinates"":[138.53055555555557,-34.94499999999999]}"
"YOSB","Osborne Mine","Osborne Mine","Australia","AUS",-22.081666666666667,140.555,"{""type"":""Point"",""coordinates"":[140.555,-22.081666666666667]}"
"YORG","Orange","Orange","Australia","AUS",-33.378055555555555,149.12555555555556,"{""type"":""Point"",""coordinates"":[149.12555555555556,-33.378055555555555]}"
"YORB","Orbost","Orbost","Australia","AUS",-37.790277777777774,148.60972222222222,"{""type"":""Point"",""coordinates"":[148.60972222222222,-37.790277777777774]}"
"YOOM","Moomba","Moomba","Australia","AUS",-28.099444444444444,140.19694444444445,"{""type"":""Point"",""coordinates"":[140.19694444444445,-28.099444444444444]}"
"YOLW","Onslow","Onslow","Australia","AUS",-21.668333333333333,115.11305555555555,"{""type"":""Point"",""coordinates"":[115.11305555555555,-21.668333333333333]}"
"YTEF","Telfer","Telfer","Australia","AUS",-21.715,122.2286111111111,"{""type"":""Point"",""coordinates"":[122.2286111111111,-21.715]}"
"YCBR","Collarenebri","Collarenebri","Australia","AUS",-29.521944444444443,148.5822222222222,"{""type"":""Point"",""coordinates"":[148.5822222222222,-29.521944444444443]}"
"YOLD","Olympic Dam","Olympic Dam","Australia","AUS",-30.485,136.87666666666667,"{""type"":""Point"",""coordinates"":[136.87666666666667,-30.485]}"
"YTMU","Tumut","Tumut","Australia","AUS",-35.2629,148.24072222222222,"{""type"":""Point"",""coordinates"":[148.24072222222222,-35.2629]}"
"YSRI","Richmond (Military)","Richmond","Australia","AUS",-33.60055555555556,150.78083333333333,"{""type"":""Point"",""coordinates"":[150.78083333333333,-33.60055555555556]}"
"YOEN","Oenpelli","Oenpelli","Australia","AUS",-12.325277777777778,133.00555555555556,"{""type"":""Point"",""coordinates"":[133.00555555555556,-12.325277777777778]}"
"YSPI","Springsure","Emerald","Australia","AUS",-24.131666666666668,148.085,"{""type"":""Point"",""coordinates"":[148.085,-24.131666666666668]}"
"YNWN","Newman","Newman","Australia","AUS",-23.41777777777778,119.80277777777778,"{""type"":""Point"",""coordinates"":[119.80277777777778,-23.41777777777778]}"
"YPBH","Peterborough","Peterborough","Australia","AUS",-38.606944444444444,142.89805555555554,"{""type"":""Point"",""coordinates"":[142.89805555555554,-38.606944444444444]}"
"YNUM","Numbulwar","Numbulwar","Australia","AUS",-14.271666666666668,135.71666666666667,"{""type"":""Point"",""coordinates"":[135.71666666666667,-14.271666666666668]}"
"YNUL","Nullagine","Nullagine","Australia","AUS",-21.91333333333333,120.19666666666667,"{""type"":""Point"",""coordinates"":[120.19666666666667,-21.91333333333333]}"
"YBCM","Coominya","Coominya","Australia","AUS",-27.391666666666666,152.46166666666664,"{""type"":""Point"",""coordinates"":[152.46166666666664,-27.391666666666666]}"
"YSHT","Shepparton","Shepparton","Australia","AUS",-36.428888888888885,145.39249999999998,"{""type"":""Point"",""coordinates"":[145.39249999999998,-36.428888888888885]}"
"YNSM","Norseman","Norseman","Australia","AUS",-32.20944444444445,121.75444444444445,"{""type"":""Point"",""coordinates"":[121.75444444444445,-32.20944444444445]}"
"YTAM","Taroom","Taroom","Australia","AUS",-25.801944444444445,149.89944444444444,"{""type"":""Point"",""coordinates"":[149.89944444444444,-25.801944444444445]}"
"YMAV","Avalon","Avalon","Australia","AUS",-38.03944444444444,144.46944444444443,"{""type"":""Point"",""coordinates"":[144.46944444444443,-38.03944444444444]}"
"YNRM","Narromine","Narromine","Australia","AUS",-32.214444444444446,148.22472222222223,"{""type"":""Point"",""coordinates"":[148.22472222222223,-32.214444444444446]}"
"YNPE","Northern Peninsula","Northern Peninsula","Australia","AUS",-10.950833333333332,142.45944444444444,"{""type"":""Point"",""coordinates"":[142.45944444444444,-10.950833333333332]}"
"YNKR","Nackeroo","Nackeroo","Australia","AUS",-15.576666666666666,130.475,"{""type"":""Point"",""coordinates"":[130.475,-15.576666666666666]}"
"YNHL","Nhill","Nhill","Australia","AUS",-36.30972222222222,141.64083333333332,"{""type"":""Point"",""coordinates"":[141.64083333333332,-36.30972222222222]}"
"YPPF","Parafield","Adelaide","Australia","AUS",-34.79333333333333,138.63305555555556,"{""type"":""Point"",""coordinates"":[138.63305555555556,-34.79333333333333]}"
"YNAR","Narrandera","Narrandera","Australia","AUS",-34.702222222222225,146.51222222222222,"{""type"":""Point"",""coordinates"":[146.51222222222222,-34.702222222222225]}"
"YMYB","Maryborough","Maryborough","Australia","AUS",-25.513333333333332,152.71499999999997,"{""type"":""Point"",""coordinates"":[152.71499999999997,-25.513333333333332]}"
"YMRY","Moruya","Moruya","Australia","AUS",-35.897777777777776,150.14444444444445,"{""type"":""Point"",""coordinates"":[150.14444444444445,-35.897777777777776]}"
"YMRW","Morawa","Morawa","Australia","AUS",-29.20138888888889,116.02194444444444,"{""type"":""Point"",""coordinates"":[116.02194444444444,-29.20138888888889]}"
"YBRW","Brewarrina","Brewarrina","Australia","AUS",-29.973888888888887,146.81666666666666,"{""type"":""Point"",""coordinates"":[146.81666666666666,-29.973888888888887]}"
"YMRB","Moranbah","Moranbah","Australia","AUS",-22.05777777777778,148.0775,"{""type"":""Point"",""coordinates"":[148.0775,-22.05777777777778]}"
"YMPA","Minnipa","Minnipa","Australia","AUS",-32.843333333333334,135.14499999999998,"{""type"":""Point"",""coordinates"":[135.14499999999998,-32.843333333333334]}"
"YMML","Melbourne Intl","Melbourne","Australia","AUS",-37.67333333333333,144.84333333333333,"{""type"":""Point"",""coordinates"":[144.84333333333333,-37.67333333333333]}"
"YSWH","Swan Hill","Swan Hill","Australia","AUS",-35.37583333333333,143.5327777777778,"{""type"":""Point"",""coordinates"":[143.5327777777778,-35.37583333333333]}"
"YMOR","Moree","Moree","Australia","AUS",-29.49888888888889,149.84472222222223,"{""type"":""Point"",""coordinates"":[149.84472222222223,-29.49888888888889]}"
"YTWB","Toowoomba","Toowoomba","Australia","AUS",-27.54138888888889,151.9125,"{""type"":""Point"",""coordinates"":[151.9125,-27.54138888888889]}"
"YECH","Echuca","Echuca","Australia","AUS",-36.157222222222224,144.76194444444445,"{""type"":""Point"",""coordinates"":[144.76194444444445,-36.157222222222224]}"
"YDGU","DeGrussa","DeGrussa","Australia","AUS",-25.5575,119.2875,"{""type"":""Point"",""coordinates"":[119.2875,-25.5575]}"
"YMNG","Mangalore","Mangalore","Australia","AUS",-36.888333333333335,145.18416666666667,"{""type"":""Point"",""coordinates"":[145.18416666666667,-36.888333333333335]}"
"YMNE","Mt. Keith","Mt. Keith","Australia","AUS",-27.28638888888889,120.55472222222222,"{""type"":""Point"",""coordinates"":[120.55472222222222,-27.28638888888889]}"
"YMGT","Margaret River","Margaret River","Australia","AUS",-33.930436111111106,115.09924166666666,"{""type"":""Point"",""coordinates"":[115.09924166666666,-33.930436111111106]}"
"YMND","Maitland","Maitland","Australia","AUS",-32.70333333333333,151.48833333333332,"{""type"":""Point"",""coordinates"":[151.48833333333332,-32.70333333333333]}"
"YMEK","Meekatharra","Meekatharra","Australia","AUS",-26.611666666666668,118.54777777777778,"{""type"":""Point"",""coordinates"":[118.54777777777778,-26.611666666666668]}"
"YLIL","Lilydale","Lilydale","Australia","AUS",-37.69,145.36833333333334,"{""type"":""Point"",""coordinates"":[145.36833333333334,-37.69]}"
"YLST","Leinster","Leinster","Australia","AUS",-27.843333333333334,120.70333333333333,"{""type"":""Point"",""coordinates"":[120.70333333333333,-27.843333333333334]}"
"YBWP","Weipa","Weipa","Australia","AUS",-12.67861111111111,141.92527777777778,"{""type"":""Point"",""coordinates"":[141.92527777777778,-12.67861111111111]}"
"YMMN","Millmerran","Pittsworth","Australia","AUS",-27.863333333333333,151.275,"{""type"":""Point"",""coordinates"":[151.275,-27.863333333333333]}"
"YGRL","Great Lakes","Great Lakes","Australia","AUS",-37.848333333333336,148,"{""type"":""Point"",""coordinates"":[148,-37.848333333333336]}"
"YLCG","Lake Cargelligo","Lake Cargelligo","Australia","AUS",-33.27833333333333,146.36916666666667,"{""type"":""Point"",""coordinates"":[146.36916666666667,-33.27833333333333]}"
"YMMI","Murrin Murrin","Murrin Murrin","Australia","AUS",-28.705277777777777,121.89055555555557,"{""type"":""Point"",""coordinates"":[121.89055555555557,-28.705277777777777]}"
"YPAM","Palm Island","Palm Island","Australia","AUS",-18.755277777777778,146.58138888888888,"{""type"":""Point"",""coordinates"":[146.58138888888888,-18.755277777777778]}"
"YKUB","Kubin","Kubin","Australia","AUS",-10.226666666666667,142.22361111111113,"{""type"":""Point"",""coordinates"":[142.22361111111113,-10.226666666666667]}"
"YARG","Argyle","Argyle","Australia","AUS",-16.636944444444445,128.45138888888889,"{""type"":""Point"",""coordinates"":[128.45138888888889,-16.636944444444445]}"
"YMHB","Hobart","Hobart","Australia","AUS",-42.836111111111116,147.5102777777778,"{""type"":""Point"",""coordinates"":[147.5102777777778,-42.836111111111116]}"
"YESE","Elrose","Cloncurry","Australia","AUS",-20.97722222222222,141.00722222222223,"{""type"":""Point"",""coordinates"":[141.00722222222223,-20.97722222222222]}"
"YMGD","Maningrida","Maningrida","Australia","AUS",-12.056111111111111,134.23416666666665,"{""type"":""Point"",""coordinates"":[134.23416666666665,-12.056111111111111]}"
"YOLA","Colac","Colac","Australia","AUS",-38.28666666666666,143.67999999999998,"{""type"":""Point"",""coordinates"":[143.67999999999998,-38.28666666666666]}"
"YGDI","Goondiwindi","Goondiwindi","Australia","AUS",-28.52138888888889,150.32027777777776,"{""type"":""Point"",""coordinates"":[150.32027777777776,-28.52138888888889]}"
"YMER","Merimbula","Merimbula","Australia","AUS",-36.90861111111111,149.9013888888889,"{""type"":""Point"",""coordinates"":[149.9013888888889,-36.90861111111111]}"
"YBRN","Balranald","Balranald","Australia","AUS",-34.62361111111111,143.57833333333332,"{""type"":""Point"",""coordinates"":[143.57833333333332,-34.62361111111111]}"
"YDLO","Darlot","Darlot","Australia","AUS",-27.87361111111111,121.27166666666666,"{""type"":""Point"",""coordinates"":[121.27166666666666,-27.87361111111111]}"
"YMJM","Manjimup","Manjimup","Australia","AUS",-34.265277777777776,116.14027777777778,"{""type"":""Point"",""coordinates"":[116.14027777777778,-34.265277777777776]}"
"YBOI","Boigu","Boigu","Australia","AUS",-9.233333333333333,142.21833333333333,"{""type"":""Point"",""coordinates"":[142.21833333333333,-9.233333333333333]}"
"YMCT","Millicent","Millicent","Australia","AUS",-37.58361111111111,140.3661111111111,"{""type"":""Point"",""coordinates"":[140.3661111111111,-37.58361111111111]}"
"YCNY","Century Mine","Century Mine","Australia","AUS",-18.753333333333334,138.70666666666665,"{""type"":""Point"",""coordinates"":[138.70666666666665,-18.753333333333334]}"
"YCOR","Corowa","Corowa","Australia","AUS",-35.99027777777778,146.3513888888889,"{""type"":""Point"",""coordinates"":[146.3513888888889,-35.99027777777778]}"
"YTNK","Tennant Creek","Tennant Creek","Australia","AUS",-19.634444444444444,134.18333333333334,"{""type"":""Point"",""coordinates"":[134.18333333333334,-19.634444444444444]}"
"YWSL","West Sale","West Sale","Australia","AUS",-38.09166666666667,146.96527777777777,"{""type"":""Point"",""coordinates"":[146.96527777777777,-38.09166666666667]}"
"YRNG","Ramingining","Ramingining","Australia","AUS",-12.356388888888889,134.89749999999998,"{""type"":""Point"",""coordinates"":[134.89749999999998,-12.356388888888889]}"
"YMCO","Mallacoota","Mallacoota","Australia","AUS",-37.598888888888894,149.72083333333333,"{""type"":""Point"",""coordinates"":[149.72083333333333,-37.598888888888894]}"
"YEML","Emerald","Emerald","Australia","AUS",-23.5675,148.17916666666665,"{""type"":""Point"",""coordinates"":[148.17916666666665,-23.5675]}"
"YCIN","Curtin","Curtin","Australia","AUS",-17.58138888888889,123.82833333333333,"{""type"":""Point"",""coordinates"":[123.82833333333333,-17.58138888888889]}"
"YDBI","Dirranbandi","Dirranbandi","Australia","AUS",-28.591666666666665,148.21666666666667,"{""type"":""Point"",""coordinates"":[148.21666666666667,-28.591666666666665]}"
"YMBL","Marble Bar","Marble Bar","Australia","AUS",-21.162777777777777,119.83333333333333,"{""type"":""Point"",""coordinates"":[119.83333333333333,-21.162777777777777]}"
"YMAY","Albury","Albury","Australia","AUS",-36.06777777777778,146.95805555555555,"{""type"":""Point"",""coordinates"":[146.95805555555555,-36.06777777777778]}"
"YBKT","Burketown","Burketown","Australia","AUS",-17.748611111111114,139.53444444444443,"{""type"":""Point"",""coordinates"":[139.53444444444443,-17.748611111111114]}"
"YMAE","Murray/Mer Island","Murray/Mer Island","Australia","AUS",-9.915000000000001,144.055,"{""type"":""Point"",""coordinates"":[144.055,-9.915000000000001]}"
"YLTN","Laverton","Laverton","Australia","AUS",-28.613333333333333,122.42333333333333,"{""type"":""Point"",""coordinates"":[122.42333333333333,-28.613333333333333]}"
"YMOG","Mount Magnet","Mount Magnet","Australia","AUS",-28.116111111111113,117.84166666666667,"{""type"":""Point"",""coordinates"":[117.84166666666667,-28.116111111111113]}"
"YBUN","Bunbury","Bunbury","Australia","AUS",-33.378055555555555,115.67694444444444,"{""type"":""Point"",""coordinates"":[115.67694444444444,-33.378055555555555]}"
"YLVK","Lavarack","Lavarack","Australia","AUS",-19.320833333333333,146.80194444444444,"{""type"":""Point"",""coordinates"":[146.80194444444444,-19.320833333333333]}"
"YLAW","Lawlers","Leinster","Australia","AUS",-28.09,120.53999999999999,"{""type"":""Point"",""coordinates"":[120.53999999999999,-28.09]}"
"YLOX","Loxton","Loxton","Australia","AUS",-34.475833333333334,140.6638888888889,"{""type"":""Point"",""coordinates"":[140.6638888888889,-34.475833333333334]}"
"YSNB","Snake Bay","Snake Bay","Australia","AUS",-11.422777777777776,130.6536111111111,"{""type"":""Point"",""coordinates"":[130.6536111111111,-11.422777777777776]}"
"YPMH","Prominent Hill","Prominent Hill","Australia","AUS",-29.717777777777776,135.52444444444447,"{""type"":""Point"",""coordinates"":[135.52444444444447,-29.717777777777776]}"
"YCAH","Coolah","Coolah","Australia","AUS",-31.773333333333333,149.60999999999999,"{""type"":""Point"",""coordinates"":[149.60999999999999,-31.773333333333333]}"
"YHPN","Hopetoun","Hopetoun","Australia","AUS",-35.71527777777778,142.35972222222222,"{""type"":""Point"",""coordinates"":[142.35972222222222,-35.71527777777778]}"
"YLJN","Lake Johnston","West Perth","Australia","AUS",-32.31777777777778,120.55472222222222,"{""type"":""Point"",""coordinates"":[120.55472222222222,-32.31777777777778]}"
"YCNM","Coonamble","Coonamble","Australia","AUS",-30.98338888888889,148.37564444444445,"{""type"":""Point"",""coordinates"":[148.37564444444445,-30.98338888888889]}"
"YCBP","Coober Pedy","Coober Pedy","Australia","AUS",-29.040000000000003,134.72083333333333,"{""type"":""Point"",""coordinates"":[134.72083333333333,-29.040000000000003]}"
"YLHR","Lockhart River","Lockhart River","Australia","AUS",-12.786944444444444,143.30472222222224,"{""type"":""Point"",""coordinates"":[143.30472222222224,-12.786944444444444]}"
"YSOL","Solomon","Solomon","Australia","AUS",-22.255,117.85166666666666,"{""type"":""Point"",""coordinates"":[117.85166666666666,-22.255]}"
"YTOC","Tocumwal","Tocumwal","Australia","AUS",-35.81083333333333,145.60416666666666,"{""type"":""Point"",""coordinates"":[145.60416666666666,-35.81083333333333]}"
"YLEV","Lake Evella","Lake Evella","Australia","AUS",-12.498888888888889,135.80583333333334,"{""type"":""Point"",""coordinates"":[135.80583333333334,-12.498888888888889]}"
"YCDE","Cobden","Cobden","Australia","AUS",-38.32666666666667,143.05666666666667,"{""type"":""Point"",""coordinates"":[143.05666666666667,-38.32666666666667]}"
"YDEK","Denmark","Denmark","Australia","AUS",-34.946666666666665,117.39666666666668,"{""type"":""Point"",""coordinates"":[117.39666666666668,-34.946666666666665]}"
"YLEO","Leonora","Leonora","Australia","AUS",-28.878055555555555,121.31472222222222,"{""type"":""Point"",""coordinates"":[121.31472222222222,-28.878055555555555]}"
"YRED","Redcliffe","Redcliffe","Australia","AUS",-27.206666666666667,153.06777777777776,"{""type"":""Point"",""coordinates"":[153.06777777777776,-27.206666666666667]}"
"YCBG","Cambridge","Hobart","Australia","AUS",-42.82666666666667,147.47472222222223,"{""type"":""Point"",""coordinates"":[147.47472222222223,-42.82666666666667]}"
"YGLI","Glen Innes","Glen Innes","Australia","AUS",-29.675,151.68944444444446,"{""type"":""Point"",""coordinates"":[151.68944444444446,-29.675]}"
"YPDN","Darwin Intl","Darwin","Australia","AUS",-12.414722222222222,130.87666666666667,"{""type"":""Point"",""coordinates"":[130.87666666666667,-12.414722222222222]}"
"YBOU","Boulia","Boulia","Australia","AUS",-22.91333333333333,139.8997222222222,"{""type"":""Point"",""coordinates"":[139.8997222222222,-22.91333333333333]}"
"YCBB","Coonabarabran","Coonabarabran","Australia","AUS",-31.3325,149.26722222222224,"{""type"":""Point"",""coordinates"":[149.26722222222224,-31.3325]}"
"YKOW","Kowanyama","Kowanyama","Australia","AUS",-15.485555555555555,141.7513888888889,"{""type"":""Point"",""coordinates"":[141.7513888888889,-15.485555555555555]}"
"YWAV","Wave Hill","Wave Hill","Australia","AUS",-17.395,131.11833333333334,"{""type"":""Point"",""coordinates"":[131.11833333333334,-17.395]}"
"YYMI","Yam Island","Yam Island","Australia","AUS",-9.898333333333333,142.77166666666668,"{""type"":""Point"",""coordinates"":[142.77166666666668,-9.898333333333333]}"
"YSWG","Wagga Wagga","Wagga Wagga","Australia","AUS",-35.165277777777774,147.46638888888887,"{""type"":""Point"",""coordinates"":[147.46638888888887,-35.165277777777774]}"
"YKKG","Kalkgurung","Kalkgurung","Australia","AUS",-17.431944444444447,130.80805555555557,"{""type"":""Point"",""coordinates"":[130.80805555555557,-17.431944444444447]}"
"YBCK","Blackall","Blackall","Australia","AUS",-24.42777777777778,145.4286111111111,"{""type"":""Point"",""coordinates"":[145.4286111111111,-24.42777777777778]}"
"YWGT","Wangaratta","Wangaratta","Australia","AUS",-36.41583333333333,146.30694444444447,"{""type"":""Point"",""coordinates"":[146.30694444444447,-36.41583333333333]}"
"YMAA","Mabuiag Island","Mabuiag Island","Australia","AUS",-9.951797222222222,142.19633611111112,"{""type"":""Point"",""coordinates"":[142.19633611111112,-9.951797222222222]}"
"YAPH","Alpha","Alpha","Australia","AUS",-23.64611111111111,146.5836111111111,"{""type"":""Point"",""coordinates"":[146.5836111111111,-23.64611111111111]}"
"YLRE","Longreach","Longreach","Australia","AUS",-23.434166666666666,144.2802777777778,"{""type"":""Point"",""coordinates"":[144.2802777777778,-23.434166666666666]}"
"YBCV","Charleville","Charleville","Australia","AUS",-26.41333333333333,146.26333333333332,"{""type"":""Point"",""coordinates"":[146.26333333333332,-26.41333333333333]}"
"YKER","Kerang","Kerang","Australia","AUS",-35.75138888888889,143.93944444444446,"{""type"":""Point"",""coordinates"":[143.93944444444446,-35.75138888888889]}"
"YALA","Marla","Marla","Australia","AUS",-27.334166666666665,133.6263888888889,"{""type"":""Point"",""coordinates"":[133.6263888888889,-27.334166666666665]}"
"YKBY","Streaky Bay","Streaky Bay","Australia","AUS",-32.83583333333333,134.2927777777778,"{""type"":""Point"",""coordinates"":[134.2927777777778,-32.83583333333333]}"
"YKBL","Kambalda","Kambalda","Australia","AUS",-31.19,121.59833333333333,"{""type"":""Point"",""coordinates"":[121.59833333333333,-31.19]}"
"YGIG","Gingin","Gingin","Australia","AUS",-31.46527777777778,115.86333333333333,"{""type"":""Point"",""coordinates"":[115.86333333333333,-31.46527777777778]}"
"YMIA","Mildura","Mildura","Australia","AUS",-34.22916666666667,142.08555555555557,"{""type"":""Point"",""coordinates"":[142.08555555555557,-34.22916666666667]}"
"YBPN","Whitsunday Coast","Proserpine","Australia","AUS",-20.495,148.55222222222224,"{""type"":""Point"",""coordinates"":[148.55222222222224,-20.495]}"
"YKAL","Kalumburu","Kalumburu","Australia","AUS",-14.288055555555555,126.63111111111111,"{""type"":""Point"",""coordinates"":[126.63111111111111,-14.288055555555555]}"
"YPCE","Pooncarie","Pooncarie","Australia","AUS",-33.373333333333335,142.58333333333334,"{""type"":""Point"",""coordinates"":[142.58333333333334,-33.373333333333335]}"
"YGKL","Great Keppel Island","Great Keppel Island","Australia","AUS",-23.183333333333334,150.94166666666666,"{""type"":""Point"",""coordinates"":[150.94166666666666,-23.183333333333334]}"
"YJUN","Jundee","Jundee","Australia","AUS",-26.421111111111113,120.5775,"{""type"":""Point"",""coordinates"":[120.5775,-26.421111111111113]}"
"YJLC","Julia Creek","Julia Creek","Australia","AUS",-20.668333333333333,141.7225,"{""type"":""Point"",""coordinates"":[141.7225,-20.668333333333333]}"
"YMLT","Launceston","Launceston","Australia","AUS",-41.54527777777778,147.21416666666664,"{""type"":""Point"",""coordinates"":[147.21416666666664,-41.54527777777778]}"
"YBOK","Oakey (Military)","Oakey","Australia","AUS",-27.411388888888887,151.73527777777775,"{""type"":""Point"",""coordinates"":[151.73527777777775,-27.411388888888887]}"
"YJAC","Jacinth Ambrosia","Jacinth Ambrosia","Australia","AUS",-30.901666666666664,132.18333333333334,"{""type"":""Point"",""coordinates"":[132.18333333333334,-30.901666666666664]}"
"YROI","Robinvale","Robinvale","Australia","AUS",-34.650555555555556,142.7827777777778,"{""type"":""Point"",""coordinates"":[142.7827777777778,-34.650555555555556]}"
"YJAB","Jabiru","Jabiru","Australia","AUS",-12.658333333333333,132.89305555555555,"{""type"":""Point"",""coordinates"":[132.89305555555555,-12.658333333333333]}"
"YKNG","Katanning","Katanning","Australia","AUS",-33.69944444444444,117.655,"{""type"":""Point"",""coordinates"":[117.655,-33.69944444444444]}"
"YDWF","Delamere","Delamere","Australia","AUS",-15.745,131.90666666666667,"{""type"":""Point"",""coordinates"":[131.90666666666667,-15.745]}"
"YIMB","Kimba","Kimba","Australia","AUS",-33.099722222222226,136.4597222222222,"{""type"":""Point"",""coordinates"":[136.4597222222222,-33.099722222222226]}"
"YIFL","Innisfail","Innisfail","Australia","AUS",-17.558611111111112,146.01166666666666,"{""type"":""Point"",""coordinates"":[146.01166666666666,-17.558611111111112]}"
"YCWA","Coondewanna","Coondewanna","Australia","AUS",-22.966666666666665,118.81333333333333,"{""type"":""Point"",""coordinates"":[118.81333333333333,-22.966666666666665]}"
"YCRG","Corryong","Corryong","Australia","AUS",-36.18277777777777,147.88777777777776,"{""type"":""Point"",""coordinates"":[147.88777777777776,-36.18277777777777]}"
"YHSM","Horsham","Horsham","Australia","AUS",-36.66972222222222,142.17277777777778,"{""type"":""Point"",""coordinates"":[142.17277777777778,-36.66972222222222]}"
"YHOO","Hooker Creek","Hooker Creek","Australia","AUS",-18.335833333333333,130.64333333333332,"{""type"":""Point"",""coordinates"":[130.64333333333332,-18.335833333333333]}"
"YNRC","Naracoorte","Naracoorte","Australia","AUS",-36.98527777777778,140.725,"{""type"":""Point"",""coordinates"":[140.725,-36.98527777777778]}"
"YLHI","Lord Howe Island","Lord Howe Island","Australia","AUS",-31.538333333333334,159.07722222222222,"{""type"":""Point"",""coordinates"":[159.07722222222222,-31.538333333333334]}"
"YLIS","Lismore","Lismore","Australia","AUS",-28.826666666666668,153.2575,"{""type"":""Point"",""coordinates"":[153.2575,-28.826666666666668]}"
"YHML","Hamilton","Hamilton","Australia","AUS",-37.64888888888889,142.0652777777778,"{""type"":""Point"",""coordinates"":[142.0652777777778,-37.64888888888889]}"
"YTOT","Tottenham","Tottenham","Australia","AUS",-32.25666666666667,147.36833333333334,"{""type"":""Point"",""coordinates"":[147.36833333333334,-32.25666666666667]}"
"YNYN","Nyngan","Nyngan","Australia","AUS",-31.551111111111112,147.20277777777775,"{""type"":""Point"",""coordinates"":[147.20277777777775,-31.551111111111112]}"
"YGGE","Golden Grove","Golden Grove","Australia","AUS",-28.765,116.97166666666666,"{""type"":""Point"",""coordinates"":[116.97166666666666,-28.765]}"
"YNTN","Normanton","Normanton","Australia","AUS",-17.685,141.07027777777776,"{""type"":""Point"",""coordinates"":[141.07027777777776,-17.685]}"
"YMTG","Mount Gambier","Mount Gambier","Australia","AUS",-37.745555555555555,140.78527777777776,"{""type"":""Point"",""coordinates"":[140.78527777777776,-37.745555555555555]}"
"YGIA","Ginbata","Ginbata","Australia","AUS",-22.58111111111111,120.03555555555555,"{""type"":""Point"",""coordinates"":[120.03555555555555,-22.58111111111111]}"
"YMGB","Milingimbi","Milingimbi","Australia","AUS",-12.094444444444445,134.8936111111111,"{""type"":""Point"",""coordinates"":[134.8936111111111,-12.094444444444445]}"
"YHID","Horn Island","Horn Island","Australia","AUS",-10.586388888888889,142.29,"{""type"":""Point"",""coordinates"":[142.29,-10.586388888888889]}"
"YGWA","Goolwa","Goolwa","Australia","AUS",-35.481944444444444,138.7513888888889,"{""type"":""Point"",""coordinates"":[138.7513888888889,-35.481944444444444]}"
"YSLK","Sea Lake","Sea Lake","Australia","AUS",-35.531666666666666,142.89,"{""type"":""Point"",""coordinates"":[142.89,-35.531666666666666]}"
"YDKG","Duketon Gold","Duketon Gold","Australia","AUS",-27.601944444444445,122.33388888888888,"{""type"":""Point"",""coordinates"":[122.33388888888888,-27.601944444444445]}"
"YWLG","Walgett","Walgett","Australia","AUS",-30.032777777777778,148.12583333333333,"{""type"":""Point"",""coordinates"":[148.12583333333333,-30.032777777777778]}"
"YGRS","Granny Smith","Laverton","Australia","AUS",-28.763333333333332,122.43833333333333,"{""type"":""Point"",""coordinates"":[122.43833333333333,-28.763333333333332]}"
"YGTN","Georgetown","Georgetown","Australia","AUS",-18.305,143.53,"{""type"":""Point"",""coordinates"":[143.53,-18.305]}"
"YGTH","Griffith","Griffith","Australia","AUS",-34.25083333333333,146.06722222222223,"{""type"":""Point"",""coordinates"":[146.06722222222223,-34.25083333333333]}"
"YHUG","Hughenden","Hughenden","Australia","AUS",-20.815,144.2252777777778,"{""type"":""Point"",""coordinates"":[144.2252777777778,-20.815]}"
"YPPD","Port Hedland Intl","Port Hedland","Australia","AUS",-20.37777777777778,118.62638888888888,"{""type"":""Point"",""coordinates"":[118.62638888888888,-20.37777777777778]}"
"YGTE","Groote Eylandt","Groote Eylandt","Australia","AUS",-13.973333333333333,136.4608333333333,"{""type"":""Point"",""coordinates"":[136.4608333333333,-13.973333333333333]}"
"YGON","Mount Gordon","Mount Gordon","Australia","AUS",-19.775,139.40666666666667,"{""type"":""Point"",""coordinates"":[139.40666666666667,-19.775]}"
"YLLE","Ballera","Ballera","Australia","AUS",-27.40833333333333,141.80833333333334,"{""type"":""Point"",""coordinates"":[141.80833333333334,-27.40833333333333]}"
"YDOD","Donald","Donald","Australia","AUS",-36.36027777777778,143.0075,"{""type"":""Point"",""coordinates"":[143.0075,-36.36027777777778]}"
"YLBD","Lombadina","Lombadina","Australia","AUS",-16.508333333333333,122.92166666666667,"{""type"":""Point"",""coordinates"":[122.92166666666667,-16.508333333333333]}"
"YSCR","Southern Cross","Southern Cross","Australia","AUS",-31.240277777777777,119.35972222222222,"{""type"":""Point"",""coordinates"":[119.35972222222222,-31.240277777777777]}"
"YYRM","Yarram","Yarram","Australia","AUS",-38.5675,146.75444444444443,"{""type"":""Point"",""coordinates"":[146.75444444444443,-38.5675]}"
"YPOD","Portland","Portland","Australia","AUS",-38.31805555555556,141.4711111111111,"{""type"":""Point"",""coordinates"":[141.4711111111111,-38.31805555555556]}"
"YGIB","Gibb River","Gibb River","Australia","AUS",-16.42361111111111,126.44444444444444,"{""type"":""Point"",""coordinates"":[126.44444444444444,-16.42361111111111]}"
"YSHW","Luscombe Army Airfield","Holsworthy","Australia","AUS",-33.995,150.95166666666665,"{""type"":""Point"",""coordinates"":[150.95166666666665,-33.995]}"
"YGEL","Geraldton","Geraldton","Australia","AUS",-28.796111111111113,114.7075,"{""type"":""Point"",""coordinates"":[114.7075,-28.796111111111113]}"
"YPMQ","Port Macquarie","Port Macquarie","Australia","AUS",-31.435833333333335,152.86333333333332,"{""type"":""Point"",""coordinates"":[152.86333333333332,-31.435833333333335]}"
"YMES","East Sale (Military)","East Sale","Australia","AUS",-38.098888888888894,147.14944444444444,"{""type"":""Point"",""coordinates"":[147.14944444444444,-38.098888888888894]}"
"YKMP","Kempsey","Kempsey","Australia","AUS",-31.074444444444445,152.76972222222224,"{""type"":""Point"",""coordinates"":[152.76972222222224,-31.074444444444445]}"
"YGDH","Gunnedah","Gunnedah","Australia","AUS",-30.961111111111112,150.25055555555556,"{""type"":""Point"",""coordinates"":[150.25055555555556,-30.961111111111112]}"
"YSHG","Shay Gap","Shay Gap","Australia","AUS",-20.425,120.14,"{""type"":""Point"",""coordinates"":[120.14,-20.425]}"
"YMTI","Mornington I.","Mornington I","Australia","AUS",-16.662499999999998,139.17805555555555,"{""type"":""Point"",""coordinates"":[139.17805555555555,-16.662499999999998]}"
"YSRD","Sunrise Dam","Sunrise Dam","Australia","AUS",-29.09861111111111,122.45611111111111,"{""type"":""Point"",""coordinates"":[122.45611111111111,-29.09861111111111]}"
"YSCO","Scone","Scone","Australia","AUS",-32.03722222222222,150.8322222222222,"{""type"":""Point"",""coordinates"":[150.8322222222222,-32.03722222222222]}"
"YPLC","Port Lincoln","Port Lincoln","Australia","AUS",-34.60527777777778,135.8802777777778,"{""type"":""Point"",""coordinates"":[135.8802777777778,-34.60527777777778]}"
"YBRY","Barimunya","Barimunya","Australia","AUS",-22.67388888888889,119.16611111111112,"{""type"":""Point"",""coordinates"":[119.16611111111112,-22.67388888888889]}"
"YDBY","Derby","Derby","Australia","AUS",-17.37,123.66055555555556,"{""type"":""Point"",""coordinates"":[123.66055555555556,-17.37]}"
"YPWH","Pittsworth","Pittsworth","Australia","AUS",-27.733333333333334,151.63333333333333,"{""type"":""Point"",""coordinates"":[151.63333333333333,-27.733333333333334]}"
"YCEL","Capella","Capella","Australia","AUS",-23.1,148,"{""type"":""Point"",""coordinates"":[148,-23.1]}"
"YGDA","Goodooga","Goodooga","Australia","AUS",-29.073333333333334,147.37611111111113,"{""type"":""Point"",""coordinates"":[147.37611111111113,-29.073333333333334]}"
"YCAS","Casino","Casino","Australia","AUS",-28.883333333333333,153.06666666666666,"{""type"":""Point"",""coordinates"":[153.06666666666666,-28.883333333333333]}"
"YGBI","South Goulburn I","South Goulburn I","Australia","AUS",-11.650555555555556,133.38194444444446,"{""type"":""Point"",""coordinates"":[133.38194444444446,-11.650555555555556]}"
"YDOC","Dochra (Military)","Dochra","Australia","AUS",-32.65,151.20833333333331,"{""type"":""Point"",""coordinates"":[151.20833333333331,-32.65]}"
"YFTZ","Fitzroy Crossing","Fitzroy Crossing","Australia","AUS",-18.181944444444447,125.5586111111111,"{""type"":""Point"",""coordinates"":[125.5586111111111,-18.181944444444447]}"
"YFLI","Flinders I","Flinders I","Australia","AUS",-40.09128888888889,147.9926722222222,"{""type"":""Point"",""coordinates"":[147.9926722222222,-40.09128888888889]}"
"YBSG","Scherger","Scherger","Australia","AUS",-12.623888888888889,142.08722222222224,"{""type"":""Point"",""coordinates"":[142.08722222222224,-12.623888888888889]}"
"YEXM","Exmouth","Exmouth","Australia","AUS",-22.04138888888889,114.10222222222221,"{""type"":""Point"",""coordinates"":[114.10222222222221,-22.04138888888889]}"
"YWLU","Wiluna","Wiluna","Australia","AUS",-26.629166666666666,120.22055555555556,"{""type"":""Point"",""coordinates"":[120.22055555555556,-26.629166666666666]}"
"YCEE","Cleve","Cleve","Australia","AUS",-33.709722222222226,136.50472222222223,"{""type"":""Point"",""coordinates"":[136.50472222222223,-33.709722222222226]}"
"YESP","Esperance","Esperance","Australia","AUS",-33.68444444444444,121.82277777777777,"{""type"":""Point"",""coordinates"":[121.82277777777777,-33.68444444444444]}"
"YMPC","Point Cook","Point Cook","Australia","AUS",-37.93222222222222,144.75333333333333,"{""type"":""Point"",""coordinates"":[144.75333333333333,-37.93222222222222]}"
"YGLA","Gladstone","Gladstone","Australia","AUS",-23.869722222222222,151.2227777777778,"{""type"":""Point"",""coordinates"":[151.2227777777778,-23.869722222222222]}"
"YSPE","Stanthorpe","Stanthorpe","Australia","AUS",-28.62027777777778,151.99055555555555,"{""type"":""Point"",""coordinates"":[151.99055555555555,-28.62027777777778]}"
"YCMU","Cunnamulla","Cunnamulla","Australia","AUS",-28.029999999999998,145.62166666666667,"{""type"":""Point"",""coordinates"":[145.62166666666667,-28.029999999999998]}"
"YCNK","Cessnock","Cessnock","Australia","AUS",-32.7875,151.34166666666667,"{""type"":""Point"",""coordinates"":[151.34166666666667,-32.7875]}"
"YOOD","Oodnadatta","Oodnadatta","Australia","AUS",-27.560000000000002,135.445,"{""type"":""Point"",""coordinates"":[135.445,-27.560000000000002]}"
"YBLN","Busselton","Busselton","Australia","AUS",-33.68722222222222,115.40027777777779,"{""type"":""Point"",""coordinates"":[115.40027777777779,-33.68722222222222]}"
"YARA","Ararat","Ararat","Australia","AUS",-37.309444444444445,142.9886111111111,"{""type"":""Point"",""coordinates"":[142.9886111111111,-37.309444444444445]}"
"YAYE","Ayers Rock","Ayers Rock","Australia","AUS",-25.18611111111111,130.97555555555556,"{""type"":""Point"",""coordinates"":[130.97555555555556,-25.18611111111111]}"
"YWRN","Warren","Warren","Australia","AUS",-31.733333333333334,147.8025,"{""type"":""Point"",""coordinates"":[147.8025,-31.733333333333334]}"
"YCKN","Cooktown","Cooktown","Australia","AUS",-15.444722222222222,145.18444444444444,"{""type"":""Point"",""coordinates"":[145.18444444444444,-15.444722222222222]}"
"YMDG","Mudgee","Mudgee","Australia","AUS",-32.5625,149.61111111111111,"{""type"":""Point"",""coordinates"":[149.61111111111111,-32.5625]}"
"YSBK","Bankstown","Sydney","Australia","AUS",-33.92444444444444,150.98833333333332,"{""type"":""Point"",""coordinates"":[150.98833333333332,-33.92444444444444]}"
"YDPO","Devonport","Devonport","Australia","AUS",-41.16972222222222,146.43027777777777,"{""type"":""Point"",""coordinates"":[146.43027777777777,-41.16972222222222]}"
"YDNI","Darnley Island","Darnley Island","Australia","AUS",-9.577777777777778,143.77916666666667,"{""type"":""Point"",""coordinates"":[143.77916666666667,-9.577777777777778]}"
"YCCY","Cloncurry","Cloncurry","Australia","AUS",-20.66861111111111,140.50444444444443,"{""type"":""Point"",""coordinates"":[140.50444444444443,-20.66861111111111]}"
"YCLQ","Cape Leveque","Cape Leveque","Australia","AUS",-16.400555555555552,122.93138888888889,"{""type"":""Point"",""coordinates"":[122.93138888888889,-16.400555555555552]}"
"YHOT","Mt Hotham","Mt Hotham","Australia","AUS",-37.0475,147.33416666666668,"{""type"":""Point"",""coordinates"":[147.33416666666668,-37.0475]}"
"YDMG","Doomadgee","Doomadgee","Australia","AUS",-17.94,138.82166666666666,"{""type"":""Point"",""coordinates"":[138.82166666666666,-17.94]}"
"YBLT","Ballarat","Ballarat","Australia","AUS",-37.51166666666666,143.79111111111112,"{""type"":""Point"",""coordinates"":[143.79111111111112,-37.51166666666666]}"
"YMHU","McArthur River Mine","McArthur River Mine","Australia","AUS",-16.443333333333335,136.07666666666665,"{""type"":""Point"",""coordinates"":[136.07666666666665,-16.443333333333335]}"
"YIVL","Inverell","Inverell","Australia","AUS",-29.888333333333332,151.14416666666665,"{""type"":""Point"",""coordinates"":[151.14416666666665,-29.888333333333332]}"
"YCWR","Cowra","Cowra","Australia","AUS",-33.845,148.6483333333333,"{""type"":""Point"",""coordinates"":[148.6483333333333,-33.845]}"
"YMUL","Murray Field","Murray Field","Australia","AUS",-32.51027777777778,115.83333333333333,"{""type"":""Point"",""coordinates"":[115.83333333333333,-32.51027777777778]}"
"YCGO","Chillagoe","Chillagoe","Australia","AUS",-17.140833333333333,144.52833333333334,"{""type"":""Point"",""coordinates"":[144.52833333333334,-17.140833333333333]}"
"YDKI","Dunk Island","Dunk Island","Australia","AUS",-17.941666666666666,146.14,"{""type"":""Point"",""coordinates"":[146.14,-17.941666666666666]}"
"YSTW","Tamworth","Tamworth","Australia","AUS",-31.083888888888886,150.84666666666666,"{""type"":""Point"",""coordinates"":[150.84666666666666,-31.083888888888886]}"
"YLTV","Latrobe Valley","Latrobe Valley","Australia","AUS",-38.20722222222223,146.47027777777777,"{""type"":""Point"",""coordinates"":[146.47027777777777,-38.20722222222223]}"
"YFTA","Forrestania","Forrestania","Australia","AUS",-32.57833333333333,119.70666666666666,"{""type"":""Point"",""coordinates"":[119.70666666666666,-32.57833333333333]}"
"YGAD","Garden I Heliport","Garden I","Australia","AUS",-32.24166666666667,115.68388888888889,"{""type"":""Point"",""coordinates"":[115.68388888888889,-32.24166666666667]}"
"YCWL","Cowell","Cowell","Australia","AUS",-33.66722222222222,136.89166666666665,"{""type"":""Point"",""coordinates"":[136.89166666666665,-33.66722222222222]}"
"YPKL","Puckapunyal (Military)","Puckapunyal","Australia","AUS",-36.99944444444444,145.0627777777778,"{""type"":""Point"",""coordinates"":[145.0627777777778,-36.99944444444444]}"
"YCFN","Clifton","Clifton","Australia","AUS",-27.928333333333335,151.84666666666666,"{""type"":""Point"",""coordinates"":[151.84666666666666,-27.928333333333335]}"
"YCFS","Coffs Harbour","Coffs Harbour","Australia","AUS",-30.320555555555554,153.11638888888888,"{""type"":""Point"",""coordinates"":[153.11638888888888,-30.320555555555554]}"
"YQLP","Quilpie","Quilpie","Australia","AUS",-26.608611111111113,144.25722222222223,"{""type"":""Point"",""coordinates"":[144.25722222222223,-26.608611111111113]}"
"YKSC","Kingscote","Kingscote","Australia","AUS",-35.71388888888889,137.52166666666668,"{""type"":""Point"",""coordinates"":[137.52166666666668,-35.71388888888889]}"
"YBBN","Brisbane Intl","Brisbane","Australia","AUS",-27.384166666666665,153.1175,"{""type"":""Point"",""coordinates"":[153.1175,-27.384166666666665]}"
"YCUA","Cudal","Cudal","Australia","AUS",-33.27777777777778,148.76305555555555,"{""type"":""Point"",""coordinates"":[148.76305555555555,-33.27777777777778]}"
"YCUE","Cue","Cue","Australia","AUS",-27.446666666666665,117.91861111111112,"{""type"":""Point"",""coordinates"":[117.91861111111112,-27.446666666666665]}"
"YHLC","Halls Creek","Halls Creek","Australia","AUS",-18.233888888888888,127.66972222222223,"{""type"":""Point"",""coordinates"":[127.66972222222223,-18.233888888888888]}"
"YCOM","Cooma-Snowy Mountains","Cooma-Snowy Mountains","Australia","AUS",-36.300555555555555,148.9738888888889,"{""type"":""Point"",""coordinates"":[148.9738888888889,-36.300555555555555]}"
"YPTN","Tindal (Military)","Tindal","Australia","AUS",-14.521111111111113,132.3777777777778,"{""type"":""Point"",""coordinates"":[132.3777777777778,-14.521111111111113]}"
"YCOE","Coen","Coen","Australia","AUS",-13.761944444444444,143.11666666666667,"{""type"":""Point"",""coordinates"":[143.11666666666667,-13.761944444444444]}"
"YPKG","Kalgoorlie-Boulder","Kalgoorlie-Boulder","Australia","AUS",-30.789444444444445,121.46166666666667,"{""type"":""Point"",""coordinates"":[121.46166666666667,-30.789444444444445]}"
"YBIE","Bedourie","Bedourie","Australia","AUS",-24.34611111111111,139.46027777777778,"{""type"":""Point"",""coordinates"":[139.46027777777778,-24.34611111111111]}"
"YCVA","Clare Valley","Clare Valley","Australia","AUS",-33.708333333333336,138.58333333333334,"{""type"":""Point"",""coordinates"":[138.58333333333334,-33.708333333333336]}"
"YGAY","Gayndah","Gayndah","Australia","AUS",-25.61527777777778,151.62083333333334,"{""type"":""Point"",""coordinates"":[151.62083333333334,-25.61527777777778]}"
"YBAR","Barcaldine","Barcaldine","Australia","AUS",-23.56513888888889,145.30671111111113,"{""type"":""Point"",""coordinates"":[145.30671111111113,-23.56513888888889]}"
"YKII","King I","King I","Australia","AUS",-39.8775,143.87833333333333,"{""type"":""Point"",""coordinates"":[143.87833333333333,-39.8775]}"
"YMMB","Moorabbin","Melbourne","Australia","AUS",-37.975833333333334,145.10222222222222,"{""type"":""Point"",""coordinates"":[145.10222222222222,-37.975833333333334]}"
"YCUN","Cunderdin","Cunderdin","Australia","AUS",-31.622222222222224,117.21666666666667,"{""type"":""Point"",""coordinates"":[117.21666666666667,-31.622222222222224]}"
"YFDF","Fortescue Dave Forrest","Fortescue Dave Forrest","Australia","AUS",-22.291944444444447,119.43722222222223,"{""type"":""Point"",""coordinates"":[119.43722222222223,-22.291944444444447]}"
"YCTM","Cootamundra","Cootamundra","Australia","AUS",-34.62388888888889,148.02805555555557,"{""type"":""Point"",""coordinates"":[148.02805555555557,-34.62388888888889]}"
"YPIR","Port Pirie","Port Pirie","Australia","AUS",-33.23888888888889,137.99499999999998,"{""type"":""Point"",""coordinates"":[137.99499999999998,-33.23888888888889]}"
"YCBA","Cobar","Cobar","Australia","AUS",-31.538333333333334,145.7938888888889,"{""type"":""Point"",""coordinates"":[145.7938888888889,-31.538333333333334]}"
"YFRT","Forrest","Forrest","Australia","AUS",-30.838055555555556,128.11499999999998,"{""type"":""Point"",""coordinates"":[128.11499999999998,-30.838055555555556]}"
"YBGO","Balgo Hill","Balgo Hill","Australia","AUS",-20.148333333333333,127.9738888888889,"{""type"":""Point"",""coordinates"":[127.9738888888889,-20.148333333333333]}"
"YCKI","Croker I","Croker I","Australia","AUS",-11.165277777777778,132.48388888888888,"{""type"":""Point"",""coordinates"":[132.48388888888888,-11.165277777777778]}"
"YBKE","Bourke","Bourke","Australia","AUS",-30.039166666666667,145.95166666666665,"{""type"":""Point"",""coordinates"":[145.95166666666665,-30.039166666666667]}"
"YCHT","Charters Towers","Charters Towers","Australia","AUS",-20.043055555555558,146.27305555555557,"{""type"":""Point"",""coordinates"":[146.27305555555557,-20.043055555555558]}"
"YCDW","Dallachy","Cardwell","Australia","AUS",-18.178333333333335,145.95,"{""type"":""Point"",""coordinates"":[145.95,-18.178333333333335]}"
"YPJT","Jandakot","Perth","Australia","AUS",-32.097500000000004,115.88111111111111,"{""type"":""Point"",""coordinates"":[115.88111111111111,-32.097500000000004]}"
"YSPT","Southport","Southport","Australia","AUS",-27.921666666666667,153.37166666666667,"{""type"":""Point"",""coordinates"":[153.37166666666667,-27.921666666666667]}"
"YCDU","Ceduna","Ceduna","Australia","AUS",-32.13055555555555,133.7097222222222,"{""type"":""Point"",""coordinates"":[133.7097222222222,-32.13055555555555]}"
"YSRN","Strahan","Strahan","Australia","AUS",-42.15555555555555,145.2913888888889,"{""type"":""Point"",""coordinates"":[145.2913888888889,-42.15555555555555]}"
"YABA","Albany","Albany","Australia","AUS",-34.94333333333333,117.80888888888889,"{""type"":""Point"",""coordinates"":[117.80888888888889,-34.94333333333333]}"
"YTBB","Tumby Bay","Tumby Bay","Australia","AUS",-34.361111111111114,136.095,"{""type"":""Point"",""coordinates"":[136.095,-34.361111111111114]}"
"YDYS","Dysart","Dysart","Australia","AUS",-22.622208333333333,148.363825,"{""type"":""Point"",""coordinates"":[148.363825,-22.622208333333333]}"
"YKAR","Karara","Karara","Australia","AUS",-29.21611111111111,116.68666666666667,"{""type"":""Point"",""coordinates"":[116.68666666666667,-29.21611111111111]}"
"YBIR","Birchip","Birchip","Australia","AUS",-35.999722222222225,142.9175,"{""type"":""Point"",""coordinates"":[142.9175,-35.999722222222225]}"
"YITT","Mitta Mitta","Mitta Mitta","Australia","AUS",-36.51166666666666,147.35666666666665,"{""type"":""Point"",""coordinates"":[147.35666666666665,-36.51166666666666]}"
"YBWX","Barrow I","Barrow I","Australia","AUS",-20.864444444444445,115.40611111111112,"{""type"":""Point"",""coordinates"":[115.40611111111112,-20.864444444444445]}"
"YJBY","Jervis Bay (Military)","Jervis Bay","Australia","AUS",-35.14722222222222,150.69722222222222,"{""type"":""Point"",""coordinates"":[150.69722222222222,-35.14722222222222]}"
"YPKS","Parkes","Parkes","Australia","AUS",-33.13138888888889,148.23916666666665,"{""type"":""Point"",""coordinates"":[148.23916666666665,-33.13138888888889]}"
"YBUD","Bundaberg","Bundaberg","Australia","AUS",-24.903888888888886,152.3186111111111,"{""type"":""Point"",""coordinates"":[152.3186111111111,-24.903888888888886]}"
"YBNS","Bairnsdale","Bairnsdale","Australia","AUS",-37.8875,147.56777777777776,"{""type"":""Point"",""coordinates"":[147.56777777777776,-37.8875]}"
"YCMT","Clermont","Clermont","Australia","AUS",-22.773055555555555,147.62055555555557,"{""type"":""Point"",""coordinates"":[147.62055555555557,-22.773055555555555]}"
"YBLU","Bellevue","Bellevue","Australia","AUS",-27.61277777777778,120.59388888888888,"{""type"":""Point"",""coordinates"":[120.59388888888888,-27.61277777777778]}"
"YBWW","Brisbane West Wellcamp","Toowoomba-Cecil","Australia","AUS",-27.558611111111112,151.79416666666665,"{""type"":""Point"",""coordinates"":[151.79416666666665,-27.558611111111112]}"
"YBLA","Benalla","Benalla","Australia","AUS",-36.55416666666667,146.00916666666666,"{""type"":""Point"",""coordinates"":[146.00916666666666,-36.55416666666667]}"
"YBWN","Bowen","Bowen","Australia","AUS",-20.017777777777777,148.21527777777777,"{""type"":""Point"",""coordinates"":[148.21527777777777,-20.017777777777777]}"
"YBCG","Gold Coast","Gold Coast","Australia","AUS",-28.16444444444444,153.50472222222223,"{""type"":""Point"",""coordinates"":[153.50472222222223,-28.16444444444444]}"
"YPFT","Polo Flat","Polo Flat","Australia","AUS",-36.230000000000004,149.15,"{""type"":""Point"",""coordinates"":[149.15,-36.230000000000004]}"
"YCAR","Carnarvon","Carnarvon","Australia","AUS",-24.880555555555556,113.67222222222223,"{""type"":""Point"",""coordinates"":[113.67222222222223,-24.880555555555556]}"
"YANG","West Angelas","West Angelas","Australia","AUS",-23.134999999999998,118.70666666666666,"{""type"":""Point"",""coordinates"":[118.70666666666666,-23.134999999999998]}"
"YSHK","Shark Bay","Shark Bay","Australia","AUS",-25.893333333333334,113.57666666666667,"{""type"":""Point"",""coordinates"":[113.57666666666667,-25.893333333333334]}"
"YWKB","Warracknabeal","Warracknabeal","Australia","AUS",-36.321111111111115,142.41944444444442,"{""type"":""Point"",""coordinates"":[142.41944444444442,-36.321111111111115]}"
"YSGE","St George","St George","Australia","AUS",-28.049722222222226,148.5952777777778,"{""type"":""Point"",""coordinates"":[148.5952777777778,-28.049722222222226]}"
"YPED","Edinburgh (Military)","Edinburgh","Australia","AUS",-34.7025,138.62083333333334,"{""type"":""Point"",""coordinates"":[138.62083333333334,-34.7025]}"
"YSWL","Stawell","Stawell","Australia","AUS",-37.07166666666667,142.74027777777778,"{""type"":""Point"",""coordinates"":[142.74027777777778,-37.07166666666667]}"
"YHBA","Hervey Bay","Hervey Bay","Australia","AUS",-25.31833333333333,152.88,"{""type"":""Point"",""coordinates"":[152.88,-25.31833333333333]}"
"YBTR","Blackwater","Blackwater","Australia","AUS",-23.603055555555557,148.80694444444447,"{""type"":""Point"",""coordinates"":[148.80694444444447,-23.603055555555557]}"
"YBAS","Alice Springs","Alice Springs","Australia","AUS",-23.806944444444444,133.90222222222224,"{""type"":""Point"",""coordinates"":[133.90222222222224,-23.806944444444444]}"
"YENO","Enoggera","Enoggera","Australia","AUS",-27.42527777777778,152.98333333333332,"{""type"":""Point"",""coordinates"":[152.98333333333332,-27.42527777777778]}"
"YMEN","Essendon","Melbourne","Australia","AUS",-37.72805555555556,144.90194444444444,"{""type"":""Point"",""coordinates"":[144.90194444444444,-37.72805555555556]}"
"YAMK","Andamooka","Andamooka","Australia","AUS",-30.43771111111111,137.1371888888889,"{""type"":""Point"",""coordinates"":[137.1371888888889,-30.43771111111111]}"
"YBYL","Baryulgil","Baryulgil","Australia","AUS",-29.216666666666665,152.61499999999998,"{""type"":""Point"",""coordinates"":[152.61499999999998,-29.216666666666665]}"
"YDLQ","Deniliquin","Deniliquin","Australia","AUS",-35.559444444444445,144.9463888888889,"{""type"":""Point"",""coordinates"":[144.9463888888889,-35.559444444444445]}"
"YBTL","Townsville Intl","Townsville","Australia","AUS",-19.2525,146.76527777777778,"{""type"":""Point"",""coordinates"":[146.76527777777778,-19.2525]}"
"YARM","Armidale","Armidale","Australia","AUS",-30.528055555555554,151.61722222222224,"{""type"":""Point"",""coordinates"":[151.61722222222224,-30.528055555555554]}"
"YKDI","Kadina","Kadina","Australia","AUS",-33.97,137.66,"{""type"":""Point"",""coordinates"":[137.66,-33.97]}"
"YBRK","Rockhampton","Rockhampton","Australia","AUS",-23.381944444444446,150.4752777777778,"{""type"":""Point"",""coordinates"":[150.4752777777778,-23.381944444444446]}"
"YBTI","Bathurst I","Bathurst I","Australia","AUS",-11.769166666666667,130.61972222222224,"{""type"":""Point"",""coordinates"":[130.61972222222224,-11.769166666666667]}"
"YSTH","St Helens","St Helens","Australia","AUS",-41.336666666666666,148.28194444444446,"{""type"":""Point"",""coordinates"":[148.28194444444446,-41.336666666666666]}"
"YNRV","Ravensthorpe","Ravensthorpe","Australia","AUS",-33.79722222222222,120.20805555555556,"{""type"":""Point"",""coordinates"":[120.20805555555556,-33.79722222222222]}"
"YCDO","Condobolin","Condobolin","Australia","AUS",-33.06444444444444,147.20916666666665,"{""type"":""Point"",""coordinates"":[147.20916666666665,-33.06444444444444]}"
"YBTH","Bathurst","Bathurst","Australia","AUS",-33.409444444444446,149.65194444444444,"{""type"":""Point"",""coordinates"":[149.65194444444444,-33.409444444444446]}"
"YBMY","Bamyili","Bamyili","Australia","AUS",-14.519722222222223,132.88333333333333,"{""type"":""Point"",""coordinates"":[132.88333333333333,-14.519722222222223]}"
"YEJI","East Jaurdi","East Jaurdi","Australia","AUS",-30.769444444444442,120.31194444444444,"{""type"":""Point"",""coordinates"":[120.31194444444444,-30.769444444444442]}"
"YCNF","Nifty","Nifty","Australia","AUS",-21.67361111111111,121.59472222222222,"{""type"":""Point"",""coordinates"":[121.59472222222222,-21.67361111111111]}"
"YSCB","Canberra","Canberra","Australia","AUS",-35.306822222222216,149.19503333333333,"{""type"":""Point"",""coordinates"":[149.19503333333333,-35.306822222222216]}"
"YRLL","Rolleston","Rolleston","Australia","AUS",-24.460833333333333,148.6275,"{""type"":""Point"",""coordinates"":[148.6275,-24.460833333333333]}"
"YBRS","Barwon Heads","Barwon Heads","Australia","AUS",-38.25805555555556,144.42749999999998,"{""type"":""Point"",""coordinates"":[144.42749999999998,-38.25805555555556]}"
"YBSU","Sunshine Coast","Sunshine Coast","Australia","AUS",-26.603333333333335,153.09111111111113,"{""type"":""Point"",""coordinates"":[153.09111111111113,-26.603333333333335]}"
"YBCS","Cairns Intl","Cairns","Australia","AUS",-16.885833333333334,145.7552777777778,"{""type"":""Point"",""coordinates"":[145.7552777777778,-16.885833333333334]}"
"YCHK","Christmas Creek","Christmas Creek","Australia","AUS",-22.355833333333333,119.64250000000001,"{""type"":""Point"",""coordinates"":[119.64250000000001,-22.355833333333333]}"
"YLRD","Lightning Ridge","Lightning Ridge","Australia","AUS",-29.456666666666667,147.98499999999999,"{""type"":""Point"",""coordinates"":[147.98499999999999,-29.456666666666667]}"
"YKBR","Kalbarri","Kalbarri","Australia","AUS",-27.691666666666666,114.26,"{""type"":""Point"",""coordinates"":[114.26,-27.691666666666666]}"
"YAUR","Aurukun","Aurukun","Australia","AUS",-13.35388888888889,141.72083333333333,"{""type"":""Point"",""coordinates"":[141.72083333333333,-13.35388888888889]}"
"YSCN","Camden","Camden","Australia","AUS",-34.040277777777774,150.68722222222223,"{""type"":""Point"",""coordinates"":[150.68722222222223,-34.040277777777774]}"
"YBRL","Borroloola","Borroloola","Australia","AUS",-16.075277777777778,136.30222222222224,"{""type"":""Point"",""coordinates"":[136.30222222222224,-16.075277777777778]}"
"YYWG","Yarrawonga","Yarrawonga","Australia","AUS",-36.03055555555555,146.0277777777778,"{""type"":""Point"",""coordinates"":[146.0277777777778,-36.03055555555555]}"
"YNBR","Narrabri","Narrabri","Australia","AUS",-30.319166666666668,149.82722222222222,"{""type"":""Point"",""coordinates"":[149.82722222222222,-30.319166666666668]}"
"YBHM","Hamilton I.","Hamilton I","Australia","AUS",-20.358055555555556,148.95166666666665,"{""type"":""Point"",""coordinates"":[148.95166666666665,-20.358055555555556]}"
"YSDU","Dubbo","Dubbo","Australia","AUS",-32.21666666666667,148.57472222222222,"{""type"":""Point"",""coordinates"":[148.57472222222222,-32.21666666666667]}"
"YBNA","Ballina/Byron Gateway","Ballina","Australia","AUS",-28.833888888888886,153.5625,"{""type"":""Point"",""coordinates"":[153.5625,-28.833888888888886]}"
"YBMK","Mackay","Mackay","Australia","AUS",-21.171666666666667,149.1797222222222,"{""type"":""Point"",""coordinates"":[149.1797222222222,-21.171666666666667]}"
"YCCA","Chinchilla","Chinchilla","Australia","AUS",-26.769444444444442,150.61666666666667,"{""type"":""Point"",""coordinates"":[150.61666666666667,-26.769444444444442]}"
"YKMB","Karumba","Karumba","Australia","AUS",-17.455555555555556,140.83166666666665,"{""type"":""Point"",""coordinates"":[140.83166666666665,-17.455555555555556]}"
"YBMA","Mt Isa","Mt Isa","Australia","AUS",-20.663888888888888,139.4886111111111,"{""type"":""Point"",""coordinates"":[139.4886111111111,-20.663888888888888]}"
"YWBL","Warrnambool","Warrnambool","Australia","AUS",-38.29527777777778,142.44666666666666,"{""type"":""Point"",""coordinates"":[142.44666666666666,-38.29527777777778]}"
"YMBU","Maryborough","Maryborough","Australia","AUS",-37.033055555555556,143.70888888888888,"{""type"":""Point"",""coordinates"":[143.70888888888888,-37.033055555555556]}"
"YBRM","Broome Intl","Broome","Australia","AUS",-17.949722222222224,122.22777777777777,"{""type"":""Point"",""coordinates"":[122.22777777777777,-17.949722222222224]}"
"YBDG","Bendigo","Bendigo","Australia","AUS",-36.739444444444445,144.32972222222222,"{""type"":""Point"",""coordinates"":[144.32972222222222,-36.739444444444445]}"
"YWLM","Williamtown Military","Williamtown","Australia","AUS",-32.79493055555555,151.83447222222225,"{""type"":""Point"",""coordinates"":[151.83447222222225,-32.79493055555555]}"
"YBHI","Broken Hill","Broken Hill","Australia","AUS",-32.00138888888889,141.47166666666666,"{""type"":""Point"",""coordinates"":[141.47166666666666,-32.00138888888889]}"
"YMET","Melville Water","Melville Water","Australia","AUS",-31.9775,115.84138888888889,"{""type"":""Point"",""coordinates"":[115.84138888888889,-31.9775]}"
"YSGR","South Grafton","South Grafton","Australia","AUS",-29.708333333333332,152.9283333333333,"{""type"":""Point"",""coordinates"":[152.9283333333333,-29.708333333333332]}"
"YBGD","Boolgeeda","Boolgeeda","Australia","AUS",-22.541111111111114,117.26944444444445,"{""type"":""Point"",""coordinates"":[117.26944444444445,-22.541111111111114]}"
"YLEC","Leigh Creek","Leigh Creek","Australia","AUS",-30.598333333333333,138.42583333333332,"{""type"":""Point"",""coordinates"":[138.42583333333332,-30.598333333333333]}"
"YATN","Atherton","Atherton","Australia","AUS",-17.262033333333335,145.51441111111112,"{""type"":""Point"",""coordinates"":[145.51441111111112,-17.262033333333335]}"
"YBAU","Badu Island","Badu Island","Australia","AUS",-10.15,142.17499999999998,"{""type"":""Point"",""coordinates"":[142.17499999999998,-10.15]}"
"YHAY","Hay","Hay","Australia","AUS",-34.531666666666666,144.82999999999998,"{""type"":""Point"",""coordinates"":[144.82999999999998,-34.531666666666666]}"
"YCCT","Coconut Island","Coconut Island","Australia","AUS",-10.05,143.06666666666666,"{""type"":""Point"",""coordinates"":[143.06666666666666,-10.05]}"
"YBDV","Birdsville","Birdsville","Australia","AUS",-25.8975,139.3475,"{""type"":""Point"",""coordinates"":[139.3475,-25.8975]}"
"YPEA","Pearce","Pearce","Australia","AUS",-31.66777777777778,116.015,"{""type"":""Point"",""coordinates"":[116.015,-31.66777777777778]}"
"YBAF","Archerfield","Brisbane","Australia","AUS",-27.57027777777778,153.00805555555556,"{""type"":""Point"",""coordinates"":[153.00805555555556,-27.57027777777778]}"
"YPGV","Gove","Gove","Australia","AUS",-12.269444444444446,136.81833333333333,"{""type"":""Point"",""coordinates"":[136.81833333333333,-12.269444444444446]}"
"YKRY","Kingaroy","Kingaroy","Australia","AUS",-26.580833333333334,151.84111111111113,"{""type"":""Point"",""coordinates"":[151.84111111111113,-26.580833333333334]}"
"YTNG","Thangool","Thangool","Australia","AUS",-24.49388888888889,150.57611111111112,"{""type"":""Point"",""coordinates"":[150.57611111111112,-24.49388888888889]}"
"YGLB","Goulburn","Goulburn","Australia","AUS",-34.81027777777778,149.7263888888889,"{""type"":""Point"",""coordinates"":[149.7263888888889,-34.81027777777778]}"
"YPKT","Port Keats","Port Keats","Australia","AUS",-14.25,129.52916666666667,"{""type"":""Point"",""coordinates"":[129.52916666666667,-14.25]}"
"YFBS","Forbes","Forbes","Australia","AUS",-33.36333333333334,147.935,"{""type"":""Point"",""coordinates"":[147.935,-33.36333333333334]}"