"airportCode","airportName","cityName","countryName","countryCode","latitude","longitude","geometry"
"LOWZ","Zell Am See","Zell Am See","Austria","AUT",47.29222222222222,12.7875,"{""type"":""Point"",""coordinates"":[12.7875,47.29222222222222]}"
"LOWS","Salzburg","Salzburg","Austria","AUT",47.794444444444444,13.003333333333334,"{""type"":""Point"",""coordinates"":[13.003333333333334,47.794444444444444]}"
"LOWK","Klagenfurt","Klagenfurt","Austria","AUT",46.64277777777778,14.337222222222223,"{""type"":""Point"",""coordinates"":[14.337222222222223,46.64277777777778]}"
"LOWI","Innsbruck","Innsbruck","Austria","AUT",47.26027777777778,11.34388888888889,"{""type"":""Point"",""coordinates"":[11.34388888888889,47.26027777777778]}"
"LOWG","Graz","Graz","Austria","AUT",46.99305555555556,15.439166666666667,"{""type"":""Point"",""coordinates"":[15.439166666666667,46.99305555555556]}"
"LOSM","Mauterndorf","Mauterndorf","Austria","AUT",47.13194444444444,13.696111111111112,"{""type"":""Point"",""coordinates"":[13.696111111111112,47.13194444444444]}"
"LOLS","Scharding-Suben","Scharding-Suben","Austria","AUT",48.403055555555554,13.448055555555555,"{""type"":""Point"",""coordinates"":[13.448055555555555,48.403055555555554]}"
"LOLO","Linz Ost","Linz Ost","Austria","AUT",48.29944444444444,14.334166666666667,"{""type"":""Point"",""coordinates"":[14.334166666666667,48.29944444444444]}"
"LOLW","Wels","Wels","Austria","AUT",48.18111111111111,14.0375,"{""type"":""Point"",""coordinates"":[14.0375,48.18111111111111]}"
"LOLU","Gmunden-Laakirchen","Gmunden","Austria","AUT",47.950833333333335,13.865,"{""type"":""Point"",""coordinates"":[13.865,47.950833333333335]}"
"LOLT","Seitenstetten","Seitenstetten","Austria","AUT",48.050555555555555,14.661944444444444,"{""type"":""Point"",""coordinates"":[14.661944444444444,48.050555555555555]}"
"LOLK","Kirchheim","Ried","Austria","AUT",48.21222222222222,13.346166666666667,"{""type"":""Point"",""coordinates"":[13.346166666666667,48.21222222222222]}"
"LOLH","HB Hofkirchen","HB Hofkirchen","Austria","AUT",48.13916666666667,14.336666666666668,"{""type"":""Point"",""coordinates"":[14.336666666666668,48.13916666666667]}"
"LOLG","St Georgen/Ybbsfeld","St Georgen/Ybbsfeld","Austria","AUT",48.10305555555556,14.949722222222222,"{""type"":""Point"",""coordinates"":[14.949722222222222,48.10305555555556]}"
"LOLF","Freistadt","Freistadt","Austria","AUT",48.514722222222225,14.408888888888889,"{""type"":""Point"",""coordinates"":[14.408888888888889,48.514722222222225]}"
"LOLE","Eferding","Eferding","Austria","AUT",48.33833333333334,13.985277777777776,"{""type"":""Point"",""coordinates"":[13.985277777777776,48.33833333333334]}"
"LOLC","Scharnstein","Scharnstein","Austria","AUT",47.89805555555556,13.938611111111111,"{""type"":""Point"",""coordinates"":[13.938611111111111,47.89805555555556]}"
"LOKW","Wolfsberg","Wolfsberg","Austria","AUT",46.8175,14.825,"{""type"":""Point"",""coordinates"":[14.825,46.8175]}"
"LOKN","Notsch im Gailtal","Notsch im Gailtal","Austria","AUT",46.58083333333334,13.628333333333334,"{""type"":""Point"",""coordinates"":[13.628333333333334,46.58083333333334]}"
"LOGT","Timmersdorf","Timmersdorf","Austria","AUT",47.379444444444445,14.9675,"{""type"":""Point"",""coordinates"":[14.9675,47.379444444444445]}"
"LOKL","Nikolsdorf","Lienz","Austria","AUT",46.79833333333333,12.878333333333334,"{""type"":""Point"",""coordinates"":[12.878333333333334,46.79833333333333]}"
"LOXZ","Zeltweg","Zeltweg","Austria","AUT",47.203611111111115,14.745833333333332,"{""type"":""Point"",""coordinates"":[14.745833333333332,47.203611111111115]}"
"LOKH","Hirt","Friesach","Austria","AUT",46.92861111111111,14.433333333333334,"{""type"":""Point"",""coordinates"":[14.433333333333334,46.92861111111111]}"
"LOWW","Schwechat","Vienna","Austria","AUT",48.11027777777778,16.56972222222222,"{""type"":""Point"",""coordinates"":[16.56972222222222,48.11027777777778]}"
"LOGG","Punitz-Gussing","Punitz-Gussing","Austria","AUT",47.14722222222222,16.316666666666666,"{""type"":""Point"",""coordinates"":[16.316666666666666,47.14722222222222]}"
"LOGL","Turnau","Lanzen","Austria","AUT",47.55611111111111,15.323055555555555,"{""type"":""Point"",""coordinates"":[15.323055555555555,47.55611111111111]}"
"LOAS","Spitzerberg","Spitzerberg","Austria","AUT",48.10166666666667,16.933888888888887,"{""type"":""Point"",""coordinates"":[16.933888888888887,48.10166666666667]}"
"LOGW","Unterfladnitz","Weiz","Austria","AUT",47.17055555555555,15.664166666666667,"{""type"":""Point"",""coordinates"":[15.664166666666667,47.17055555555555]}"
"LOGP","Pinkafeld","Pinkafeld","Austria","AUT",47.38777777777778,16.110833333333336,"{""type"":""Point"",""coordinates"":[16.110833333333336,47.38777777777778]}"
"LOAB","Dobersberg","Dobersberg","Austria","AUT",48.92222222222222,15.296944444444444,"{""type"":""Point"",""coordinates"":[15.296944444444444,48.92222222222222]}"
"LOKG","Glainach","Ferlach","Austria","AUT",46.532777777777774,14.330833333333333,"{""type"":""Point"",""coordinates"":[14.330833333333333,46.532777777777774]}"
"LOIH","Dornbirn","Hohenems","Austria","AUT",47.38444444444444,9.699722222222222,"{""type"":""Point"",""coordinates"":[9.699722222222222,47.38444444444444]}"
"LOGI","Trieben","Trieben","Austria","AUT",47.493611111111115,14.496666666666666,"{""type"":""Point"",""coordinates"":[14.496666666666666,47.493611111111115]}"
"LOLM","Micheldorf","Micheldorf","Austria","AUT",47.87233055555556,14.125883333333334,"{""type"":""Point"",""coordinates"":[14.125883333333334,47.87233055555556]}"
"LOGK","Kapfenberg","Kapfenberg","Austria","AUT",47.45777777777778,15.32861111111111,"{""type"":""Point"",""coordinates"":[15.32861111111111,47.45777777777778]}"
"LOAR","Altlichtenwarth","Altlichtenwarth","Austria","AUT",48.66611111111111,16.825277777777778,"{""type"":""Point"",""coordinates"":[16.825277777777778,48.66611111111111]}"
"LOAU","Stockerau","Stockerau","Austria","AUT",48.40888888888889,16.190277777777776,"{""type"":""Point"",""coordinates"":[16.190277777777776,48.40888888888889]}"
"LOAN","Wiener Neustadt/Ost","Wiener Neustadt/Ost","Austria","AUT",47.843333333333334,16.260277777777777,"{""type"":""Point"",""coordinates"":[16.260277777777777,47.843333333333334]}"
"LOKF","Ossiacher See","Feldkirchen","Austria","AUT",46.70861111111111,14.07638888888889,"{""type"":""Point"",""coordinates"":[14.07638888888889,46.70861111111111]}"
"LOGO","Niederoblarn","Niederoblarn","Austria","AUT",47.478611111111114,14.007777777777777,"{""type"":""Point"",""coordinates"":[14.007777777777777,47.478611111111114]}"
"LOGM","Mariazell","Mariazell","Austria","AUT",47.78944444444444,15.300277777777778,"{""type"":""Point"",""coordinates"":[15.300277777777778,47.78944444444444]}"
"LOIK","Langkampfen","Kufstein","Austria","AUT",47.564166666666665,12.127500000000001,"{""type"":""Point"",""coordinates"":[12.127500000000001,47.564166666666665]}"
"LOAD","Voltendorf","Voltendorf","Austria","AUT",48.160555555555554,15.5875,"{""type"":""Point"",""coordinates"":[15.5875,48.160555555555554]}"
"LOIR","Hoefen","Reutte","Austria","AUT",47.47083333333334,10.69138888888889,"{""type"":""Point"",""coordinates"":[10.69138888888889,47.47083333333334]}"
"LOKM","Mayerhofen","Mayerhofen","Austria","AUT",46.97527777777778,14.370833333333334,"{""type"":""Point"",""coordinates"":[14.370833333333334,46.97527777777778]}"
"LOAG","Langenlois","Krems","Austria","AUT",48.44638888888888,15.634166666666665,"{""type"":""Point"",""coordinates"":[15.634166666666665,48.44638888888888]}"
"LOIJ","St Johann","St Johann","Austria","AUT",47.52055555555555,12.449444444444445,"{""type"":""Point"",""coordinates"":[12.449444444444445,47.52055555555555]}"
"LOWL","Linz","Linz","Austria","AUT",48.23527777777778,14.188055555555556,"{""type"":""Point"",""coordinates"":[14.188055555555556,48.23527777777778]}"
"LOGF","Furstenfeld","Furstenfeld","Austria","AUT",47.06200277777778,16.083775,"{""type"":""Point"",""coordinates"":[16.083775,47.06200277777778]}"
"LOAV","Voslau","Voslau","Austria","AUT",47.964444444444446,16.259444444444444,"{""type"":""Point"",""coordinates"":[16.259444444444444,47.964444444444446]}"
"LOAA","Ottenschlag","Ottenschlag","Austria","AUT",48.418055555555554,15.215555555555556,"{""type"":""Point"",""coordinates"":[15.215555555555556,48.418055555555554]}"