"airportCode","airportName","cityName","countryName","countryCode","latitude","longitude","geometry"
"SLVR","Viru Viru Intl","Santa Cruz","Bolivia","BOL",-17.64611111111111,-63.13777777777778,"{""type"":""Point"",""coordinates"":[-63.13777777777778,-17.64611111111111]}"
"SLVG","Cap. Av. Vidal Villagomez","Vallegrande","Bolivia","BOL",-18.482499999999998,-64.09944444444444,"{""type"":""Point"",""coordinates"":[-64.09944444444444,-18.482499999999998]}"
"SLUY","La Joya Andina","Uyuni","Bolivia","BOL",-20.4425,-66.85805555555555,"{""type"":""Point"",""coordinates"":[-66.85805555555555,-20.4425]}"
"SLTR","Jorge Henrich Intl","Trinidad","Bolivia","BOL",-14.819444444444445,-64.91888888888889,"{""type"":""Point"",""coordinates"":[-64.91888888888889,-14.819444444444445]}"
"SLTI","San Matias","San Matias","Bolivia","BOL",-16.339166666666664,-58.401944444444446,"{""type"":""Point"",""coordinates"":[-58.401944444444446,-16.339166666666664]}"
"SLSR","Santa Rosa del Yacuma","Santa Rosa del Yacuma","Bolivia","BOL",-14.074444444444444,-66.78694444444444,"{""type"":""Point"",""coordinates"":[-66.78694444444444,-14.074444444444444]}"
"SLSM","San Ignacio De Moxos","San Ignacio De Moxos","Bolivia","BOL",-14.965555555555556,-65.63388888888889,"{""type"":""Point"",""coordinates"":[-65.63388888888889,-14.965555555555556]}"
"SLRY","Reyes","Reyes","Bolivia","BOL",-14.302777777777779,-67.3536111111111,"{""type"":""Point"",""coordinates"":[-67.3536111111111,-14.302777777777779]}"
"SLRB","Robore","Robore","Bolivia","BOL",-18.32777777777778,-59.76583333333333,"{""type"":""Point"",""coordinates"":[-59.76583333333333,-18.32777777777778]}"
"SLRA","San Ramon","San Ramon","Bolivia","BOL",-13.26388888888889,-64.60388888888889,"{""type"":""Point"",""coordinates"":[-64.60388888888889,-13.26388888888889]}"
"SLVM","Rafael Pabon","Villamontes","Bolivia","BOL",-21.254166666666666,-63.406666666666666,"{""type"":""Point"",""coordinates"":[-63.406666666666666,-21.254166666666666]}"
"SLCH","Carol Marghata","Santa Cruz","Bolivia","BOL",-17.43685,-62.342961111111116,"{""type"":""Point"",""coordinates"":[-62.342961111111116,-17.43685]}"
"SLAG","Monteagudo","Monteagudo","Bolivia","BOL",-19.822499999999998,-63.962500000000006,"{""type"":""Point"",""coordinates"":[-63.962500000000006,-19.822499999999998]}"
"SLPS","Tte. Av. Salvador Ogaya G. Intl","Puerto Suarez","Bolivia","BOL",-18.980555555555554,-57.823888888888895,"{""type"":""Point"",""coordinates"":[-57.823888888888895,-18.980555555555554]}"
"SLPO","Nicolas Rojas","Potosi","Bolivia","BOL",-19.542222222222225,-65.72333333333333,"{""type"":""Point"",""coordinates"":[-65.72333333333333,-19.542222222222225]}"
"SLOR","Juan Mendoza","Oruro","Bolivia","BOL",-17.955555555555556,-67.075,"{""type"":""Point"",""coordinates"":[-67.075,-17.955555555555556]}"
"SLMG","Magdalena","Magdalena","Bolivia","BOL",-13.258611111111112,-64.06194444444444,"{""type"":""Point"",""coordinates"":[-64.06194444444444,-13.258611111111112]}"
"SLSA","Santa Ana del Yacuma","Santa Ana del Yacuma","Bolivia","BOL",-13.761666666666667,-65.43472222222222,"{""type"":""Point"",""coordinates"":[-65.43472222222222,-13.761666666666667]}"
"SLLP","El Alto Intl","La Paz","Bolivia","BOL",-16.5125,-68.19222222222223,"{""type"":""Point"",""coordinates"":[-68.19222222222223,-16.5125]}"
"SLSI","Cap. Av. Juan Cochamanidis San Ignacio De Velasco","San Ignacio De Velasco","Bolivia","BOL",-16.384444444444444,-60.961666666666666,"{""type"":""Point"",""coordinates"":[-60.961666666666666,-16.384444444444444]}"
"SLJV","San Javier","San Javier","Bolivia","BOL",-16.270833333333332,-62.47027777777778,"{""type"":""Point"",""coordinates"":[-62.47027777777778,-16.270833333333332]}"
"SLSU","Juana Azurduy De Padilla","Sucre","Bolivia","BOL",-19.008055555555554,-65.28861111111111,"{""type"":""Point"",""coordinates"":[-65.28861111111111,-19.008055555555554]}"
"SLSB","Cap German Quiroga G","San Borja","Bolivia","BOL",-14.857777777777777,-66.73861111111111,"{""type"":""Point"",""coordinates"":[-66.73861111111111,-14.857777777777777]}"
"SLCN","Charana","Charana","Bolivia","BOL",-17.59472222222222,-69.43305555555555,"{""type"":""Point"",""coordinates"":[-69.43305555555555,-17.59472222222222]}"
"SLGM","Guayaramerin Intl","Guayaramerin","Bolivia","BOL",-10.88888888888889,-65.38166666666666,"{""type"":""Point"",""coordinates"":[-65.38166666666666,-10.88888888888889]}"
"SLCP","Concepcion","Concepcion","Bolivia","BOL",-16.138333333333332,-62.02861111111111,"{""type"":""Point"",""coordinates"":[-62.02861111111111,-16.138333333333332]}"
"SLET","El Trompillo","Santa Cruz","Bolivia","BOL",-17.81138888888889,-63.170833333333334,"{""type"":""Point"",""coordinates"":[-63.170833333333334,-17.81138888888889]}"
"SLYA","Yacuiba","Yacuiba","Bolivia","BOL",-21.95,-63.65416666666667,"{""type"":""Point"",""coordinates"":[-63.65416666666667,-21.95]}"
"SLRI","Cap De Av Selin Zeitun Lopez","Riberalta","Bolivia","BOL",-11.01,-66.07277777777777,"{""type"":""Point"",""coordinates"":[-66.07277777777777,-11.01]}"
"SLAP","Apolo","Apolo","Bolivia","BOL",-14.735555555555555,-68.41194444444444,"{""type"":""Point"",""coordinates"":[-68.41194444444444,-14.735555555555555]}"
"SLCC","Copacabana","Copacabana","Bolivia","BOL",-16.18777777777778,-69.09138888888889,"{""type"":""Point"",""coordinates"":[-69.09138888888889,-16.18777777777778]}"
"SLCA","Camiri","Camiri","Bolivia","BOL",-20.006944444444443,-63.529444444444444,"{""type"":""Point"",""coordinates"":[-63.529444444444444,-20.006944444444443]}"
"SLLJ","Laja","Laja","Bolivia","BOL",-16.533333333333335,-68.3,"{""type"":""Point"",""coordinates"":[-68.3,-16.533333333333335]}"
"SLCB","Jorge Wilstermann Intl","Cochabamba","Bolivia","BOL",-17.418333333333333,-66.17722222222223,"{""type"":""Point"",""coordinates"":[-66.17722222222223,-17.418333333333333]}"
"SLRQ","Rurrenabaque","Rurrenabaque","Bolivia","BOL",-14.42611111111111,-67.49861111111112,"{""type"":""Point"",""coordinates"":[-67.49861111111112,-14.42611111111111]}"
"SLBJ","Bermejo","Bermejo","Bolivia","BOL",-22.770555555555553,-64.3125,"{""type"":""Point"",""coordinates"":[-64.3125,-22.770555555555553]}"
"SLJE","San Jose De Chiquitos","San Jose De Chiquitos","Bolivia","BOL",-17.830833333333334,-60.74305555555556,"{""type"":""Point"",""coordinates"":[-60.74305555555556,-17.830833333333334]}"
"SLAS","Ascencion De Guarayos","Ascencion De Guarayos","Bolivia","BOL",-15.930277777777777,-63.156666666666666,"{""type"":""Point"",""coordinates"":[-63.156666666666666,-15.930277777777777]}"
"SLJO","San Joaquin","San Joaquin","Bolivia","BOL",-13.065833333333334,-64.67444444444445,"{""type"":""Point"",""coordinates"":[-64.67444444444445,-13.065833333333334]}"
"SLTJ","Capt Oriel Lea Plaza Intl","Tarija","Bolivia","BOL",-21.551111111111112,-64.70833333333334,"{""type"":""Point"",""coordinates"":[-64.70833333333334,-21.551111111111112]}"
"SLCO","Cap Av Civ Anibal Arab Fadul","Cobija","Bolivia","BOL",-11.040555555555555,-68.78361111111111,"{""type"":""Point"",""coordinates"":[-68.78361111111111,-11.040555555555555]}"