"airportCode","airportName","cityName","countryName","countryCode","latitude","longitude","geometry"
"SWYN","Prainha","Apui","Brazil","BRA",-7.1722222222222225,-59.83888888888889,"{""type"":""Point"",""coordinates"":[-59.83888888888889,-7.1722222222222225]}"
"SWXQ","Lins","Lins","Brazil","BRA",-21.662777777777777,-49.73111111111111,"{""type"":""Point"",""coordinates"":[-49.73111111111111,-21.662777777777777]}"
"SWXG","Xingu","Barra Do Garcas","Brazil","BRA",-12.005277777777778,-53.401666666666664,"{""type"":""Point"",""coordinates"":[-53.401666666666664,-12.005277777777778]}"
"SWWM","Faz. Pupila","Mantena","Brazil","BRA",-18.771944444444443,-40.94944444444444,"{""type"":""Point"",""coordinates"":[-40.94944444444444,-18.771944444444443]}"
"SWUZ","Luziania","Luziania","Brazil","BRA",-16.261388888888888,-47.969722222222224,"{""type"":""Point"",""coordinates"":[-47.969722222222224,-16.261388888888888]}"
"SWUP","Uirapuru","Uirapuru","Brazil","BRA",-14.016944444444444,-59.367222222222225,"{""type"":""Point"",""coordinates"":[-59.367222222222225,-14.016944444444444]}"
"SWUA","Sao Miguel Do Araguaia","Sao Miguel Do Araguaia","Brazil","BRA",-13.33388888888889,-50.20583333333334,"{""type"":""Point"",""coordinates"":[-50.20583333333334,-13.33388888888889]}"
"SWTQ","Termas Pousada Do Rio Quente","Rio Quente","Brazil","BRA",-17.76888888888889,-48.76166666666666,"{""type"":""Point"",""coordinates"":[-48.76166666666666,-17.76888888888889]}"
"SWSR","Sertania","Sertania","Brazil","BRA",-13.750277777777777,-55.63388888888889,"{""type"":""Point"",""coordinates"":[-55.63388888888889,-13.750277777777777]}"
"SWRU","Meruri","Tesouro","Brazil","BRA",-15.55638888888889,-53.07527777777778,"{""type"":""Point"",""coordinates"":[-53.07527777777778,-15.55638888888889]}"
"SWRO","Rondonia","Porto Velho","Brazil","BRA",-8.793611111111112,-63.85805555555556,"{""type"":""Point"",""coordinates"":[-63.85805555555556,-8.793611111111112]}"
"SWPK","Pocone","Pocone","Brazil","BRA",-16.272777777777776,-56.65083333333333,"{""type"":""Point"",""coordinates"":[-56.65083333333333,-16.272777777777776]}"
"SWPG","Porto Dos Gauchos","Porto Dos Gauchos","Brazil","BRA",-11.516944444444444,-57.33388888888889,"{""type"":""Point"",""coordinates"":[-57.33388888888889,-11.516944444444444]}"
"SWPB","Forte Principe Da Beira","Costa Marques","Brazil","BRA",-12.41861111111111,-64.41888888888889,"{""type"":""Point"",""coordinates"":[-64.41888888888889,-12.41861111111111]}"
"SWOW","Moura","Moura","Brazil","BRA",-1.4669444444444446,-61.617222222222225,"{""type"":""Point"",""coordinates"":[-61.617222222222225,-1.4669444444444446]}"
"SWNV","National Aviation Aerodrome","Goiania","Brazil","BRA",-16.628055555555555,-49.345555555555556,"{""type"":""Point"",""coordinates"":[-49.345555555555556,-16.628055555555555]}"
"SWNS","Anapolis","Anapolis","Brazil","BRA",-16.3625,-48.92805555555555,"{""type"":""Point"",""coordinates"":[-48.92805555555555,-16.3625]}"
"SWNQ","Niquelandia","Niquelandia","Brazil","BRA",-14.436388888888889,-48.49194444444444,"{""type"":""Point"",""coordinates"":[-48.49194444444444,-14.436388888888889]}"
"SWNK","Novo Campo","Boca Do Acre","Brazil","BRA",-8.83361111111111,-67.31222222222222,"{""type"":""Point"",""coordinates"":[-67.31222222222222,-8.83361111111111]}"
"SWNH","Aruana","Aruana","Brazil","BRA",-14.933055555555555,-51.04833333333333,"{""type"":""Point"",""coordinates"":[-51.04833333333333,-14.933055555555555]}"
"SWNA","Novo Aripuana","Novo Aripuana","Brazil","BRA",-5.1175,-60.364444444444445,"{""type"":""Point"",""coordinates"":[-60.364444444444445,-5.1175]}"
"SWMW","Maues","Maues","Brazil","BRA",-3.3569444444444447,-57.71222222222222,"{""type"":""Point"",""coordinates"":[-57.71222222222222,-3.3569444444444447]}"
"SWLC","Gen Leite De Castro","Rio Verde","Brazil","BRA",-17.834722222222222,-50.95611111111111,"{""type"":""Point"",""coordinates"":[-50.95611111111111,-17.834722222222222]}"
"SWLB","Labrea","Labrea","Brazil","BRA",-7.250277777777778,-64.78388888888888,"{""type"":""Point"",""coordinates"":[-64.78388888888888,-7.250277777777778]}"
"SWKX","Corixa","Caceres","Brazil","BRA",-16.38361111111111,-58.31722222222223,"{""type"":""Point"",""coordinates"":[-58.31722222222223,-16.38361111111111]}"
"SWKU","Cucui","Sao Gabriel Da Cachoeira","Brazil","BRA",1.1205555555555555,-66.84166666666667,"{""type"":""Point"",""coordinates"":[-66.84166666666667,1.1205555555555555]}"
"SWKT","Catalao","Catalao, Brazil","Brazil","BRA",-18.216944444444444,-47.90138888888889,"{""type"":""Point"",""coordinates"":[-47.90138888888889,-18.216944444444444]}"
"SWKO","Coari","Coari","Brazil","BRA",-4.133888888888889,-63.13111111111111,"{""type"":""Point"",""coordinates"":[-63.13111111111111,-4.133888888888889]}"
"SWKC","Caceres","Caceres","Brazil","BRA",-16.04277777777778,-57.62972222222222,"{""type"":""Point"",""coordinates"":[-57.62972222222222,-16.04277777777778]}"
"SWJW","Jatai","Jatai","Brazil","BRA",-17.83,-51.775277777777774,"{""type"":""Point"",""coordinates"":[-51.775277777777774,-17.83]}"
"SWJU","Juruena","Juruena","Brazil","BRA",-10.305833333333334,-58.489444444444445,"{""type"":""Point"",""coordinates"":[-58.489444444444445,-10.305833333333334]}"
"SWJN","Juina","Juina","Brazil","BRA",-11.41861111111111,-58.71138888888889,"{""type"":""Point"",""coordinates"":[-58.71138888888889,-11.41861111111111]}"
"SWII","Ipiranga","Santo Antonio Do Ica","Brazil","BRA",-2.9336111111111114,-69.69472222222223,"{""type"":""Point"",""coordinates"":[-69.69472222222223,-2.9336111111111114]}"
"SWHG","Santa Helena De Goias","Santa Helena De Goias","Brazil","BRA",-17.883888888888887,-50.56722222222223,"{""type"":""Point"",""coordinates"":[-50.56722222222223,-17.883888888888887]}"
"SWGN","Araguaina","Araguaina","Brazil","BRA",-7.2283333333333335,-48.240833333333335,"{""type"":""Point"",""coordinates"":[-48.240833333333335,-7.2283333333333335]}"
"SWIN","Faz. Itamarati Norte","Campo Novo Do Parecis","Brazil","BRA",-14.24472222222222,-57.992222222222225,"{""type"":""Point"",""coordinates"":[-57.992222222222225,-14.24472222222222]}"
"SWGI","Gurupi","Gurupi","Brazil","BRA",-11.739166666666666,-49.132222222222225,"{""type"":""Point"",""coordinates"":[-49.132222222222225,-11.739166666666666]}"
"SWFX","Sao Felix Do Araguaia","Sao Felix Do Araguaia","Brazil","BRA",-11.631944444444445,-50.68833333333333,"{""type"":""Point"",""coordinates"":[-50.68833333333333,-11.631944444444445]}"
"SWFR","Formosa","Formosa","Brazil","BRA",-15.556111111111111,-47.34527777777778,"{""type"":""Point"",""coordinates"":[-47.34527777777778,-15.556111111111111]}"
"SWEI","Eirunepe","Eirunepe","Brazil","BRA",-6.637499999999999,-69.88305555555554,"{""type"":""Point"",""coordinates"":[-69.88305555555554,-6.637499999999999]}"
"SWEE","Estirao Do Equador","Atalaia Do Norte","Brazil","BRA",-4.528611111111111,-71.56555555555555,"{""type"":""Point"",""coordinates"":[-71.56555555555555,-4.528611111111111]}"
"SWDM","Diamantino","Diamantino","Brazil","BRA",-14.376944444444446,-56.400555555555556,"{""type"":""Point"",""coordinates"":[-56.400555555555556,-14.376944444444446]}"
"SWCB","Campos Belos","Campos Belos","Brazil","BRA",-13.008888888888889,-46.77472222222222,"{""type"":""Point"",""coordinates"":[-46.77472222222222,-13.008888888888889]}"
"SWCA","Carauari","Carauari","Brazil","BRA",-4.878611111111112,-66.89555555555556,"{""type"":""Point"",""coordinates"":[-66.89555555555556,-4.878611111111112]}"
"SWBR","Borba","Borba","Brazil","BRA",-4.408611111111111,-59.59777777777778,"{""type"":""Point"",""coordinates"":[-59.59777777777778,-4.408611111111111]}"
"SWBI","Barreirinha","Barreirinha","Brazil","BRA",-2.796111111111111,-57.05611111111111,"{""type"":""Point"",""coordinates"":[-57.05611111111111,-2.796111111111111]}"
"SWBC","Barcelos","Barcelos","Brazil","BRA",-0.9811111111111112,-62.919444444444444,"{""type"":""Point"",""coordinates"":[-62.919444444444444,-0.9811111111111112]}"
"SWBA","Buriti Alegre","Buriti Alegre","Brazil","BRA",-18.125555555555557,-49.04277777777778,"{""type"":""Point"",""coordinates"":[-49.04277777777778,-18.125555555555557]}"
"SSZW","Ponta Grossa","Ponta Grossa","Brazil","BRA",-25.18777777777778,-50.144444444444446,"{""type"":""Point"",""coordinates"":[-50.144444444444446,-25.18777777777778]}"
"SSZR","Santa Rosa","Santa Rosa","Brazil","BRA",-27.90888888888889,-54.52222222222222,"{""type"":""Point"",""coordinates"":[-54.52222222222222,-27.90888888888889]}"
"SSZQ","Faz. Panorama","Bela Vista","Brazil","BRA",-22.03888888888889,-56.269444444444446,"{""type"":""Point"",""coordinates"":[-56.269444444444446,-22.03888888888889]}"
"SWVB","Vila Bela da SS. Trindade","Vila Bela","Brazil","BRA",-15.015277777777778,-59.967222222222226,"{""type"":""Point"",""coordinates"":[-59.967222222222226,-15.015277777777778]}"
"SSXD","Sarandi","Sarandi","Brazil","BRA",-27.981111111111108,-52.86361111111111,"{""type"":""Point"",""coordinates"":[-52.86361111111111,-27.981111111111108]}"
"SSUV","Uniao Da Vitoria","Uniao Da Vitoria","Brazil","BRA",-26.231666666666666,-51.06888888888889,"{""type"":""Point"",""coordinates"":[-51.06888888888889,-26.231666666666666]}"
"SSSS","Sao Francisco do Sul","Sao Francisco do Sul","Brazil","BRA",-26.22111111111111,-48.56444444444444,"{""type"":""Point"",""coordinates"":[-48.56444444444444,-26.22111111111111]}"
"SSSD","Soledade","Soledade","Brazil","BRA",-28.863055555555558,-52.54055555555556,"{""type"":""Point"",""coordinates"":[-52.54055555555556,-28.863055555555558]}"
"SWPA","Pedro Afonso","Pedro Afonso","Brazil","BRA",-8.979444444444445,-48.17361111111111,"{""type"":""Point"",""coordinates"":[-48.17361111111111,-8.979444444444445]}"
"SSSC","Santa Cruz Do Sul","Santa Cruz Do Sul","Brazil","BRA",-29.683611111111112,-52.41222222222222,"{""type"":""Point"",""coordinates"":[-52.41222222222222,-29.683611111111112]}"
"SSSA","Faz. Sant'Anna do Apa","Bela Vista","Brazil","BRA",-21.99361111111111,-56.239444444444445,"{""type"":""Point"",""coordinates"":[-56.239444444444445,-21.99361111111111]}"
"SSRS","Barreirinhas","Barreirinhas","Brazil","BRA",-2.756666666666667,-42.80444444444444,"{""type"":""Point"",""coordinates"":[-42.80444444444444,-2.756666666666667]}"
"SSRK","Campo Alegre de Lourdes","Campo Alegre de Lourdes","Brazil","BRA",-9.516111111111112,-42.995555555555555,"{""type"":""Point"",""coordinates"":[-42.995555555555555,-9.516111111111112]}"
"SSRE","Realeza","Realeza","Brazil","BRA",-25.800555555555555,-53.513888888888886,"{""type"":""Point"",""coordinates"":[-53.513888888888886,-25.800555555555555]}"
"SSQT","Castro","Castro","Brazil","BRA",-24.8075,-49.96027777777778,"{""type"":""Point"",""coordinates"":[-49.96027777777778,-24.8075]}"
"SSQM","Tanque Novo","Tanque Novo","Brazil","BRA",-13.545833333333333,-42.480000000000004,"{""type"":""Point"",""coordinates"":[-42.480000000000004,-13.545833333333333]}"
"SSPL","Palmeira Das Missoes","Palmeira Das Missoes","Brazil","BRA",-27.901666666666664,-53.32888888888889,"{""type"":""Point"",""coordinates"":[-53.32888888888889,-27.901666666666664]}"
"SSPI","Paranavai","Paranavai","Brazil","BRA",-23.091666666666665,-52.48444444444444,"{""type"":""Point"",""coordinates"":[-52.48444444444444,-23.091666666666665]}"
"SSOG","Arapongas","Arapongas","Brazil","BRA",-23.355833333333333,-51.490833333333335,"{""type"":""Point"",""coordinates"":[-51.490833333333335,-23.355833333333333]}"
"SWST","Santa Terezinha","Santa Terezinha","Brazil","BRA",-10.464722222222221,-50.51861111111111,"{""type"":""Point"",""coordinates"":[-50.51861111111111,-10.464722222222221]}"
"SSOE","Sao Miguel Do Oeste","Sao Miguel Do Oeste","Brazil","BRA",-26.78111111111111,-53.50333333333333,"{""type"":""Point"",""coordinates"":[-53.50333333333333,-26.78111111111111]}"
"SSNQ","Nioaque","Nioaque","Brazil","BRA",-21.184722222222224,-55.83305555555556,"{""type"":""Point"",""coordinates"":[-55.83305555555556,-21.184722222222224]}"
"SSMY","Sao Miguel Do Iguacu","Sao Miguel Do Iguacu","Brazil","BRA",-25.392777777777777,-54.26833333333333,"{""type"":""Point"",""coordinates"":[-54.26833333333333,-25.392777777777777]}"
"SSMT","Mostardas","Mostardas","Brazil","BRA",-31.104166666666668,-50.91222222222222,"{""type"":""Point"",""coordinates"":[-50.91222222222222,-31.104166666666668]}"
"SSMJ","Maracaju","Maracaju","Brazil","BRA",-21.633888888888887,-55.144999999999996,"{""type"":""Point"",""coordinates"":[-55.144999999999996,-21.633888888888887]}"
"SSLS","Ruy Barbosa","Ruy Barbosa","Brazil","BRA",-12.27138888888889,-40.53055555555555,"{""type"":""Point"",""coordinates"":[-40.53055555555555,-12.27138888888889]}"
"SSLN","Lontras","Lontras","Brazil","BRA",-27.160277777777775,-49.54333333333333,"{""type"":""Point"",""coordinates"":[-49.54333333333333,-27.160277777777775]}"
"SSKW","Cacoal","Cacoal","Brazil","BRA",-11.495555555555555,-61.450833333333335,"{""type"":""Point"",""coordinates"":[-61.450833333333335,-11.495555555555555]}"
"SSKU","Lauro Antonio da Costa","Curitibanos","Brazil","BRA",-27.287222222222223,-50.60388888888889,"{""type"":""Point"",""coordinates"":[-50.60388888888889,-27.287222222222223]}"
"SSKS","Cachoeira Do Sul","Cachoeira Do Sul","Brazil","BRA",-30.002222222222223,-52.94027777777777,"{""type"":""Point"",""coordinates"":[-52.94027777777777,-30.002222222222223]}"
"SSKK","Capao Da Canoa","Capao Da Canoa","Brazil","BRA",-29.76361111111111,-50.036944444444444,"{""type"":""Point"",""coordinates"":[-50.036944444444444,-29.76361111111111]}"
"SSKG","Santa Maria","Campo Grande","Brazil","BRA",-20.505555555555556,-54.52472222222222,"{""type"":""Point"",""coordinates"":[-54.52472222222222,-20.505555555555556]}"
"SWVC","Vila Rica","Vila Rica","Brazil","BRA",-9.979444444444445,-51.14222222222222,"{""type"":""Point"",""coordinates"":[-51.14222222222222,-9.979444444444445]}"
"SSJI","Jardim","Jardim","Brazil","BRA",-21.493333333333336,-56.15333333333333,"{""type"":""Point"",""coordinates"":[-56.15333333333333,-21.493333333333336]}"
"SSZT","Faz. Sao Joao","Aguas De Santa Barbara","Brazil","BRA",-22.79416666666667,-49.34111111111111,"{""type"":""Point"",""coordinates"":[-49.34111111111111,-22.79416666666667]}"
"SSIO","Candiota","Candiota","Brazil","BRA",-31.49416666666667,-53.69083333333333,"{""type"":""Point"",""coordinates"":[-53.69083333333333,-31.49416666666667]}"
"SSIJ","Ijui","Ijui","Brazil","BRA",-28.37,-53.845555555555556,"{""type"":""Point"",""coordinates"":[-53.845555555555556,-28.37]}"
"SSIE","Teruel Ipanema Estancia","Campo Grande","Brazil","BRA",-20.599444444444444,-54.6025,"{""type"":""Point"",""coordinates"":[-54.6025,-20.599444444444444]}"
"SSGV","Getulio Vargas","Getulio Vargas","Brazil","BRA",-27.863333333333333,-52.18555555555555,"{""type"":""Point"",""coordinates"":[-52.18555555555555,-27.863333333333333]}"
"SWPM","Pimenta Bueno","Pimenta Bueno","Brazil","BRA",-11.641666666666666,-61.18111111111111,"{""type"":""Point"",""coordinates"":[-61.18111111111111,-11.641666666666666]}"
"SSGA","Garibaldi","Garibaldi","Brazil","BRA",-29.26833333333333,-51.532222222222224,"{""type"":""Point"",""coordinates"":[-51.532222222222224,-29.26833333333333]}"
"SSFK","Forte Coimbra","Corumba","Brazil","BRA",-19.90611111111111,-57.779444444444444,"{""type"":""Point"",""coordinates"":[-57.779444444444444,-19.90611111111111]}"
"SSFB","Francisco Beltrao","Francisco Beltrao","Brazil","BRA",-26.059444444444445,-53.06388888888888,"{""type"":""Point"",""coordinates"":[-53.06388888888888,-26.059444444444445]}"
"SSER","Erechim","Erechim","Brazil","BRA",-27.66,-52.27611111111111,"{""type"":""Point"",""coordinates"":[-52.27611111111111,-27.66]}"
"SSEP","Sao Sepe","Sao Sepe","Brazil","BRA",-30.182222222222222,-53.57944444444445,"{""type"":""Point"",""coordinates"":[-53.57944444444445,-30.182222222222222]}"
"SSEO","Faz. Mimoso","Ribas Do Rio Pardo","Brazil","BRA",-20.734444444444446,-53.57666666666667,"{""type"":""Point"",""coordinates"":[-53.57666666666667,-20.734444444444446]}"
"SSDP","Faz. Fortaleza do Guapore","Vila Bela Da SS","Brazil","BRA",-14.463888888888889,-60.17472222222222,"{""type"":""Point"",""coordinates"":[-60.17472222222222,-14.463888888888889]}"
"SSDK","Sao Pedro","Igaratinga","Brazil","BRA",-20.075833333333332,-44.72833333333333,"{""type"":""Point"",""coordinates"":[-44.72833333333333,-20.075833333333332]}"
"SSKM","Campo Mourao","Campo Mourao","Brazil","BRA",-24.0025,-52.356944444444444,"{""type"":""Point"",""coordinates"":[-52.356944444444444,-24.0025]}"
"SSCQ","Cacequi","Cacequi","Brazil","BRA",-29.899166666666666,-54.92861111111111,"{""type"":""Point"",""coordinates"":[-54.92861111111111,-29.899166666666666]}"
"SSCP","Cornelio Procopio","Cornelio Procopio","Brazil","BRA",-23.152777777777775,-50.60277777777778,"{""type"":""Point"",""coordinates"":[-50.60277777777778,-23.152777777777775]}"
"SSCN","Canela","Canela","Brazil","BRA",-29.370555555555555,-50.83222222222223,"{""type"":""Point"",""coordinates"":[-50.83222222222223,-29.370555555555555]}"
"SSCL","Cassilandia","Cassilandia","Brazil","BRA",-19.14638888888889,-51.68527777777778,"{""type"":""Point"",""coordinates"":[-51.68527777777778,-19.14638888888889]}"
"SWIY","Santa Isabel do Morro","Lagoa da Confusao","Brazil","BRA",-11.573333333333332,-50.66833333333333,"{""type"":""Point"",""coordinates"":[-50.66833333333333,-11.573333333333332]}"
"SSCK","Olavo Cecco Rigon","Concordia","Brazil","BRA",-27.180555555555557,-52.051111111111105,"{""type"":""Point"",""coordinates"":[-52.051111111111105,-27.180555555555557]}"
"SSCD","Chapadao do Sul","Chapadao do Sul","Brazil","BRA",-18.837777777777777,-52.486666666666665,"{""type"":""Point"",""coordinates"":[-52.486666666666665,-18.837777777777777]}"
"SSCA","Faz. Campo Bom","Chapadao do Sul","Brazil","BRA",-18.739444444444445,-52.62,"{""type"":""Point"",""coordinates"":[-52.62,-18.739444444444445]}"
"SSBR","Bandeirantes","Bandeirantes","Brazil","BRA",-23.072777777777777,-50.42305555555555,"{""type"":""Point"",""coordinates"":[-50.42305555555555,-23.072777777777777]}"
"SSBQ","Faz. Brusque","Santa Cruz do Xingu","Brazil","BRA",-10.149722222222222,-52.286944444444444,"{""type"":""Point"",""coordinates"":[-52.286944444444444,-10.149722222222222]}"
"SSBN","Belem Novo","Porto Alegre","Brazil","BRA",-30.18777777777778,-51.18277777777777,"{""type"":""Point"",""coordinates"":[-51.18277777777777,-30.18777777777778]}"
"SSAQ","Aeroclub","Passo Fundo","Brazil","BRA",-28.250555555555554,-52.516666666666666,"{""type"":""Point"",""coordinates"":[-52.516666666666666,-28.250555555555554]}"
"SSAP","Apucarana","Apucarana","Brazil","BRA",-23.612222222222222,-51.385,"{""type"":""Point"",""coordinates"":[-51.385,-23.612222222222222]}"
"SSAN","Andira","Andira","Brazil","BRA",-23.026944444444442,-50.22833333333333,"{""type"":""Point"",""coordinates"":[-50.22833333333333,-23.026944444444442]}"
"SSAB","Ibaiti","Ibaiti","Brazil","BRA",-23.763055555555557,-50.264722222222225,"{""type"":""Point"",""coordinates"":[-50.264722222222225,-23.763055555555557]}"
"SNZP","Pocoes","Pocoes","Brazil","BRA",-14.525277777777779,-40.3425,"{""type"":""Point"",""coordinates"":[-40.3425,-14.525277777777779]}"
"SNZA","Pouso Alegre","Pouso Alegre","Brazil","BRA",-22.28888888888889,-45.919444444444444,"{""type"":""Point"",""coordinates"":[-45.919444444444444,-22.28888888888889]}"
"SNYT","Ituacu","Ituacu","Brazil","BRA",-13.82861111111111,-41.30222222222222,"{""type"":""Point"",""coordinates"":[-41.30222222222222,-13.82861111111111]}"
"SNZR","Paracatu","Paracatu","Brazil","BRA",-17.243055555555557,-46.88138888888889,"{""type"":""Point"",""coordinates"":[-46.88138888888889,-17.243055555555557]}"
"SNYE","Pinheiro","Pinheiro","Brazil","BRA",-2.483611111111111,-45.06722222222223,"{""type"":""Point"",""coordinates"":[-45.06722222222223,-2.483611111111111]}"
"SNYB","Ituiutaba","Ituiutaba","Brazil","BRA",-19.001944444444444,-49.48722222222222,"{""type"":""Point"",""coordinates"":[-49.48722222222222,-19.001944444444444]}"
"SSTB","Tres Barras","Tres Barras","Brazil","BRA",-26.13277777777778,-50.30972222222222,"{""type"":""Point"",""coordinates"":[-50.30972222222222,-26.13277777777778]}"
"SNYA","Almeirim","Almeirim","Brazil","BRA",-1.4791666666666667,-52.57805555555556,"{""type"":""Point"",""coordinates"":[-52.57805555555556,-1.4791666666666667]}"
"SSRU","Sao Lourenco Do Sul","Sao Lourenco Do Sul","Brazil","BRA",-31.383333333333333,-52.032777777777774,"{""type"":""Point"",""coordinates"":[-52.032777777777774,-31.383333333333333]}"
"SNWS","Crateus","Crateus","Brazil","BRA",-5.211111111111111,-40.70416666666667,"{""type"":""Point"",""coordinates"":[-40.70416666666667,-5.211111111111111]}"
"SSRW","Faz. J Campos","Porangaba","Brazil","BRA",-23.203055555555554,-48.10472222222222,"{""type"":""Point"",""coordinates"":[-48.10472222222222,-23.203055555555554]}"
"SNVL","Virgem Da Lapa","Virgem Da Lapa","Brazil","BRA",-16.773888888888887,-42.3875,"{""type"":""Point"",""coordinates"":[-42.3875,-16.773888888888887]}"
"SWEK","Canarana","Canarana","Brazil","BRA",-13.574444444444444,-52.27055555555555,"{""type"":""Point"",""coordinates"":[-52.27055555555555,-13.574444444444444]}"
"SNVD","Santa Maria Da Vitoria Apt","Santa Maria Da Vitoria","Brazil","BRA",-13.400555555555556,-44.217222222222226,"{""type"":""Point"",""coordinates"":[-44.217222222222226,-13.400555555555556]}"
"SNVB","Valenca","Valenca","Brazil","BRA",-13.296388888888888,-38.9925,"{""type"":""Point"",""coordinates"":[-38.9925,-13.296388888888888]}"
"SNUC","Acu","Acu","Brazil","BRA",-5.595277777777778,-36.961111111111116,"{""type"":""Point"",""coordinates"":[-36.961111111111116,-5.595277777777778]}"
"SNUB","Uba","Uba","Brazil","BRA",-21.1225,-42.882222222222225,"{""type"":""Point"",""coordinates"":[-42.882222222222225,-21.1225]}"
"SNMC","Macaubas","Macaubas","Brazil","BRA",-13.025555555555556,-42.67305555555555,"{""type"":""Point"",""coordinates"":[-42.67305555555555,-13.025555555555556]}"
"SNTO","Teofilo Otoni","Teofilo Otoni","Brazil","BRA",-17.890833333333333,-41.515,"{""type"":""Point"",""coordinates"":[-41.515,-17.890833333333333]}"
"SNSW","Soure","Soure","Brazil","BRA",-0.6983333333333334,-48.518055555555556,"{""type"":""Point"",""coordinates"":[-48.518055555555556,-0.6983333333333334]}"
"SNTF","Teixeira de Freitas","Teixeira de Freitas","Brazil","BRA",-17.524444444444445,-39.66833333333333,"{""type"":""Point"",""coordinates"":[-39.66833333333333,-17.524444444444445]}"
"SNVG","Volta Grande","Conceicao Das Alagoas","Brazil","BRA",-20.03388888888889,-48.23388888888889,"{""type"":""Point"",""coordinates"":[-48.23388888888889,-20.03388888888889]}"
"SNST","Souto Soares","Souto Soares","Brazil","BRA",-12.101388888888888,-41.63472222222222,"{""type"":""Point"",""coordinates"":[-41.63472222222222,-12.101388888888888]}"
"SNSS","Salinas","Salinas","Brazil","BRA",-16.20777777777778,-42.32222222222222,"{""type"":""Point"",""coordinates"":[-42.32222222222222,-16.20777777777778]}"
"SBJD","Jundiai","Jundiai","Brazil","BRA",-23.18166666666667,-46.94361111111111,"{""type"":""Point"",""coordinates"":[-46.94361111111111,-23.18166666666667]}"
"SNRX","Riachao","Riachao","Brazil","BRA",-7.3502777777777775,-46.63388888888889,"{""type"":""Point"",""coordinates"":[-46.63388888888889,-7.3502777777777775]}"
"SNRU","Caruaru","Caruaru","Brazil","BRA",-8.284444444444444,-36.01083333333333,"{""type"":""Point"",""coordinates"":[-36.01083333333333,-8.284444444444444]}"
"SNRP","Rio Paranaiba","Rio Paranaiba","Brazil","BRA",-19.2125,-46.24055555555556,"{""type"":""Point"",""coordinates"":[-46.24055555555556,-19.2125]}"
"SNIP","Itapetinga","Itapetinga","Brazil","BRA",-15.244444444444444,-40.27722222222222,"{""type"":""Point"",""coordinates"":[-40.27722222222222,-15.244444444444444]}"
"SNUH","Piumhi","Piumhi","Brazil","BRA",-20.43861111111111,-45.99277777777778,"{""type"":""Point"",""coordinates"":[-45.99277777777778,-20.43861111111111]}"
"SWSI","Presidente Joao Batista Figueiredo","Sinop","Brazil","BRA",-11.885,-55.586111111111116,"{""type"":""Point"",""coordinates"":[-55.586111111111116,-11.885]}"
"SBDN","Presidente Prudente","Presidente Prudente","Brazil","BRA",-22.178333333333335,-51.41888888888889,"{""type"":""Point"",""coordinates"":[-51.41888888888889,-22.178333333333335]}"
"SNQV","Curvelo","Curvelo","Brazil","BRA",-18.766111111111112,-44.45805555555556,"{""type"":""Point"",""coordinates"":[-44.45805555555556,-18.766111111111112]}"
"SNQG","Cangapara","Floriano","Brazil","BRA",-6.846111111111111,-43.07805555555556,"{""type"":""Point"",""coordinates"":[-43.07805555555556,-6.846111111111111]}"
"SNPU","Paraguacu","Paraguacu","Brazil","BRA",-21.559166666666666,-45.751666666666665,"{""type"":""Point"",""coordinates"":[-45.751666666666665,-21.559166666666666]}"
"SDEP","Presidente Epitacio","Presidente Epitacio","Brazil","BRA",-21.775555555555556,-52.16305555555555,"{""type"":""Point"",""coordinates"":[-52.16305555555555,-21.775555555555556]}"
"SNPO","Pompeu","Pompeu","Brazil","BRA",-19.203333333333333,-45.02333333333333,"{""type"":""Point"",""coordinates"":[-45.02333333333333,-19.203333333333333]}"
"SNBK","Bocaiuva","Bocaiuva","Brazil","BRA",-17.133055555555558,-43.815555555555555,"{""type"":""Point"",""coordinates"":[-43.815555555555555,-17.133055555555558]}"
"SNKP","Capelinha","Capelinha","Brazil","BRA",-17.683888888888887,-42.53388888888889,"{""type"":""Point"",""coordinates"":[-42.53388888888889,-17.683888888888887]}"
"SNPG","Porto Grande","Porto Grande","Brazil","BRA",0.8663888888888889,-51.400555555555556,"{""type"":""Point"",""coordinates"":[-51.400555555555556,0.8663888888888889]}"
"SNPA","Para De Minas","Para De Minas","Brazil","BRA",-19.842777777777776,-44.60111111111111,"{""type"":""Point"",""coordinates"":[-44.60111111111111,-19.842777777777776]}"
"SNOX","Oriximina","Oriximina","Brazil","BRA",-1.713611111111111,-55.83583333333333,"{""type"":""Point"",""coordinates"":[-55.83583333333333,-1.713611111111111]}"
"SNOS","Municipal Jose Figueiredo","Passos","Brazil","BRA",-20.733333333333334,-46.65972222222222,"{""type"":""Point"",""coordinates"":[-46.65972222222222,-20.733333333333334]}"
"SWXV","Xavantina","Nova Xavantina","Brazil","BRA",-14.690833333333334,-52.34916666666667,"{""type"":""Point"",""coordinates"":[-52.34916666666667,-14.690833333333334]}"
"SSCF","Max Fontoura","Campo Largo","Brazil","BRA",-25.432222222222222,-49.53,"{""type"":""Point"",""coordinates"":[-49.53,-25.432222222222222]}"
"SBCX","Campo Dos Bugres","Caxias Do Sul","Brazil","BRA",-29.195555555555554,-51.189722222222215,"{""type"":""Point"",""coordinates"":[-51.189722222222215,-29.195555555555554]}"
"SNOC","Morro Do Chapeu","Morro Do Chapeu","Brazil","BRA",-11.534444444444444,-41.17972222222222,"{""type"":""Point"",""coordinates"":[-41.17972222222222,-11.534444444444444]}"
"SNOA","Faz. Iraja","BALSAS","Brazil","BRA",-7.318333333333333,-46.07416666666667,"{""type"":""Point"",""coordinates"":[-46.07416666666667,-7.318333333333333]}"
"SNNP","Nilo Pecanha","Nilo Pecanha","Brazil","BRA",-8.066944444444443,-52.16722222222222,"{""type"":""Point"",""coordinates"":[-52.16722222222222,-8.066944444444443]}"
"SNGX","Guaxupe","Guaxupe","Brazil","BRA",-21.32611111111111,-46.72972222222222,"{""type"":""Point"",""coordinates"":[-46.72972222222222,-21.32611111111111]}"
"SNMZ","Porto De Moz","Porto De Moz","Brazil","BRA",-1.7391666666666667,-52.245,"{""type"":""Point"",""coordinates"":[-52.245,-1.7391666666666667]}"
"SNMX","Sao Mateus","Sao Mateus","Brazil","BRA",-18.72083333333333,-39.83305555555556,"{""type"":""Point"",""coordinates"":[-39.83305555555556,-18.72083333333333]}"
"SNMU","Mucuri","Mucuri","Brazil","BRA",-18.049444444444447,-39.86333333333334,"{""type"":""Point"",""coordinates"":[-39.86333333333334,-18.049444444444447]}"
"SSNH","Novo Hamburgo","Novo Hamburgo","Brazil","BRA",-29.69611111111111,-51.08166666666667,"{""type"":""Point"",""coordinates"":[-51.08166666666667,-29.69611111111111]}"
"SNMI","Mina Caraiba","Jaguarari","Brazil","BRA",-9.834722222222222,-39.88333333333333,"{""type"":""Point"",""coordinates"":[-39.88333333333333,-9.834722222222222]}"
"SNOF","Ouro Fino","Ouro Fino","Brazil","BRA",-22.297500000000003,-46.39333333333333,"{""type"":""Point"",""coordinates"":[-46.39333333333333,-22.297500000000003]}"
"SDAD","Everaldo Moraes Barreto","Adamantina","Brazil","BRA",-21.69611111111111,-51.09638888888889,"{""type"":""Point"",""coordinates"":[-51.09638888888889,-21.69611111111111]}"
"SNLO","Sao Lourenco","Sao Lourenco","Brazil","BRA",-22.091666666666665,-45.04527777777778,"{""type"":""Point"",""coordinates"":[-45.04527777777778,-22.091666666666665]}"
"SNSO","Serro","Serro","Brazil","BRA",-18.611111111111114,-43.42388888888889,"{""type"":""Point"",""coordinates"":[-43.42388888888889,-18.611111111111114]}"
"SNLN","Linhares","Linhares","Brazil","BRA",-19.354444444444447,-40.06888888888889,"{""type"":""Point"",""coordinates"":[-40.06888888888889,-19.354444444444447]}"
"SNKL","Colinas","Colinas","Brazil","BRA",-5.966944444444445,-44.23388888888889,"{""type"":""Point"",""coordinates"":[-44.23388888888889,-5.966944444444445]}"
"SNKH","Jacareacanga","Creputia","Brazil","BRA",-8.116944444444444,-57.117222222222225,"{""type"":""Point"",""coordinates"":[-57.117222222222225,-8.116944444444444]}"
"SNKF","Conselheiro Lafaiete","Conselheiro Lafaiete","Brazil","BRA",-20.738611111111112,-43.79805555555556,"{""type"":""Point"",""coordinates"":[-43.79805555555556,-20.738611111111112]}"
"SDIV","Ituverava","Ituverava","Brazil","BRA",-20.37527777777778,-47.76861111111111,"{""type"":""Point"",""coordinates"":[-47.76861111111111,-20.37527777777778]}"
"SNJQ","Jequitinhonha","Jequitinhonha","Brazil","BRA",-16.47222222222222,-41.025,"{""type"":""Point"",""coordinates"":[-41.025,-16.47222222222222]}"
"SNKC","Cocos","Cocos","Brazil","BRA",-14.117222222222223,-44.45055555555556,"{""type"":""Point"",""coordinates"":[-44.45055555555556,-14.117222222222223]}"
"SWOB","Fonte Boa","Fonte Boa","Brazil","BRA",-2.533611111111111,-66.06722222222221,"{""type"":""Point"",""coordinates"":[-66.06722222222221,-2.533611111111111]}"
"SNWC","Camocim","Camocim","Brazil","BRA",-2.8966666666666665,-40.856944444444444,"{""type"":""Point"",""coordinates"":[-40.856944444444444,-2.8966666666666665]}"
"SNYD","Pilao Arcado","Pilao Arcado","Brazil","BRA",-10.066944444444443,-42.45055555555556,"{""type"":""Point"",""coordinates"":[-42.45055555555556,-10.066944444444443]}"
"SNJR","Prefeito Octavio de Almeida Neves","Sao Joao Del Rei","Brazil","BRA",-21.085555555555555,-44.22527777777778,"{""type"":""Point"",""coordinates"":[-44.22527777777778,-21.085555555555555]}"
"SNLG","Serra do Cipo","Jaboticatubas","Brazil","BRA",-19.398611111111112,-43.74638888888889,"{""type"":""Point"",""coordinates"":[-43.74638888888889,-19.398611111111112]}"
"SSSG","Sao Gabriel","Sao Gabriel","Brazil","BRA",-30.345,-54.26777777777777,"{""type"":""Point"",""coordinates"":[-54.26777777777777,-30.345]}"
"SBGO","Santa Genoveva","Goiania","Brazil","BRA",-16.629880555555555,-49.22661388888889,"{""type"":""Point"",""coordinates"":[-49.22661388888889,-16.629880555555555]}"
"SNJP","Joao Pinheiro","Joao Pinheiro","Brazil","BRA",-17.7875,-46.12,"{""type"":""Point"",""coordinates"":[-46.12,-17.7875]}"
"SNPJ","Patrocinio","Patrocinio","Brazil","BRA",-18.909166666666664,-46.98277777777778,"{""type"":""Point"",""coordinates"":[-46.98277777777778,-18.909166666666664]}"
"SNIG","Iguatu","Iguatu","Brazil","BRA",-6.347777777777777,-39.29861111111111,"{""type"":""Point"",""coordinates"":[-39.29861111111111,-6.347777777777777]}"
"SNCP","Carutapera","Carutapera","Brazil","BRA",-1.2502777777777778,-46.01722222222222,"{""type"":""Point"",""coordinates"":[-46.01722222222222,-1.2502777777777778]}"
"SNIE","Caetite","Caetite","Brazil","BRA",-14.011388888888888,-42.49166666666667,"{""type"":""Point"",""coordinates"":[-42.49166666666667,-14.011388888888888]}"
"SNGV","Faz. Tanguru","Querencia","Brazil","BRA",-12.726944444444445,-52.3675,"{""type"":""Point"",""coordinates"":[-52.3675,-12.726944444444445]}"
"SNGN","Garanhuns","Garanhuns","Brazil","BRA",-8.834444444444445,-36.47138888888889,"{""type"":""Point"",""coordinates"":[-36.47138888888889,-8.834444444444445]}"
"SSJK","Julio De Castilos","Julio De Castilos","Brazil","BRA",-29.153055555555554,-53.74333333333333,"{""type"":""Point"",""coordinates"":[-53.74333333333333,-29.153055555555554]}"
"SSCR","Marechal Candido Rondon","Marechal Candido Rond*","Brazil","BRA",-24.512777777777778,-54.053888888888885,"{""type"":""Point"",""coordinates"":[-54.053888888888885,-24.512777777777778]}"
"SNGH","Guanhaes","Guanhaes","Brazil","BRA",-18.70722222222222,-42.83888888888889,"{""type"":""Point"",""coordinates"":[-42.83888888888889,-18.70722222222222]}"
"SSIQ","Itaqui","Itaqui","Brazil","BRA",-29.173055555555557,-56.53666666666666,"{""type"":""Point"",""coordinates"":[-56.53666666666666,-29.173055555555557]}"
"SNGD","Guadalupe","Guadalupe","Brazil","BRA",-6.782222222222222,-43.58222222222223,"{""type"":""Point"",""coordinates"":[-43.58222222222223,-6.782222222222222]}"
"SNAM","Santo Antonio Do Amparo","Santo Antonio Do Amparo","Brazil","BRA",-20.911388888888887,-44.894444444444446,"{""type"":""Point"",""coordinates"":[-44.894444444444446,-20.911388888888887]}"
"SBNF","Ministro Victor Konder Intl","Navegantes","Brazil","BRA",-26.878611111111113,-48.65083333333333,"{""type"":""Point"",""coordinates"":[-48.65083333333333,-26.878611111111113]}"
"SNGA","Guarapari","Guarapari","Brazil","BRA",-20.650555555555552,-40.492222222222225,"{""type"":""Point"",""coordinates"":[-40.492222222222225,-20.650555555555552]}"
"SNFX","Sao Felix","Sao Felix Do Xingu","Brazil","BRA",-6.6402777777777775,-51.99,"{""type"":""Point"",""coordinates"":[-51.99,-6.6402777777777775]}"
"SBMO","Zumbi Dos Palmares","Maceio","Brazil","BRA",-9.517222222222223,-35.78361111111111,"{""type"":""Point"",""coordinates"":[-35.78361111111111,-9.517222222222223]}"
"SNGI","Guanambi","Guanambi","Brazil","BRA",-14.206944444444444,-42.75111111111111,"{""type"":""Point"",""coordinates"":[-42.75111111111111,-14.206944444444444]}"
"SNEP","Eunapolis","Eunapolis","Brazil","BRA",-16.329166666666666,-39.57694444444445,"{""type"":""Point"",""coordinates"":[-39.57694444444445,-16.329166666666666]}"
"SNDW","Divisa","Encruzilhada","Brazil","BRA",-15.717222222222222,-41.01722222222222,"{""type"":""Point"",""coordinates"":[-41.01722222222222,-15.717222222222222]}"
"SBSG","Gov Aluizio Alves Intl","Sao Goncalo Do Amarante","Brazil","BRA",-5.768888888888889,-35.36638888888889,"{""type"":""Point"",""coordinates"":[-35.36638888888889,-5.768888888888889]}"
"SNDT","Juscelino Kubitschek","Diamantina","Brazil","BRA",-18.23222222222222,-43.650277777777774,"{""type"":""Point"",""coordinates"":[-43.650277777777774,-18.23222222222222]}"
"SNDR","Domingos Rego","Timon","Brazil","BRA",-5.080277777777778,-42.87277777777778,"{""type"":""Point"",""coordinates"":[-42.87277777777778,-5.080277777777778]}"
"SDGC","Garca","Garca","Brazil","BRA",-22.183611111111112,-49.65611111111111,"{""type"":""Point"",""coordinates"":[-49.65611111111111,-22.183611111111112]}"
"SNDC","Redencao","Redencao","Brazil","BRA",-8.031111111111112,-49.97972222222222,"{""type"":""Point"",""coordinates"":[-49.97972222222222,-8.031111111111112]}"
"SDNH","Novo Horizonte","Novo Horizonte","Brazil","BRA",-21.497777777777777,-49.23444444444444,"{""type"":""Point"",""coordinates"":[-49.23444444444444,-21.497777777777777]}"
"SBBP","Arthur Siqueira","Braganca Paulista","Brazil","BRA",-22.979166666666664,-46.5375,"{""type"":""Point"",""coordinates"":[-46.5375,-22.979166666666664]}"
"SNDB","Ruropolis","Ruropolis","Brazil","BRA",-4.085555555555556,-54.91083333333333,"{""type"":""Point"",""coordinates"":[-54.91083333333333,-4.085555555555556]}"
"SSVN","Veranopolis","Veranopolis","Brazil","BRA",-28.935,-51.568333333333335,"{""type"":""Point"",""coordinates"":[-51.568333333333335,-28.935]}"
"SNCZ","Ponte Nova","Ponte Nova","Brazil","BRA",-20.403055555555554,-42.916666666666664,"{""type"":""Point"",""coordinates"":[-42.916666666666664,-20.403055555555554]}"
"SBPP","Ponta Pora Intl","Ponta Pora","Brazil","BRA",-22.549722222222226,-55.70305555555556,"{""type"":""Point"",""coordinates"":[-55.70305555555556,-22.549722222222226]}"
"SNCT","Ubaporanga","Caratinga","Brazil","BRA",-19.725277777777777,-42.111111111111114,"{""type"":""Point"",""coordinates"":[-42.111111111111114,-19.725277777777777]}"
"SNCE","Campo Do Meio","Campo Do Meio","Brazil","BRA",-21.10611111111111,-45.80472222222222,"{""type"":""Point"",""coordinates"":[-45.80472222222222,-21.10611111111111]}"
"SSAE","Arroio Grande","Arroio Grande","Brazil","BRA",-32.22416666666667,-53.06722222222223,"{""type"":""Point"",""coordinates"":[-53.06722222222223,-32.22416666666667]}"
"SNCA","Campo Belo","Campo Belo","Brazil","BRA",-20.8925,-45.33555555555556,"{""type"":""Point"",""coordinates"":[-45.33555555555556,-20.8925]}"
"SNBZ","Paramirim","Paramirim","Brazil","BRA",-13.446111111111112,-42.24916666666667,"{""type"":""Point"",""coordinates"":[-42.24916666666667,-13.446111111111112]}"
"SSSB","Sao Borja","Sao Borja","Brazil","BRA",-28.653055555555554,-56.032777777777774,"{""type"":""Point"",""coordinates"":[-56.032777777777774,-28.653055555555554]}"
"SNBX","Barra","Barra","Brazil","BRA",-11.08388888888889,-43.13388888888889,"{""type"":""Point"",""coordinates"":[-43.13388888888889,-11.08388888888889]}"
"SSVI","Videira","Videira","Brazil","BRA",-27,-51.1575,"{""type"":""Point"",""coordinates"":[-51.1575,-27]}"
"SDLI","Abare","Abare","Brazil","BRA",-8.73861111111111,-39.12583333333333,"{""type"":""Point"",""coordinates"":[-39.12583333333333,-8.73861111111111]}"
"SNBT","Benedito Leite","Benedito Leite","Brazil","BRA",-7.216944444444445,-44.550555555555555,"{""type"":""Point"",""coordinates"":[-44.550555555555555,-7.216944444444445]}"
"SSEW","Sitio Limoeiro","Pardinho","Brazil","BRA",-23.145555555555553,-48.30972222222222,"{""type"":""Point"",""coordinates"":[-48.30972222222222,-23.145555555555553]}"
"SBTC","Hotel Transamerica","Una","Brazil","BRA",-15.353333333333333,-38.99722222222222,"{""type"":""Point"",""coordinates"":[-38.99722222222222,-15.353333333333333]}"
"SNKI","Cachoeiro Do Itapemirim","Cachoeiro Do Itapemirim","Brazil","BRA",-20.835277777777776,-41.186388888888885,"{""type"":""Point"",""coordinates"":[-41.186388888888885,-20.835277777777776]}"
"SNPZ","Pedra Azul","Pedra Azul","Brazil","BRA",-16.06722222222222,-41.16722222222222,"{""type"":""Point"",""coordinates"":[-41.16722222222222,-16.06722222222222]}"
"SNBS","Balsas","Balsas","Brazil","BRA",-7.525277777777777,-46.05333333333333,"{""type"":""Point"",""coordinates"":[-46.05333333333333,-7.525277777777777]}"
"SNXQ","Xique-Xique","Xique-Xique","Brazil","BRA",-10.834166666666667,-42.68333333333333,"{""type"":""Point"",""coordinates"":[-42.68333333333333,-10.834166666666667]}"
"SNBM","Cristiano Ferreira Varella","Muriae","Brazil","BRA",-21.128888888888888,-42.36694444444444,"{""type"":""Point"",""coordinates"":[-42.36694444444444,-21.128888888888888]}"
"SSLT","Alegrete Novo","Alegrete","Brazil","BRA",-29.8125,-55.89222222222222,"{""type"":""Point"",""coordinates"":[-55.89222222222222,-29.8125]}"
"SNBG","Baixo Guandu","Baixo Guandu","Brazil","BRA",-19.49888888888889,-41.04194444444444,"{""type"":""Point"",""coordinates"":[-41.04194444444444,-19.49888888888889]}"
"SNAH","Adustina","Adustina","Brazil","BRA",-10.584722222222222,-38.08722222222222,"{""type"":""Point"",""coordinates"":[-38.08722222222222,-10.584722222222222]}"
"SNBA","Chafei Amsei","Barretos","Brazil","BRA",-20.585555555555555,-48.59583333333334,"{""type"":""Point"",""coordinates"":[-48.59583333333334,-20.585555555555555]}"
"SNCX","Colatina","Colatina","Brazil","BRA",-19.4875,-40.57944444444445,"{""type"":""Point"",""coordinates"":[-40.57944444444445,-19.4875]}"
"SBTV","Porto Seguro","Terravista","Brazil","BRA",-16.54138888888889,-39.10805555555556,"{""type"":""Point"",""coordinates"":[-39.10805555555556,-16.54138888888889]}"
"SNAX","Marcelo Pires Halzhausen","Assis","Brazil","BRA",-22.64,-50.45305555555556,"{""type"":""Point"",""coordinates"":[-50.45305555555556,-22.64]}"
"SNAS","Tres Marias","Tres Marias","Brazil","BRA",-18.224999999999998,-45.190555555555555,"{""type"":""Point"",""coordinates"":[-45.190555555555555,-18.224999999999998]}"
"SSQZ","Luis Eduardo Magalhaes","Mimoso do Oeste","Brazil","BRA",-12.106388888888889,-45.894999999999996,"{""type"":""Point"",""coordinates"":[-45.894999999999996,-12.106388888888889]}"
"SBGP","Unidade Gaviao Peixoto","Gaviao Peixoto","Brazil","BRA",-21.764444444444443,-48.40472222222222,"{""type"":""Point"",""coordinates"":[-48.40472222222222,-21.764444444444443]}"
"SBAR","Santa Maria","Aracaju","Brazil","BRA",-10.985277777777776,-37.07333333333334,"{""type"":""Point"",""coordinates"":[-37.07333333333334,-10.985277777777776]}"
"SWIA","Iaciara","Iaciara","Brazil","BRA",-14.106388888888889,-46.669444444444444,"{""type"":""Point"",""coordinates"":[-46.669444444444444,-14.106388888888889]}"
"SNAP","Janauba","Janauba","Brazil","BRA",-15.733055555555556,-43.323888888888895,"{""type"":""Point"",""coordinates"":[-43.323888888888895,-15.733055555555556]}"
"SDPV","Presidente Venceslau","Presidente Venceslau","Brazil","BRA",-21.893333333333334,-51.88444444444444,"{""type"":""Point"",""coordinates"":[-51.88444444444444,-21.893333333333334]}"
"SBTF","Tefe","Tefe","Brazil","BRA",-3.3802777777777777,-64.72527777777778,"{""type"":""Point"",""coordinates"":[-64.72527777777778,-3.3802777777777777]}"
"SNAL","Arapiraca","Arapiraca","Brazil","BRA",-9.77638888888889,-36.63055555555555,"{""type"":""Point"",""coordinates"":[-36.63055555555555,-9.77638888888889]}"
"SWWU","Uruacu","Uruacu","Brazil","BRA",-14.525555555555556,-49.13777777777778,"{""type"":""Point"",""coordinates"":[-49.13777777777778,-14.525555555555556]}"
"SDNO","Sao Manuel","Sao Manuel","Brazil","BRA",-22.69611111111111,-48.57611111111112,"{""type"":""Point"",""coordinates"":[-48.57611111111112,-22.69611111111111]}"
"SJRG","Rio Grande","Rio Grande","Brazil","BRA",-32.08166666666667,-52.163333333333334,"{""type"":""Point"",""coordinates"":[-52.163333333333334,-32.08166666666667]}"
"SJFQ","Faz. Quatrirmas","Itatinga","Brazil","BRA",-22.948888888888888,-48.665,"{""type"":""Point"",""coordinates"":[-48.665,-22.948888888888888]}"
"SWWA","Porangatu","Porangatu","Brazil","BRA",-13.404444444444445,-49.157222222222224,"{""type"":""Point"",""coordinates"":[-49.157222222222224,-13.404444444444445]}"
"SBCZ","Cruzeiro Do Sul-Intl","Cruzeiro Do Sul","Brazil","BRA",-7.599444444444444,-72.76944444444445,"{""type"":""Point"",""coordinates"":[-72.76944444444445,-7.599444444444444]}"
"SDJO","Sao Joaquin Da Barra Apt","Sao Joaquin Da Barra","Brazil","BRA",-20.593333333333334,-47.842222222222226,"{""type"":""Point"",""coordinates"":[-47.842222222222226,-20.593333333333334]}"
"SIQK","Rodrigues","Nova Odessa","Brazil","BRA",-22.781388888888888,-47.33416666666667,"{""type"":""Point"",""coordinates"":[-47.33416666666667,-22.781388888888888]}"
"SJGU","Araguatins","Araguatins","Brazil","BRA",-5.684444444444445,-48.11555555555556,"{""type"":""Point"",""coordinates"":[-48.11555555555556,-5.684444444444445]}"
"SNBC","Barra Do Corda","Barra Do Corda","Brazil","BRA",-5.500277777777778,-45.242222222222225,"{""type"":""Point"",""coordinates"":[-45.242222222222225,-5.500277777777778]}"
"SSJM","Faz. Julio Martins","Chapadao Do Sul","Brazil","BRA",-18.85138888888889,-52.49722222222222,"{""type"":""Point"",""coordinates"":[-52.49722222222222,-18.85138888888889]}"
"SIZQ","Faz. Real","Botucatu","Brazil","BRA",-23.03666666666667,-48.441111111111105,"{""type"":""Point"",""coordinates"":[-48.441111111111105,-23.03666666666667]}"
"SIMK","Franca","Franca","Brazil","BRA",-20.590277777777775,-47.3825,"{""type"":""Point"",""coordinates"":[-47.3825,-20.590277777777775]}"
"SNPC","Picos","Picos","Brazil","BRA",-7.065277777777777,-41.519444444444446,"{""type"":""Point"",""coordinates"":[-41.519444444444446,-7.065277777777777]}"
"SNIU","Ipiau","Ipiau","Brazil","BRA",-14.173333333333332,-39.68416666666666,"{""type"":""Point"",""coordinates"":[-39.68416666666666,-14.173333333333332]}"
"SIXE","Aeroclube de Eldorado do Sul","Eldorado Do Sul","Brazil","BRA",-30.05027777777778,-51.44361111111111,"{""type"":""Point"",""coordinates"":[-51.44361111111111,-30.05027777777778]}"
1999,"Abaete","Abaete","Brazil","BRA",-19.15722222222222,-48.49583333333334,"{""type"":""Point"",""coordinates"":[-48.49583333333334,-19.15722222222222]}"
"SIVU","Joao Monteiro","Vila Velha","Brazil","BRA",-20.422777777777778,-40.333333333333336,"{""type"":""Point"",""coordinates"":[-40.333333333333336,-20.422777777777778]}"
"SDCD","Catanduva","Catanduva","Brazil","BRA",-21.148611111111112,-48.988055555555555,"{""type"":""Point"",""coordinates"":[-48.988055555555555,-21.148611111111112]}"
"SIQJ","Morro do Chapeu II","Chapada Dos Guimaraes","Brazil","BRA",-14.957777777777777,-55.801111111111105,"{""type"":""Point"",""coordinates"":[-55.801111111111105,-14.957777777777777]}"
"SDKF","Juazeiro","Curaca","Brazil","BRA",-9.15611111111111,-40.09722222222222,"{""type"":""Point"",""coordinates"":[-40.09722222222222,-9.15611111111111]}"
"SBLP","Bom Jesus Da Lapa","Bom Jesus Da Lapa","Brazil","BRA",-13.261388888888888,-43.4075,"{""type"":""Point"",""coordinates"":[-43.4075,-13.261388888888888]}"
"SILC","Mun. Bom futuro","Lucas Do Rio Verde","Brazil","BRA",-13.037222222222223,-55.94222222222222,"{""type"":""Point"",""coordinates"":[-55.94222222222222,-13.037222222222223]}"
"SNTI","Obidos","Obidos","Brazil","BRA",-1.9002777777777777,-55.53388888888889,"{""type"":""Point"",""coordinates"":[-55.53388888888889,-1.9002777777777777]}"
"SBSV","Dep. L. E. Magalhaes Intl","Salvador","Brazil","BRA",-12.908611111111112,-38.322500000000005,"{""type"":""Point"",""coordinates"":[-38.322500000000005,-12.908611111111112]}"
"SJDS","Fabrica Fortaleza","Eusebio","Brazil","BRA",-3.927222222222222,-38.50055555555556,"{""type"":""Point"",""coordinates"":[-38.50055555555556,-3.927222222222222]}"
"SBUF","Paulo Afonso","Paulo Afonso","Brazil","BRA",-9.402222222222223,-38.25416666666667,"{""type"":""Point"",""coordinates"":[-38.25416666666667,-9.402222222222223]}"
"SSCI","Coxim","Coxim","Brazil","BRA",-18.481388888888887,-54.715833333333336,"{""type"":""Point"",""coordinates"":[-54.715833333333336,-18.481388888888887]}"
"SBGU","Tancredo Thomas de Faria","Guarapuava","Brazil","BRA",-25.388055555555557,-51.52444444444444,"{""type"":""Point"",""coordinates"":[-51.52444444444444,-25.388055555555557]}"
"SBFL","Hercilio Luz Intl","Florianopolis","Brazil","BRA",-27.67027777777778,-48.552499999999995,"{""type"":""Point"",""coordinates"":[-48.552499999999995,-27.67027777777778]}"
"SIAQ","Bom Futuro","Cuiaba","Brazil","BRA",-15.506388888888889,-56.098333333333336,"{""type"":""Point"",""coordinates"":[-56.098333333333336,-15.506388888888889]}"
"SBMT","Campo de Marte","Sao Paulo","Brazil","BRA",-23.506944444444443,-46.634166666666665,"{""type"":""Point"",""coordinates"":[-46.634166666666665,-23.506944444444443]}"
"SBAU","Aracatuba","Aracatuba","Brazil","BRA",-21.144166666666667,-50.42638888888889,"{""type"":""Point"",""coordinates"":[-50.42638888888889,-21.144166666666667]}"
"SDXF","Alto Paraiso","Alto Paraiso","Brazil","BRA",-14.118333333333334,-47.528055555555554,"{""type"":""Point"",""coordinates"":[-47.528055555555554,-14.118333333333334]}"
"SNPX","Pirapora","Pirapora","Brazil","BRA",-17.316944444444445,-44.86027777777778,"{""type"":""Point"",""coordinates"":[-44.86027777777778,-17.316944444444445]}"
"SBMD","Monte Dourado","Almeirim","Brazil","BRA",-0.8897222222222222,-52.602222222222224,"{""type"":""Point"",""coordinates"":[-52.602222222222224,-0.8897222222222222]}"
"SBGM","Guajara Mirim","Guajara Mirim","Brazil","BRA",-10.788333333333334,-65.28166666666667,"{""type"":""Point"",""coordinates"":[-65.28166666666667,-10.788333333333334]}"
"SWPI","Parintins","Parintins","Brazil","BRA",-2.6693527777777777,-56.77113611111111,"{""type"":""Point"",""coordinates"":[-56.77113611111111,-2.6693527777777777]}"
"SDVE","Vera Cruz","Vera Cruz","Brazil","BRA",-22.230277777777776,-49.81861111111112,"{""type"":""Point"",""coordinates"":[-49.81861111111112,-22.230277777777776]}"
"SDSS","Regional de Sorriso Adolino","Sorriso","Brazil","BRA",-12.472777777777777,-55.66888888888889,"{""type"":""Point"",""coordinates"":[-55.66888888888889,-12.472777777777777]}"
"SBMN","Ponta Pelada","Manaus","Brazil","BRA",-3.1455555555555557,-59.98444444444444,"{""type"":""Point"",""coordinates"":[-59.98444444444444,-3.1455555555555557]}"
"SBPK","Pelotas Intl","Pelotas","Brazil","BRA",-31.71611111111111,-52.33111111111111,"{""type"":""Point"",""coordinates"":[-52.33111111111111,-31.71611111111111]}"
"SBJR","Jacarepagua - Roberto Marinho","Rio De Janeiro","Brazil","BRA",-22.9875,-43.37,"{""type"":""Point"",""coordinates"":[-43.37,-22.9875]}"
"SBDO","Dourados","Dourados","Brazil","BRA",-22.200555555555553,-54.925555555555555,"{""type"":""Point"",""coordinates"":[-54.925555555555555,-22.200555555555553]}"
"SDRS","Resende","Resende","Brazil","BRA",-22.47861111111111,-44.48166666666667,"{""type"":""Point"",""coordinates"":[-44.48166666666667,-22.47861111111111]}"
"SNMJ","Maracas","Maracas","Brazil","BRA",-13.433333333333334,-40.43333333333333,"{""type"":""Point"",""coordinates"":[-40.43333333333333,-13.433333333333334]}"
"SSQC","Siqueira Campos","Siqueira Campos","Brazil","BRA",-23.674444444444447,-49.81888888888889,"{""type"":""Point"",""coordinates"":[-49.81888888888889,-23.674444444444447]}"
"SBST","Base Aerea De Santos","Guaruja","Brazil","BRA",-23.928055555555556,-46.29972222222222,"{""type"":""Point"",""coordinates"":[-46.29972222222222,-23.928055555555556]}"
"SNFE","Alfenas","Alfenas","Brazil","BRA",-21.43166666666667,-45.933055555555555,"{""type"":""Point"",""coordinates"":[-45.933055555555555,-21.43166666666667]}"
"SBLS","Lagoa Santa","Lagoa Santa","Brazil","BRA",-19.66111111111111,-43.897777777777776,"{""type"":""Point"",""coordinates"":[-43.897777777777776,-19.66111111111111]}"
"SBJV","Lauro Carneiro De Loyola","Joinville","Brazil","BRA",-26.223055555555554,-48.797777777777775,"{""type"":""Point"",""coordinates"":[-48.797777777777775,-26.223055555555554]}"
"SDAI","Americana","Americana","Brazil","BRA",-22.755277777777778,-47.268055555555556,"{""type"":""Point"",""coordinates"":[-47.268055555555556,-22.755277777777778]}"
"SDTF","Tatui","Tatui","Brazil","BRA",-23.331944444444446,-47.88,"{""type"":""Point"",""coordinates"":[-47.88,-23.331944444444446]}"
"SDPN","Penapolis","Penapolis","Brazil","BRA",-21.410277777777775,-50.03194444444444,"{""type"":""Point"",""coordinates"":[-50.03194444444444,-21.410277777777775]}"
"SNOB","Sobral","Sobral","Brazil","BRA",-3.6783333333333332,-40.33694444444445,"{""type"":""Point"",""coordinates"":[-40.33694444444445,-3.6783333333333332]}"
"SBGV","Governador Valadares","Governador Valadares","Brazil","BRA",-18.896944444444443,-41.986111111111114,"{""type"":""Point"",""coordinates"":[-41.986111111111114,-18.896944444444443]}"
"SNBO","Boquira","Boquira","Brazil","BRA",-12.790555555555555,-42.72888888888889,"{""type"":""Point"",""coordinates"":[-42.72888888888889,-12.790555555555555]}"
"SDVH","Faz. Vale Eldorado","Braganca Paulista","Brazil","BRA",-23.004166666666666,-46.63472222222222,"{""type"":""Point"",""coordinates"":[-46.63472222222222,-23.004166666666666]}"
"SDRR","Avare-Arandu","Avare","Brazil","BRA",-23.093055555555555,-48.98416666666667,"{""type"":""Point"",""coordinates"":[-48.98416666666667,-23.093055555555555]}"
"SSCT","Cianorte","Cianorte","Brazil","BRA",-23.691388888888888,-52.64222222222222,"{""type"":""Point"",""coordinates"":[-52.64222222222222,-23.691388888888888]}"
"SBCR","Corumba Intl","Corumba","Brazil","BRA",-19.011944444444445,-57.671388888888885,"{""type"":""Point"",""coordinates"":[-57.671388888888885,-19.011944444444445]}"
"SWJP","Bittencourt","Japura","Brazil","BRA",-1.4038888888888887,-69.42361111111111,"{""type"":""Point"",""coordinates"":[-69.42361111111111,-1.4038888888888887]}"
"SNSC","Sacramento","Sacramento","Brazil","BRA",-19.893055555555556,-47.42222222222222,"{""type"":""Point"",""coordinates"":[-47.42222222222222,-19.893055555555556]}"
"SDRK","Rio Claro","Rio Claro","Brazil","BRA",-22.43111111111111,-47.564166666666665,"{""type"":""Point"",""coordinates"":[-47.564166666666665,-22.43111111111111]}"
"SBAF","Campo Delio Jardim de Mattos","Rio De Janeiro","Brazil","BRA",-22.875555555555557,-43.38444444444444,"{""type"":""Point"",""coordinates"":[-43.38444444444444,-22.875555555555557]}"
"SSJR","Jaguarao","Jaguarao","Brazil","BRA",-32.54055555555556,-53.384166666666665,"{""type"":""Point"",""coordinates"":[-53.384166666666665,-32.54055555555556]}"
"SBPC","Pocos De Caldas","Pocos De Caldas","Brazil","BRA",-21.837777777777777,-46.566111111111105,"{""type"":""Point"",""coordinates"":[-46.566111111111105,-21.837777777777777]}"
"SBTT","Tabatinga Intl","Tabatinga","Brazil","BRA",-4.250555555555556,-69.93777777777778,"{""type"":""Point"",""coordinates"":[-69.93777777777778,-4.250555555555556]}"
"SNIO","Cipo","Cipo","Brazil","BRA",-11.125277777777779,-38.48694444444445,"{""type"":""Point"",""coordinates"":[-38.48694444444445,-11.125277777777779]}"
"SNGT","Gentio De Ouro","Gentio De Ouro","Brazil","BRA",-11.440277777777778,-42.525555555555556,"{""type"":""Point"",""coordinates"":[-42.525555555555556,-11.440277777777778]}"
"SWJV","Palmeiras Do Javari","Atalaia Do Norte","Brazil","BRA",-5.130277777777778,-72.80555555555556,"{""type"":""Point"",""coordinates"":[-72.80555555555556,-5.130277777777778]}"
"SBAE","BAURU-AREALVA","BAURU","Brazil","BRA",-22.157777777777778,-49.068333333333335,"{""type"":""Point"",""coordinates"":[-49.068333333333335,-22.157777777777778]}"
"SDOW","Ourilandia do Norte","Ourilandia do Norte","Brazil","BRA",-6.762222222222222,-51.05,"{""type"":""Point"",""coordinates"":[-51.05,-6.762222222222222]}"
"SBTD","Toledo","Toledo","Brazil","BRA",-24.685277777777777,-53.696666666666665,"{""type"":""Point"",""coordinates"":[-53.696666666666665,-24.685277777777777]}"
"SDOV","Mozarlandia","Mozarlandia","Brazil","BRA",-14.74472222222222,-50.57055555555556,"{""type"":""Point"",""coordinates"":[-50.57055555555556,-14.74472222222222]}"
"SDOI","Centro Nacional de Para-quedismo","Boituva","Brazil","BRA",-23.298055555555557,-47.69194444444444,"{""type"":""Point"",""coordinates"":[-47.69194444444444,-23.298055555555557]}"
"SNFU","Frutal","Frutal","Brazil","BRA",-20.004722222222224,-48.95888888888889,"{""type"":""Point"",""coordinates"":[-48.95888888888889,-20.004722222222224]}"
"SBSC","Santa Cruz","Rio De Janeiro","Brazil","BRA",-22.93277777777778,-43.71944444444445,"{""type"":""Point"",""coordinates"":[-43.71944444444445,-22.93277777777778]}"
"SIFV","Primo Bitti","Aracruz","Brazil","BRA",-19.82638888888889,-40.100833333333334,"{""type"":""Point"",""coordinates"":[-40.100833333333334,-19.82638888888889]}"
"SDMY","Fazenda de Cambuhy","Matao","Brazil","BRA",-21.63111111111111,-48.47833333333333,"{""type"":""Point"",""coordinates"":[-48.47833333333333,-21.63111111111111]}"
"SWDN","Dianopolis","Dianopolis","Brazil","BRA",-11.616944444444444,-46.85055555555556,"{""type"":""Point"",""coordinates"":[-46.85055555555556,-11.616944444444444]}"
"SILL","Faz. Tabaroa","Aguas de Santa Barbara","Brazil","BRA",-22.79416666666667,-49.27027777777778,"{""type"":""Point"",""coordinates"":[-49.27027777777778,-22.79416666666667]}"
"SBAQ","Araraquara","Araraquara","Brazil","BRA",-21.804347222222223,-48.140233333333335,"{""type"":""Point"",""coordinates"":[-48.140233333333335,-21.804347222222223]}"
"SSUM","Umuarama","Umuarama","Brazil","BRA",-23.799166666666668,-53.31388888888888,"{""type"":""Point"",""coordinates"":[-53.31388888888888,-23.799166666666668]}"
"SDLP","Lencois Paulista","Lencois Paulista","Brazil","BRA",-22.57777777777778,-48.77583333333333,"{""type"":""Point"",""coordinates"":[-48.77583333333333,-22.57777777777778]}"
"SBIT","Hidroeletrica","Itumbiara","Brazil","BRA",-18.445,-49.21416666666667,"{""type"":""Point"",""coordinates"":[-49.21416666666667,-18.445]}"
"SBUA","Sao Gabriel Da Cachoeira","Sao Gabriel Da Cachoeira","Brazil","BRA",-0.14805555555555555,-66.98583333333333,"{""type"":""Point"",""coordinates"":[-66.98583333333333,-0.14805555555555555]}"
"SDLL","Leme","Leme","Brazil","BRA",-22.22694444444444,-47.382222222222225,"{""type"":""Point"",""coordinates"":[-47.382222222222225,-22.22694444444444]}"
"SBCI","Brig Lysias A Rodrigues","Carolina","Brazil","BRA",-7.320555555555555,-47.45861111111111,"{""type"":""Point"",""coordinates"":[-47.45861111111111,-7.320555555555555]}"
"SDFD","Fernandopolis","Fernandopolis","Brazil","BRA",-20.276666666666667,-50.21388888888889,"{""type"":""Point"",""coordinates"":[-50.21388888888889,-20.276666666666667]}"
"SBAX","Araxa","Araxa","Brazil","BRA",-19.560555555555556,-46.96555555555556,"{""type"":""Point"",""coordinates"":[-46.96555555555556,-19.560555555555556]}"
"SICI","Domelia","Agudos","Brazil","BRA",-22.74527777777778,-49.29083333333333,"{""type"":""Point"",""coordinates"":[-49.29083333333333,-22.74527777777778]}"
"SDMC","Marica","Marica","Brazil","BRA",-22.918055555555558,-42.82888888888889,"{""type"":""Point"",""coordinates"":[-42.82888888888889,-22.918055555555558]}"
"SDFX","Casa Nova","Casa Nova","Brazil","BRA",-9.159722222222223,-40.93805555555555,"{""type"":""Point"",""coordinates"":[-40.93805555555555,-9.159722222222223]}"
"SNKN","Currais Novos","Currais Novos","Brazil","BRA",-6.280833333333334,-36.540277777777774,"{""type"":""Point"",""coordinates"":[-36.540277777777774,-6.280833333333334]}"
"SDIO","Aeroclube de Itapolis","Itapolis","Brazil","BRA",-21.599722222222223,-48.83277777777778,"{""type"":""Point"",""coordinates"":[-48.83277777777778,-21.599722222222223]}"
"SBCY","Marechal Rondon Intl","Cuiaba","Brazil","BRA",-15.65,-56.1175,"{""type"":""Point"",""coordinates"":[-56.1175,-15.65]}"
"SDIM","Itanhaem","Itanhaem","Brazil","BRA",-24.16472222222222,-46.785555555555554,"{""type"":""Point"",""coordinates"":[-46.785555555555554,-24.16472222222222]}"
"SWQI","Caracarai","Caracarai","Brazil","BRA",1.8441666666666667,-61.12138888888889,"{""type"":""Point"",""coordinates"":[-61.12138888888889,1.8441666666666667]}"
"SDIG","Ibitinga","Ibitinga","Brazil","BRA",-21.747222222222224,-48.85583333333334,"{""type"":""Point"",""coordinates"":[-48.85583333333334,-21.747222222222224]}"
"SNNU","Nanuque","Nanuque","Brazil","BRA",-17.81722222222222,-40.33388888888889,"{""type"":""Point"",""coordinates"":[-40.33388888888889,-17.81722222222222]}"
"SDET","Tiete","Tiete","Brazil","BRA",-23.104722222222225,-47.724444444444444,"{""type"":""Point"",""coordinates"":[-47.724444444444444,-23.104722222222225]}"
"SBIH","Itaituba","Itaituba","Brazil","BRA",-4.242222222222222,-56.00083333333333,"{""type"":""Point"",""coordinates"":[-56.00083333333333,-4.242222222222222]}"
"SDDR","Dracena","Dracena","Brazil","BRA",-21.460555555555555,-51.606944444444444,"{""type"":""Point"",""coordinates"":[-51.606944444444444,-21.460555555555555]}"
"SBVT","Eurico De Aguiar Salles","Vitoria","Brazil","BRA",-20.258055555555554,-40.28639722222222,"{""type"":""Point"",""coordinates"":[-40.28639722222222,-20.258055555555554]}"
"SDDN","Andradina","Andradina","Brazil","BRA",-20.925833333333333,-51.38388888888889,"{""type"":""Point"",""coordinates"":[-51.38388888888889,-20.925833333333333]}"
"SDCG","Senadora Eunice Michiles","Sao Paulo De Olivenca","Brazil","BRA",-3.4694444444444446,-68.95833333333334,"{""type"":""Point"",""coordinates"":[-68.95833333333334,-3.4694444444444446]}"
"SNJO","Aeroclub","Joao Pessoa","Brazil","BRA",-7.091944444444444,-34.8425,"{""type"":""Point"",""coordinates"":[-34.8425,-7.091944444444444]}"
"SNEB","Paragominas","Paragominas","Brazil","BRA",-3.019722222222222,-47.31638888888889,"{""type"":""Point"",""coordinates"":[-47.31638888888889,-3.019722222222222]}"
"SWPZ","Oricanga De Abreu","Posse","Brazil","BRA",-14.123888888888889,-46.341944444444444,"{""type"":""Point"",""coordinates"":[-46.341944444444444,-14.123888888888889]}"
"SDAM","Amarais","Campinas","Brazil","BRA",-22.859166666666667,-47.10805555555556,"{""type"":""Point"",""coordinates"":[-47.10805555555556,-22.859166666666667]}"
"SBTB","Trombetas","Oriximina","Brazil","BRA",-1.4844444444444445,-56.399166666666666,"{""type"":""Point"",""coordinates"":[-56.399166666666666,-1.4844444444444445]}"
"SDMO","Monte Alto","Monte Alto","Brazil","BRA",-21.261388888888888,-48.52972222222222,"{""type"":""Point"",""coordinates"":[-48.52972222222222,-21.261388888888888]}"
"SBPS","Porto Seguro","Porto Seguro","Brazil","BRA",-16.438055555555557,-39.08388888888889,"{""type"":""Point"",""coordinates"":[-39.08388888888889,-16.438055555555557]}"
"SDBA","Batatais","Batatais","Brazil","BRA",-20.87666666666667,-47.585,"{""type"":""Point"",""coordinates"":[-47.585,-20.87666666666667]}"
"SDAA","Araras","Araras","Brazil","BRA",-22.336944444444445,-47.358333333333334,"{""type"":""Point"",""coordinates"":[-47.358333333333334,-22.336944444444445]}"
"SSRG","Aeroporto Estadual de Registro","Registro","Brazil","BRA",-24.531666666666666,-47.84027777777778,"{""type"":""Point"",""coordinates"":[-47.84027777777778,-24.531666666666666]}"
"SDMH","Mirassol Apt","Mirassol","Brazil","BRA",-20.807222222222222,-49.486111111111114,"{""type"":""Point"",""coordinates"":[-49.486111111111114,-20.807222222222222]}"
"SBAA","Conceicao Do Araguaia","Conceicao Do Araguaia","Brazil","BRA",-8.348611111111111,-49.30305555555555,"{""type"":""Point"",""coordinates"":[-49.30305555555555,-8.348611111111111]}"
"SBCB","Cabo Frio","Cabo Frio","Brazil","BRA",-22.920833333333334,-42.07138888888889,"{""type"":""Point"",""coordinates"":[-42.07138888888889,-22.920833333333334]}"
"SNCS","Campos Sales","Campos Sales","Brazil","BRA",-7.049444444444444,-40.36416666666667,"{""type"":""Point"",""coordinates"":[-40.36416666666667,-7.049444444444444]}"
"SBUR","Mario De Almeida Franco","Uberaba","Brazil","BRA",-19.764444444444443,-47.96611111111111,"{""type"":""Point"",""coordinates"":[-47.96611111111111,-19.764444444444443]}"
"SBMK","Mario Ribeiro","Montes Claros","Brazil","BRA",-16.70611111111111,-43.82194444444445,"{""type"":""Point"",""coordinates"":[-43.82194444444445,-16.70611111111111]}"
"SNAE","Arcoverde","Arcoverde","Brazil","BRA",-8.417222222222222,-37.08361111111111,"{""type"":""Point"",""coordinates"":[-37.08361111111111,-8.417222222222222]}"
"SBZM","Regional Da Zona Da Mata","Goiana","Brazil","BRA",-21.513055555555557,-43.17305555555555,"{""type"":""Point"",""coordinates"":[-43.17305555555555,-21.513055555555557]}"
"SBAT","Alta Floresta","Alta Floresta","Brazil","BRA",-9.866388888888888,-56.105000000000004,"{""type"":""Point"",""coordinates"":[-56.105000000000004,-9.866388888888888]}"
"SBBH","Pampulha-Carlos Drummond De Andrade","Belo Horizonte","Brazil","BRA",-19.851944444444445,-43.95055555555556,"{""type"":""Point"",""coordinates"":[-43.95055555555556,-19.851944444444445]}"
"SBMA","Joao Correa Da Rocha","Maraba","Brazil","BRA",-5.3677777777777775,-49.138333333333335,"{""type"":""Point"",""coordinates"":[-49.138333333333335,-5.3677777777777775]}"
"SBVH","Vilhena","Vilhena","Brazil","BRA",-12.683055555555555,-60.09527777777778,"{""type"":""Point"",""coordinates"":[-60.09527777777778,-12.683055555555555]}"
"SBUL","Ten Cel Av Cesar Bombonato","Uberlandia","Brazil","BRA",-18.88361111111111,-48.22527777777778,"{""type"":""Point"",""coordinates"":[-48.22527777777778,-18.88361111111111]}"
"SSJA","Joacaba","Joacaba","Brazil","BRA",-27.172777777777778,-51.55166666666666,"{""type"":""Point"",""coordinates"":[-51.55166666666666,-27.172777777777778]}"
"SBIZ","Prefeito Renato Moreira","Imperatriz","Brazil","BRA",-5.530555555555556,-47.458333333333336,"{""type"":""Point"",""coordinates"":[-47.458333333333336,-5.530555555555556]}"
"SDED","Edra Aeronautica","Ipeuna","Brazil","BRA",-22.440277777777776,-47.70166666666667,"{""type"":""Point"",""coordinates"":[-47.70166666666667,-22.440277777777776]}"
"SDJA","Itirapina","Dr. Jose Augusto de Arruda Botelho","Brazil","BRA",-22.19472222222222,-47.86194444444445,"{""type"":""Point"",""coordinates"":[-47.86194444444445,-22.19472222222222]}"
"SSPT","Faz. Planalto Das Emas","Jaborandi","Brazil","BRA",-14.098333333333334,-46.14111111111111,"{""type"":""Point"",""coordinates"":[-46.14111111111111,-14.098333333333334]}"
"SNHS","Santa Magalhaes","Serra Talhada","Brazil","BRA",-8.061388888888889,-38.328611111111115,"{""type"":""Point"",""coordinates"":[-38.328611111111115,-8.061388888888889]}"
"SBTU","Tucurui","Tucurui","Brazil","BRA",-3.776944444444444,-49.719722222222224,"{""type"":""Point"",""coordinates"":[-49.719722222222224,-3.776944444444444]}"
"SNEE","Vacaria Novo","Vacaria","Brazil","BRA",-28.431944444444447,-51.022777777777776,"{""type"":""Point"",""coordinates"":[-51.022777777777776,-28.431944444444447]}"
"SBRD","Rondonopolis","Rondonopolis","Brazil","BRA",-16.585277777777776,-54.72416666666667,"{""type"":""Point"",""coordinates"":[-54.72416666666667,-16.585277777777776]}"
"SWTU","Faz. Tucunare","Sapezal","Brazil","BRA",-13.465277777777777,-58.86638888888889,"{""type"":""Point"",""coordinates"":[-58.86638888888889,-13.465277777777777]}"
"SNAR","Almenara","Almenara","Brazil","BRA",-16.183888888888887,-40.66722222222222,"{""type"":""Point"",""coordinates"":[-40.66722222222222,-16.183888888888887]}"
"SSPN","Paranaiba","Paranaiba","Brazil","BRA",-19.65111111111111,-51.19888888888889,"{""type"":""Point"",""coordinates"":[-51.19888888888889,-19.65111111111111]}"
"SNIC","Irece","Irece","Brazil","BRA",-11.34,-41.846944444444446,"{""type"":""Point"",""coordinates"":[-41.846944444444446,-11.34]}"
"SSRZ","Rosario Do Sul","Rosario Do Sul","Brazil","BRA",-30.2775,-54.92527777777777,"{""type"":""Point"",""coordinates"":[-54.92527777777777,-30.2775]}"
"SDBY","Bariri","Bariri","Brazil","BRA",-22.069166666666668,-48.70638888888889,"{""type"":""Point"",""coordinates"":[-48.70638888888889,-22.069166666666668]}"
"SBTS","Tirios","Obidos","Brazil","BRA",2.2241666666666666,-55.946666666666665,"{""type"":""Point"",""coordinates"":[-55.946666666666665,2.2241666666666666]}"
"SWTO","Paraiso Do Tocantins","Paraiso Do Tocantins","Brazil","BRA",-10.173888888888888,-48.93277777777777,"{""type"":""Point"",""coordinates"":[-48.93277777777777,-10.173888888888888]}"
"SBLJ","Lages","Lages","Brazil","BRA",-27.78222222222222,-50.281666666666666,"{""type"":""Point"",""coordinates"":[-50.281666666666666,-27.78222222222222]}"
"SBTR","Torres","Torres","Brazil","BRA",-29.41,-49.81027777777778,"{""type"":""Point"",""coordinates"":[-49.81027777777778,-29.41]}"
"SBBI","Bacacheri","Curitiba","Brazil","BRA",-25.403333333333332,-49.23361111111111,"{""type"":""Point"",""coordinates"":[-49.23361111111111,-25.403333333333332]}"
"SBTL","Telemaco Borba","Telemaco Borba","Brazil","BRA",-24.31638888888889,-50.65222222222222,"{""type"":""Point"",""coordinates"":[-50.65222222222222,-24.31638888888889]}"
"SSQP","Monte Santo","Monte Santo","Brazil","BRA",-10.478333333333333,-39.2875,"{""type"":""Point"",""coordinates"":[-39.2875,-10.478333333333333]}"
"SDLC","Lucelia","Lucelia","Brazil","BRA",-21.749444444444446,-51.01833333333333,"{""type"":""Point"",""coordinates"":[-51.01833333333333,-21.749444444444446]}"
"SBUG","Rubem Berta","Uruguaiana","Brazil","BRA",-29.783333333333335,-57.036944444444444,"{""type"":""Point"",""coordinates"":[-57.036944444444444,-29.783333333333335]}"
"SBTK","Tarauaca","Tarauaca","Brazil","BRA",-8.154722222222222,-70.78277777777778,"{""type"":""Point"",""coordinates"":[-70.78277777777778,-8.154722222222222]}"
"SSST","Santiago","Santiago","Brazil","BRA",-29.215,-54.842222222222226,"{""type"":""Point"",""coordinates"":[-54.842222222222226,-29.215]}"
"SNXB","Caxambu","Caxambu","Brazil","BRA",-21.9175,-44.96944444444445,"{""type"":""Point"",""coordinates"":[-44.96944444444445,-21.9175]}"
"SJVO","Aragarcas","Aragarcas","Brazil","BRA",-15.899166666666666,-52.24527777777778,"{""type"":""Point"",""coordinates"":[-52.24527777777778,-15.899166666666666]}"
"SWTP","Santa Izabel do Rio Negro","Santa Isabel Do Rio Negro","Brazil","BRA",-0.41694444444444445,-65.03388888888888,"{""type"":""Point"",""coordinates"":[-65.03388888888888,-0.41694444444444445]}"
"SNSG","Salgueiro","Salgueiro","Brazil","BRA",-8.046666666666667,-39.13388888888889,"{""type"":""Point"",""coordinates"":[-39.13388888888889,-8.046666666666667]}"
"SBME","Macae","Macae","Brazil","BRA",-22.342777777777776,-41.763888888888886,"{""type"":""Point"",""coordinates"":[-41.763888888888886,-22.342777777777776]}"
"SBNM","Santo Angelo","Santo Angelo","Brazil","BRA",-28.28222222222222,-54.16888888888889,"{""type"":""Point"",""coordinates"":[-54.16888888888889,-28.28222222222222]}"
"SWME","Mineiros","Mineiros","Brazil","BRA",-17.551944444444445,-52.55611111111111,"{""type"":""Point"",""coordinates"":[-52.55611111111111,-17.551944444444445]}"
"SBBG","Cmte Gustavo Kraemer","Bage","Brazil","BRA",-31.390833333333333,-54.109722222222224,"{""type"":""Point"",""coordinates"":[-54.109722222222224,-31.390833333333333]}"
"SNPD","Patos De Minas","Patos De Minas","Brazil","BRA",-18.672222222222224,-46.49138888888889,"{""type"":""Point"",""coordinates"":[-46.49138888888889,-18.672222222222224]}"
"SNJN","Januaria","Januaria","Brazil","BRA",-15.474722222222223,-44.38638888888889,"{""type"":""Point"",""coordinates"":[-44.38638888888889,-15.474722222222223]}"
"SBTE","Senador Petronio Portella","Teresina","Brazil","BRA",-5.060555555555555,-42.824444444444445,"{""type"":""Point"",""coordinates"":[-42.824444444444445,-5.060555555555555]}"
"SBFN","Fernando De Noronha","Fernando De Noronha","Brazil","BRA",-3.854722222222222,-32.42833333333333,"{""type"":""Point"",""coordinates"":[-32.42833333333333,-3.854722222222222]}"
"SBSM","Santa Maria","Santa Maria","Brazil","BRA",-29.710833333333333,-53.69222222222222,"{""type"":""Point"",""coordinates"":[-53.69222222222222,-29.710833333333333]}"
"SBRF","Guararapes - Gilberto Freyre,  Intl","Recife","Brazil","BRA",-8.12638888888889,-34.922777777777775,"{""type"":""Point"",""coordinates"":[-34.922777777777775,-8.12638888888889]}"
"SDUQ","Paraguacu Paulista","Paraguacu Paulista","Brazil","BRA",-22.426944444444445,-50.606944444444444,"{""type"":""Point"",""coordinates"":[-50.606944444444444,-22.426944444444445]}"
"SDTP","Tupa","Tupa","Brazil","BRA",-21.89,-50.505833333333335,"{""type"":""Point"",""coordinates"":[-50.505833333333335,-21.89]}"
"SBCN","Caldas Novas","Caldas Novas","Brazil","BRA",-17.72472222222222,-48.61,"{""type"":""Point"",""coordinates"":[-48.61,-17.72472222222222]}"
"SNEL","Belterra","Belterra","Brazil","BRA",-2.6669444444444443,-54.900555555555556,"{""type"":""Point"",""coordinates"":[-54.900555555555556,-2.6669444444444443]}"
"SBPV","Gov J Teixeira de Oliveira Intl","Porto Velho","Brazil","BRA",-8.71361111111111,-63.90277777777778,"{""type"":""Point"",""coordinates"":[-63.90277777777778,-8.71361111111111]}"
"SNEU","Euclides Da Cunha","Euclides Da Cunha","Brazil","BRA",-10.525555555555556,-39.03527777777778,"{""type"":""Point"",""coordinates"":[-39.03527777777778,-10.525555555555556]}"
"SBGL","Galeao-Antonio C Jobim Intl","Rio De Janeiro","Brazil","BRA",-22.810000000000002,-43.25055555555556,"{""type"":""Point"",""coordinates"":[-43.25055555555556,-22.810000000000002]}"
"SBPR","Carlos Prates","Belo Horizonte","Brazil","BRA",-19.909166666666664,-43.98916666666667,"{""type"":""Point"",""coordinates"":[-43.98916666666667,-19.909166666666664]}"
"SBCF","Tancredo Neves Intl","Belo Horizonte","Brazil","BRA",-19.624444444444446,-43.971944444444446,"{""type"":""Point"",""coordinates"":[-43.971944444444446,-19.624444444444446]}"
"SSAY","Sitio Pouso do Aviador","Campo Grande","Brazil","BRA",-20.491111111111113,-54.473055555555554,"{""type"":""Point"",""coordinates"":[-54.473055555555554,-20.491111111111113]}"
"SIMW","Faz. Retiro do Cervo I","Jaraguari","Brazil","BRA",-20.354444444444447,-53.967777777777776,"{""type"":""Point"",""coordinates"":[-53.967777777777776,-20.354444444444447]}"
"SDUB","Ubatuba","Ubatuba","Brazil","BRA",-23.441388888888888,-45.07611111111112,"{""type"":""Point"",""coordinates"":[-45.07611111111112,-23.441388888888888]}"
"SBPL","Sen Nilo Coelho","Petrolina","Brazil","BRA",-9.3675,-40.56361111111111,"{""type"":""Point"",""coordinates"":[-40.56361111111111,-9.3675]}"
"SWTY","Taguatinga","Taguatinga","Brazil","BRA",-12.43388888888889,-46.400555555555556,"{""type"":""Point"",""coordinates"":[-46.400555555555556,-12.43388888888889]}"
"SBRP","Leite Lopes","Ribeirao Preto","Brazil","BRA",-21.136388888888888,-47.776666666666664,"{""type"":""Point"",""coordinates"":[-47.776666666666664,-21.136388888888888]}"
"SBEK","Jacareacanga","Jacareacanga","Brazil","BRA",-6.235277777777778,-57.77583333333333,"{""type"":""Point"",""coordinates"":[-57.77583333333333,-6.235277777777778]}"
"SBSP","Congonhas","Sao Paulo","Brazil","BRA",-23.62611111111111,-46.656388888888884,"{""type"":""Point"",""coordinates"":[-46.656388888888884,-23.62611111111111]}"
1893,"Caratinga","Caratinga","Brazil","BRA",-19.72472222222222,-42.11055555555556,"{""type"":""Point"",""coordinates"":[-42.11055555555556,-19.72472222222222]}"
"SNDG","Sao Domingos Do Maranhao","Sao Domingos Do Maranhao","Brazil","BRA",-5.573611111111111,-44.431666666666665,"{""type"":""Point"",""coordinates"":[-44.431666666666665,-5.573611111111111]}"
"SWIQ","Minacu","Minacu","Brazil","BRA",-13.550555555555556,-48.20055555555556,"{""type"":""Point"",""coordinates"":[-48.20055555555556,-13.550555555555556]}"
"SBCC","Cachimbo","Novo Progresso","Brazil","BRA",-9.333333333333334,-54.96472222222223,"{""type"":""Point"",""coordinates"":[-54.96472222222223,-9.333333333333334]}"
"SNIN","Prainha","Prainha","Brazil","BRA",-1.8002777777777779,-53.48388888888889,"{""type"":""Point"",""coordinates"":[-53.48388888888889,-1.8002777777777779]}"
"SBKG","Presidente Joao Suassuna","Campina Grande","Brazil","BRA",-7.269166666666667,-35.894999999999996,"{""type"":""Point"",""coordinates"":[-35.894999999999996,-7.269166666666667]}"
"SBOI","Oiapoque","Oiapoque","Brazil","BRA",3.861388888888889,-51.79611111111111,"{""type"":""Point"",""coordinates"":[-51.79611111111111,3.861388888888889]}"
"SDJV","Sao Joao Da Boa municipal","Sao Joao Da Vista","Brazil","BRA",-22.01722222222222,-46.840833333333336,"{""type"":""Point"",""coordinates"":[-46.840833333333336,-22.01722222222222]}"
"SBPF","Lauro Kurtz","Passo Fundo","Brazil","BRA",-28.243333333333336,-52.32888888888889,"{""type"":""Point"",""coordinates"":[-52.32888888888889,-28.243333333333336]}"
"SBVG","Maj Brigadeiro Trompowsky","Varginha","Brazil","BRA",-21.58888888888889,-45.473333333333336,"{""type"":""Point"",""coordinates"":[-45.473333333333336,-21.58888888888889]}"
"SBPB","Prefeito Dr. Joao Silva Filho, Intl","Parnaiba","Brazil","BRA",-2.8930555555555557,-41.72972222222222,"{""type"":""Point"",""coordinates"":[-41.72972222222222,-2.8930555555555557]}"
"SDKK","Mococa","Mococa","Brazil","BRA",-21.48777777777778,-47.03444444444444,"{""type"":""Point"",""coordinates"":[-47.03444444444444,-21.48777777777778]}"
"SBSR","Sao Jose Do Rio Preto","Sao Jose Do Rio Preto","Brazil","BRA",-20.816111111111113,-49.40472222222222,"{""type"":""Point"",""coordinates"":[-49.40472222222222,-20.816111111111113]}"
"SBMR","Manoel Ribas","Manoel Ribas","Brazil","BRA",-24.528888888888886,-51.64722222222222,"{""type"":""Point"",""coordinates"":[-51.64722222222222,-24.528888888888886]}"
"SBNT","Augusto Severo","Natal","Brazil","BRA",-5.908333333333334,-35.24916666666667,"{""type"":""Point"",""coordinates"":[-35.24916666666667,-5.908333333333334]}"
"SBMY","Manicore","Manicore","Brazil","BRA",-5.816944444444444,-61.28388888888889,"{""type"":""Point"",""coordinates"":[-61.28388888888889,-5.816944444444444]}"
"SDSC","Francisco Pereira Lopes","Sao Carlos","Brazil","BRA",-21.875555555555557,-47.90333333333333,"{""type"":""Point"",""coordinates"":[-47.90333333333333,-21.875555555555557]}"
"SBMQ","Alberto Alcolumbre","Macapa","Brazil","BRA",0.050833333333333335,-51.07027777777778,"{""type"":""Point"",""coordinates"":[-51.07027777777778,0.050833333333333335]}"
"SJNX","Cosmos Aviacao Agricola","Chapadao Do Ceu","Brazil","BRA",-18.407777777777778,-52.63,"{""type"":""Point"",""coordinates"":[-52.63,-18.407777777777778]}"
"SNTR","Piritiba","Piritiba","Brazil","BRA",-11.740277777777777,-40.56777777777778,"{""type"":""Point"",""coordinates"":[-40.56777777777778,-11.740277777777777]}"
"SDEN","Costa Esmeralda","Porto Belo","Brazil","BRA",-27.16638888888889,-48.6225,"{""type"":""Point"",""coordinates"":[-48.6225,-27.16638888888889]}"
"SNVS","Breves","Breves","Brazil","BRA",-1.638611111111111,-50.44138888888889,"{""type"":""Point"",""coordinates"":[-50.44138888888889,-1.638611111111111]}"
"SBUY","Urucu","Coari","Brazil","BRA",-4.883055555555556,-65.35583333333332,"{""type"":""Point"",""coordinates"":[-65.35583333333332,-4.883055555555556]}"
"SBGW","Guaratingueta","Guaratingueta","Brazil","BRA",-22.791666666666668,-45.20444444444445,"{""type"":""Point"",""coordinates"":[-45.20444444444445,-22.791666666666668]}"
"SBTA","Base de Aviacao de Taubate","Taubate","Brazil","BRA",-23.03888888888889,-45.51611111111111,"{""type"":""Point"",""coordinates"":[-45.51611111111111,-23.03888888888889]}"
"SNAG","Araguari","Araguari","Brazil","BRA",-18.668055555555558,-48.19027777777777,"{""type"":""Point"",""coordinates"":[-48.19027777777777,-18.668055555555558]}"
"SBCO","Canoas","Porto Alegre","Brazil","BRA",-29.945555555555554,-51.14361111111111,"{""type"":""Point"",""coordinates"":[-51.14361111111111,-29.945555555555554]}"
1900,"Sao Joao Da Boa Vista","Sao Joao Da Boa Vista","Brazil","BRA",-22.01638888888889,-46.83916666666667,"{""type"":""Point"",""coordinates"":[-46.83916666666667,-22.01638888888889]}"
"SSNP","Nova Prata","Nova Prata","Brazil","BRA",-28.802500000000002,-51.60416666666667,"{""type"":""Point"",""coordinates"":[-51.60416666666667,-28.802500000000002]}"
"SBSJ","Prof Urbano Ernesto Stumpf, INTL","Sao Jose Dos Campos","Brazil","BRA",-23.228888888888886,-45.87111111111111,"{""type"":""Point"",""coordinates"":[-45.87111111111111,-23.228888888888886]}"
"SNTQ","Buritirama","Buritirama","Brazil","BRA",-10.724166666666667,-43.65472222222222,"{""type"":""Point"",""coordinates"":[-43.65472222222222,-10.724166666666667]}"
"SSKZ","Carazinho","Carazinho","Brazil","BRA",-28.32138888888889,-52.815555555555555,"{""type"":""Point"",""coordinates"":[-52.815555555555555,-28.32138888888889]}"
"SBFZ","Pinto Martins Intl","Fortaleza","Brazil","BRA",-3.7758333333333334,-38.532222222222224,"{""type"":""Point"",""coordinates"":[-38.532222222222224,-3.7758333333333334]}"
"SBRB","Placido de Castro","Rio Branco","Brazil","BRA",-9.86888888888889,-67.89805555555556,"{""type"":""Point"",""coordinates"":[-67.89805555555556,-9.86888888888889]}"
"SNBR","Barreiras","Barreiras","Brazil","BRA",-12.079166666666666,-45.00944444444445,"{""type"":""Point"",""coordinates"":[-45.00944444444445,-12.079166666666666]}"
"SNJW","Jaguara","Sacramento","Brazil","BRA",-20.041111111111114,-47.42222222222222,"{""type"":""Point"",""coordinates"":[-47.42222222222222,-20.041111111111114]}"
"SJCA","Mococa/Comandante Vittorio Bonomi","Sao Paulo","Brazil","BRA",-21.531666666666666,-47.04694444444444,"{""type"":""Point"",""coordinates"":[-47.04694444444444,-21.531666666666666]}"
"SBBZ","Umberto Modiano","Cabo Frio","Brazil","BRA",-22.766111111111112,-41.96555555555556,"{""type"":""Point"",""coordinates"":[-41.96555555555556,-22.766111111111112]}"
"SBLO","Governador Jose Richa","Londrina","Brazil","BRA",-23.330277777777777,-51.13666666666666,"{""type"":""Point"",""coordinates"":[-51.13666666666666,-23.330277777777777]}"
"SJCM","Catuleve","Aquiraz","Brazil","BRA",-3.9397222222222226,-38.37916666666667,"{""type"":""Point"",""coordinates"":[-38.37916666666667,-3.9397222222222226]}"
"SBBV","Atlas Brazil Cantanhede Intl","Boa Vista","Brazil","BRA",2.841388888888889,-60.69222222222222,"{""type"":""Point"",""coordinates"":[-60.69222222222222,2.841388888888889]}"
"SWHT","Humaita","Humaita","Brazil","BRA",-7.533611111111111,-63.050555555555555,"{""type"":""Point"",""coordinates"":[-63.050555555555555,-7.533611111111111]}"
"SBRJ","Santos Dumont","Rio De Janeiro","Brazil","BRA",-22.91,-43.16277777777778,"{""type"":""Point"",""coordinates"":[-43.16277777777778,-22.91]}"
"SBBU","Bauru","Bauru","Brazil","BRA",-22.34361111111111,-49.053888888888885,"{""type"":""Point"",""coordinates"":[-49.053888888888885,-22.34361111111111]}"
"SSBL","Blumenau","Blumenau","Brazil","BRA",-26.83277777777778,-49.093611111111116,"{""type"":""Point"",""coordinates"":[-49.093611111111116,-26.83277777777778]}"
"SDPW","Piracicaba","Piracicaba","Brazil","BRA",-22.710555555555555,-47.61944444444445,"{""type"":""Point"",""coordinates"":[-47.61944444444445,-22.710555555555555]}"
"SBCA","Cascavel","Cascavel","Brazil","BRA",-25.002222222222223,-53.50194444444445,"{""type"":""Point"",""coordinates"":[-53.50194444444445,-25.002222222222223]}"
"SWCW","Cavalcante","Cavalcante","Brazil","BRA",-13.766111111111112,-47.42861111111111,"{""type"":""Point"",""coordinates"":[-47.42861111111111,-13.766111111111112]}"
"SNGU","Gurupa","Gurupa","Brazil","BRA",-1.4169444444444446,-51.63388888888889,"{""type"":""Point"",""coordinates"":[-51.63388888888889,-1.4169444444444446]}"
"SDJL","Jales","Jales","Brazil","BRA",-20.291111111111114,-50.544444444444444,"{""type"":""Point"",""coordinates"":[-50.544444444444444,-20.291111111111114]}"
"SBJP","Presidente Castro Pinto Intl","Joao Pessoa","Brazil","BRA",-7.145833333333334,-34.95027777777778,"{""type"":""Point"",""coordinates"":[-34.95027777777778,-7.145833333333334]}"
"SBCJ","Carajas","Parauapebas","Brazil","BRA",-6.115277777777777,-50.00138888888889,"{""type"":""Point"",""coordinates"":[-50.00138888888889,-6.115277777777777]}"
"SDQQ","Companhia Agricola de Quata","Quata","Brazil","BRA",-22.285555555555558,-50.63944444444444,"{""type"":""Point"",""coordinates"":[-50.63944444444444,-22.285555555555558]}"
"SBML","Marilia","Marilia","Brazil","BRA",-22.195555555555554,-49.926944444444445,"{""type"":""Point"",""coordinates"":[-49.926944444444445,-22.195555555555554]}"
"SBJU","Orlando Bezerra De Menezes","Juazeiro Do Norte","Brazil","BRA",-7.218333333333334,-39.27166666666667,"{""type"":""Point"",""coordinates"":[-39.27166666666667,-7.218333333333334]}"
"SNUU","Uaua","Uaua","Brazil","BRA",-9.835,-39.49444444444445,"{""type"":""Point"",""coordinates"":[-39.49444444444445,-9.835]}"
"SDCA","Capao Bonito","Capao Bonito","Brazil","BRA",-24.0325,-48.358333333333334,"{""type"":""Point"",""coordinates"":[-48.358333333333334,-24.0325]}"
"SBJF","Francisco De Assis","Juiz De Fora","Brazil","BRA",-21.793055555555558,-43.385555555555555,"{""type"":""Point"",""coordinates"":[-43.385555555555555,-21.793055555555558]}"
"SBIC","Itacoatiara","Itacoatiara","Brazil","BRA",-3.126388888888889,-58.48166666666667,"{""type"":""Point"",""coordinates"":[-58.48166666666667,-3.126388888888889]}"
"SNAI","Alto Parnaiba","Alto Parnaiba","Brazil","BRA",-9.08361111111111,-45.95055555555556,"{""type"":""Point"",""coordinates"":[-45.95055555555556,-9.08361111111111]}"
"SDMJ","Mogi Mirim","Mogi Mirim","Brazil","BRA",-22.41,-46.905277777777776,"{""type"":""Point"",""coordinates"":[-46.905277777777776,-22.41]}"
"SWWK","Urucara","Urucara","Brazil","BRA",-2.53,-57.75611111111111,"{""type"":""Point"",""coordinates"":[-57.75611111111111,-2.53]}"
"SBJC","Brigadeiro Protasio de Oliveira","Belem","Brazil","BRA",-1.4149999999999998,-48.45888888888889,"{""type"":""Point"",""coordinates"":[-48.45888888888889,-1.4149999999999998]}"
"SBMG","Regl de Maringa - Silvio Name Junior","Maringa","Brazil","BRA",-23.479444444444443,-52.01222222222222,"{""type"":""Point"",""coordinates"":[-52.01222222222222,-23.479444444444443]}"
"SBJA","Regional Sul","Jaguaruna","Brazil","BRA",-28.67527777777778,-49.06027777777778,"{""type"":""Point"",""coordinates"":[-49.06027777777778,-28.67527777777778]}"
"SNVZ","Varzea Da Palma","Varzea Da Palma","Brazil","BRA",-17.645,-44.71055555555556,"{""type"":""Point"",""coordinates"":[-44.71055555555556,-17.645]}"
"SBIP","Usiminas","Ipatinga","Brazil","BRA",-19.470555555555553,-42.48777777777778,"{""type"":""Point"",""coordinates"":[-42.48777777777778,-19.470555555555553]}"
"SBCP","Bartolomeu Lisandro","Campos Dos Goytacazes","Brazil","BRA",-21.70111111111111,-41.30777777777777,"{""type"":""Point"",""coordinates"":[-41.30777777777777,-21.70111111111111]}"
"SNAT","Aracati","Aracati","Brazil","BRA",-4.568611111111111,-37.80472222222222,"{""type"":""Point"",""coordinates"":[-37.80472222222222,-4.568611111111111]}"
"SJAU","Araguacema","Araguacema","Brazil","BRA",-8.837777777777779,-49.55777777777777,"{""type"":""Point"",""coordinates"":[-49.55777777777777,-8.837777777777779]}"
"SJEH","Clemente Verillo","Ribeirao Bonito","Brazil","BRA",-22.101944444444445,-48.22694444444445,"{""type"":""Point"",""coordinates"":[-48.22694444444445,-22.101944444444445]}"
"SBIL","Ilheus/Bahia-Jorge Amado","Ilheus","Brazil","BRA",-14.814722222222223,-39.03361111111111,"{""type"":""Point"",""coordinates"":[-39.03361111111111,-14.814722222222223]}"
"SWTS","Tangara da Serra","Tangara da Serra","Brazil","BRA",-14.661944444444444,-57.443888888888885,"{""type"":""Point"",""coordinates"":[-57.443888888888885,-14.661944444444444]}"
"SDRC","Faz Santana","Rancharia","Brazil","BRA",-22.181944444444447,-50.865833333333335,"{""type"":""Point"",""coordinates"":[-50.865833333333335,-22.181944444444447]}"
"SWLY","Chacara Municipal","Andradina","Brazil","BRA",-20.88111111111111,-51.35638888888889,"{""type"":""Point"",""coordinates"":[-51.35638888888889,-20.88111111111111]}"
"SDOU","Ourinhos","Ourinhos","Brazil","BRA",-22.973611111111108,-49.91138888888889,"{""type"":""Point"",""coordinates"":[-49.91138888888889,-22.973611111111108]}"
"SBGR","Guarulhos-Gov. Andre Franco Montoro Intl.","Sao Paulo","Brazil","BRA",-23.435555555555556,-46.473055555555554,"{""type"":""Point"",""coordinates"":[-46.473055555555554,-23.435555555555556]}"
"SNIY","Ibimirim","Ibimirim","Brazil","BRA",-8.500277777777777,-37.66694444444444,"{""type"":""Point"",""coordinates"":[-37.66694444444444,-8.500277777777777]}"
"SBHT","Altamira","Altamira","Brazil","BRA",-3.2508333333333335,-52.25222222222222,"{""type"":""Point"",""coordinates"":[-52.25222222222222,-3.2508333333333335]}"
"SNCV","Campina Verde","Campina Verde","Brazil","BRA",-19.53805555555556,-49.495,"{""type"":""Point"",""coordinates"":[-49.495,-19.53805555555556]}"
"SBKP","Viracopos Intl","Campinas","Brazil","BRA",-23.006944444444443,-47.13444444444444,"{""type"":""Point"",""coordinates"":[-47.13444444444444,-23.006944444444443]}"
"SBSN","Maestro Wilson Fonseca Intl","Santarem","Brazil","BRA",-2.424722222222222,-54.78583333333333,"{""type"":""Point"",""coordinates"":[-54.78583333333333,-2.424722222222222]}"
"SBAN","Anapolis Air Base","Anapolis","Brazil","BRA",-16.238611111111112,-48.97222222222222,"{""type"":""Point"",""coordinates"":[-48.97222222222222,-16.238611111111112]}"
"SIVE","Faz. Royal","Itapetininga","Brazil","BRA",-23.506944444444443,-48,"{""type"":""Point"",""coordinates"":[-48,-23.506944444444443]}"
"SBCT","Afonso Pena Intl","Curitiba","Brazil","BRA",-25.531666666666666,-49.17611111111111,"{""type"":""Point"",""coordinates"":[-49.17611111111111,-25.531666666666666]}"
"SBBE","Val De Cans/Julio Cezar Ribeiro Intl","Belem","Brazil","BRA",-1.3847222222222222,-48.47888888888889,"{""type"":""Point"",""coordinates"":[-48.47888888888889,-1.3847222222222222]}"
"SDTB","Atibaia","Atibaia","Brazil","BRA",-23.12777777777778,-46.57472222222223,"{""type"":""Point"",""coordinates"":[-46.57472222222223,-23.12777777777778]}"
"SDUN","Itaperuna","Itaperuna","Brazil","BRA",-21.21944444444444,-41.87555555555556,"{""type"":""Point"",""coordinates"":[-41.87555555555556,-21.21944444444444]}"
"SDJC","Jaboticabal","Jaboticabal","Brazil","BRA",-21.229999999999997,-48.28472222222222,"{""type"":""Point"",""coordinates"":[-48.28472222222222,-21.229999999999997]}"
"SSGB","Guaratuba","Guaratuba","Brazil","BRA",-25.880555555555556,-48.61222222222222,"{""type"":""Point"",""coordinates"":[-48.61222222222222,-25.880555555555556]}"
"SBLE","Chapada Diamantina","Lencois","Brazil","BRA",-12.483333333333333,-41.27305555555555,"{""type"":""Point"",""coordinates"":[-41.27305555555555,-12.483333333333333]}"
"SNBW","Baiao","Baiao","Brazil","BRA",-2.8002777777777776,-49.66722222222222,"{""type"":""Point"",""coordinates"":[-49.66722222222222,-2.8002777777777776]}"
"SBEG","Eduardo Gomes Intl","Manaus","Brazil","BRA",-3.0388888888888888,-60.04611111111111,"{""type"":""Point"",""coordinates"":[-60.04611111111111,-3.0388888888888888]}"
"SDVG","Votuporanga","Votuporanga","Brazil","BRA",-20.45722222222222,-50.0025,"{""type"":""Point"",""coordinates"":[-50.0025,-20.45722222222222]}"
"SBPA","Salgado Filho Intl","Porto Alegre","Brazil","BRA",-29.99388888888889,-51.17111111111111,"{""type"":""Point"",""coordinates"":[-51.17111111111111,-29.99388888888889]}"
"SNUT","Utinga","Utinga","Brazil","BRA",-12.104166666666666,-41.07138888888889,"{""type"":""Point"",""coordinates"":[-41.07138888888889,-12.104166666666666]}"
"SSHN","Recanto Das Aguias","Iguaracu","Brazil","BRA",-23.245,-51.87555555555556,"{""type"":""Point"",""coordinates"":[-51.87555555555556,-23.245]}"
"SSAD","Faz. Ribeirao","Chapadao Do Sul","Brazil","BRA",-18.763055555555557,-52.92611111111111,"{""type"":""Point"",""coordinates"":[-52.92611111111111,-18.763055555555557]}"
"SNDV","Divinopolis","Divinopolis","Brazil","BRA",-20.181944444444447,-44.87,"{""type"":""Point"",""coordinates"":[-44.87,-20.181944444444447]}"
"SDAG","Angra Dos Reis","Angra Dos Reis","Brazil","BRA",-22.975277777777777,-44.30722222222222,"{""type"":""Point"",""coordinates"":[-44.30722222222222,-22.975277777777777]}"
"SSPG","Paranagua","Paranagua","Brazil","BRA",-25.540555555555557,-48.53111111111111,"{""type"":""Point"",""coordinates"":[-48.53111111111111,-25.540555555555557]}"
"SBFE","Joao Durval Carneiro","Feira de Santana","Brazil","BRA",-12.200555555555555,-38.906388888888884,"{""type"":""Point"",""coordinates"":[-38.906388888888884,-12.200555555555555]}"
"SBMS","Dix Sept Rosado","Mossoro","Brazil","BRA",-5.195833333333334,-37.361666666666665,"{""type"":""Point"",""coordinates"":[-37.361666666666665,-5.195833333333334]}"
"SNEO","Dezoito","Neropolis","Brazil","BRA",-16.441111111111113,-49.19972222222222,"{""type"":""Point"",""coordinates"":[-49.19972222222222,-16.441111111111113]}"
"SBPJ","Brigadeiro Lysias Rodrigues","Palmas","Brazil","BRA",-10.29,-48.35777777777778,"{""type"":""Point"",""coordinates"":[-48.35777777777778,-10.29]}"
"SWPL","Posto Leonardo Vilas Boas","Chapada Dos Guimaraes","Brazil","BRA",-12.198333333333334,-53.38166666666667,"{""type"":""Point"",""coordinates"":[-53.38166666666667,-12.198333333333334]}"
"SSHZ","Horizontina","Horizontina","Brazil","BRA",-27.63888888888889,-54.34111111111111,"{""type"":""Point"",""coordinates"":[-54.34111111111111,-27.63888888888889]}"
"SBDB","Bonito","Bonito","Brazil","BRA",-21.247222222222224,-56.4525,"{""type"":""Point"",""coordinates"":[-56.4525,-21.247222222222224]}"
"SBFI","Cataratas Intl","Foz Do Iguacu","Brazil","BRA",-25.60027777777778,-54.485,"{""type"":""Point"",""coordinates"":[-54.485,-25.60027777777778]}"
"SBSL","Marechal Cunha Machado Intl","Sao Luis","Brazil","BRA",-2.5869444444444447,-44.236111111111114,"{""type"":""Point"",""coordinates"":[-44.236111111111114,-2.5869444444444447]}"
"SBCM","Forquilhinha-Criciuma","Criciuma","Brazil","BRA",-28.724444444444444,-49.42111111111111,"{""type"":""Point"",""coordinates"":[-49.42111111111111,-28.724444444444444]}"
"SBCG","Campo Grande Intl","Campo Grande","Brazil","BRA",-20.46944444444444,-54.67027777777778,"{""type"":""Point"",""coordinates"":[-54.67027777777778,-20.46944444444444]}"
"SNPY","Sao Sebastiao Do Paraiso","Sao Sebastiao Do Paraiso","Brazil","BRA",-20.950277777777778,-46.98416666666667,"{""type"":""Point"",""coordinates"":[-46.98416666666667,-20.950277777777778]}"
"SBCH","Chapeco","Chapeco","Brazil","BRA",-27.133888888888887,-52.661944444444444,"{""type"":""Point"",""coordinates"":[-52.661944444444444,-27.133888888888887]}"
"SBCD","Cacador","Cacador","Brazil","BRA",-26.789722222222224,-50.939722222222215,"{""type"":""Point"",""coordinates"":[-50.939722222222215,-26.789722222222224]}"
"SDCO","Sorocaba","Sorocaba","Brazil","BRA",-23.483055555555556,-47.48638888888889,"{""type"":""Point"",""coordinates"":[-47.48638888888889,-23.483055555555556]}"
"SDBK","Botucatu","Botucatu","Brazil","BRA",-22.936666666666667,-48.4675,"{""type"":""Point"",""coordinates"":[-48.4675,-22.936666666666667]}"
"SBQV","Vitoria Da Conquista","Vitoria Da Conquista","Brazil","BRA",-14.86361111111111,-40.863055555555555,"{""type"":""Point"",""coordinates"":[-40.863055555555555,-14.86361111111111]}"
"SSPB","Pato Branco","Pato Branco","Brazil","BRA",-26.217777777777776,-52.69416666666666,"{""type"":""Point"",""coordinates"":[-52.69416666666666,-26.217777777777776]}"
"SBYS","Campo Fontenelle","Pirassununga","Brazil","BRA",-21.984444444444446,-47.344166666666666,"{""type"":""Point"",""coordinates"":[-47.344166666666666,-21.984444444444446]}"
"SBBQ","Maj Brig Doorgal Borges","Barbacena","Brazil","BRA",-21.264166666666668,-43.76277777777778,"{""type"":""Point"",""coordinates"":[-43.76277777777778,-21.264166666666668]}"
"SNGG","Gurgueia","Bom Jesus Do Gurgueia","Brazil","BRA",-9.059444444444445,-44.369166666666665,"{""type"":""Point"",""coordinates"":[-44.369166666666665,-9.059444444444445]}"
"SBBR","Pres Juscelino Kubitschek Intl","Brasilia","Brazil","BRA",-15.871111111111112,-47.91861111111111,"{""type"":""Point"",""coordinates"":[-47.91861111111111,-15.871111111111112]}"
"SSNG","Montenegro","Montenegro","Brazil","BRA",-29.71944444444444,-51.489444444444445,"{""type"":""Point"",""coordinates"":[-51.489444444444445,-29.71944444444444]}"
"SSLG","Sao Luis Gonzaga","Sao Luis Gonzaga","Brazil","BRA",-28.37638888888889,-55.0375,"{""type"":""Point"",""coordinates"":[-55.0375,-28.37638888888889]}"
"SJHH","Faz Poruina","Serranopolis","Brazil","BRA",-18.119722222222222,-52.217222222222226,"{""type"":""Point"",""coordinates"":[-52.217222222222226,-18.119722222222222]}"
"SWCQ","Costa Marques","Costa Marques","Brazil","BRA",-12.421666666666667,-64.25166666666667,"{""type"":""Point"",""coordinates"":[-64.25166666666667,-12.421666666666667]}"
"SNZK","Faz. Canada","Itacarambi","Brazil","BRA",-15.023333333333333,-44.04333333333333,"{""type"":""Point"",""coordinates"":[-44.04333333333333,-15.023333333333333]}"
"SNUI","Aracuai","Aracuai","Brazil","BRA",-16.851944444444445,-42.04611111111111,"{""type"":""Point"",""coordinates"":[-42.04611111111111,-16.851944444444445]}"
"SSGF","Faz. Formosa","Ribas Do Rio Pardo","Brazil","BRA",-20.197222222222223,-53.22361111111111,"{""type"":""Point"",""coordinates"":[-53.22361111111111,-20.197222222222223]}"
"SBBW","Barra Do Garcas","Barra Do Garcas","Brazil","BRA",-15.86061111111111,-52.389430555555556,"{""type"":""Point"",""coordinates"":[-52.389430555555556,-15.86061111111111]}"
"SNMA","Monte Alegre","Monte Alegre","Brazil","BRA",-1.9966666666666668,-54.07138888888889,"{""type"":""Point"",""coordinates"":[-54.07138888888889,-1.9966666666666668]}"
"SNKD","Conceicao Do Mato Dentro","Conceicao Do Mato Dentro","Brazil","BRA",-19.02027777777778,-43.43388888888889,"{""type"":""Point"",""coordinates"":[-43.43388888888889,-19.02027777777778]}"
"SBTG","Tres Lagoas","Tres Lagoas","Brazil","BRA",-20.75138888888889,-51.680277777777775,"{""type"":""Point"",""coordinates"":[-51.680277777777775,-20.75138888888889]}"
"SBAV","Usina Porto Primavera","Rosana","Brazil","BRA",-22.52611111111111,-52.971944444444446,"{""type"":""Point"",""coordinates"":[-52.971944444444446,-22.52611111111111]}"
"SDTK","Parati","Parati","Brazil","BRA",-23.224444444444444,-44.72027777777778,"{""type"":""Point"",""coordinates"":[-44.72027777777778,-23.224444444444444]}"
"SNTS","Patos","Patos","Brazil","BRA",-7.0377777777777775,-37.2575,"{""type"":""Point"",""coordinates"":[-37.2575,-7.0377777777777775]}"
"SNPI","Piata","Piata","Brazil","BRA",-13.000555555555556,-41.775,"{""type"":""Point"",""coordinates"":[-41.775,-13.000555555555556]}"
"SBES","Sao Pedro Da Aldeia","Sao Pedro Da Aldeia","Brazil","BRA",-22.816666666666666,-42.0925,"{""type"":""Point"",""coordinates"":[-42.0925,-22.816666666666666]}"
"SJUL","Faz. Rio Pardo","Iaras","Brazil","BRA",-22.87,-49.03583333333333,"{""type"":""Point"",""coordinates"":[-49.03583333333333,-22.87]}"
"SDBB","Bebedouro","Bebedouro","Brazil","BRA",-20.900277777777777,-48.47361111111111,"{""type"":""Point"",""coordinates"":[-48.47361111111111,-20.900277777777777]}"
"SBJI","Ji-Parana","Ji-Parana","Brazil","BRA",-10.870555555555557,-61.84666666666667,"{""type"":""Point"",""coordinates"":[-61.84666666666667,-10.870555555555557]}"