"airportCode","airportName","cityName","countryName","countryCode","latitude","longitude","geometry"
"CZWL","Wollaston Lake","Wollaston Lake","Canada","CAN",58.10696388888889,-103.17241944444444,"{""type"":""Point"",""coordinates"":[-103.17241944444444,58.10696388888889]}"
"CZST","Stewart","Stewart","Canada","CAN",55.93333333333333,-129.98333333333332,"{""type"":""Point"",""coordinates"":[-129.98333333333332,55.93333333333333]}"
"CZSJ","Sandy Lake","Sandy Lake","Canada","CAN",53.06418055555555,-93.34437777777778,"{""type"":""Point"",""coordinates"":[-93.34437777777778,53.06418055555555]}"
"CZRJ","Round Lake (Weagamow Lake)","Round Lake","Canada","CAN",52.94362222222222,-91.31261944444444,"{""type"":""Point"",""coordinates"":[-91.31261944444444,52.94362222222222]}"
"CZPC","Pincher Creek","Pincher Creek","Canada","CAN",49.520427777777776,-113.99709722222222,"{""type"":""Point"",""coordinates"":[-113.99709722222222,49.520427777777776]}"
"CZPB","Sachigo Lake","Sachigo Lake","Canada","CAN",53.890997222222225,-92.19626944444445,"{""type"":""Point"",""coordinates"":[-92.19626944444445,53.890997222222225]}"
"CZNL","Nelson","Nelson","Canada","CAN",49.494166666666665,-117.30055555555555,"{""type"":""Point"",""coordinates"":[-117.30055555555555,49.494166666666665]}"
"CZNG","Poplar River","Poplar River","Canada","CAN",52.99630277777778,-97.273625,"{""type"":""Point"",""coordinates"":[-97.273625,52.99630277777778]}"
"CZMT","Masset","Masset","Canada","CAN",54.02710555555556,-132.1250777777778,"{""type"":""Point"",""coordinates"":[-132.1250777777778,54.02710555555556]}"
"CZML","108 Mile","South Cariboo","Canada","CAN",51.7366,-121.33288888888889,"{""type"":""Point"",""coordinates"":[-121.33288888888889,51.7366]}"
"CZKE","Kashechewan","Kashechewan","Canada","CAN",52.28245,-81.67781666666667,"{""type"":""Point"",""coordinates"":[-81.67781666666667,52.28245]}"
"CZJN","Swan River","Swan River","Canada","CAN",52.121494444444444,-101.23443055555556,"{""type"":""Point"",""coordinates"":[-101.23443055555556,52.121494444444444]}"
"CZGI","Gods River","Gods River","Canada","CAN",54.83970277777778,-94.07869444444444,"{""type"":""Point"",""coordinates"":[-94.07869444444444,54.83970277777778]}"
"CZFN","Tulita","Tulita","Canada","CAN",64.90970833333334,-125.56938055555555,"{""type"":""Point"",""coordinates"":[-125.56938055555555,64.90970833333334]}"
"CZFG","Pukatawagan","Pukatawagan","Canada","CAN",55.74910555555556,-101.26624166666667,"{""type"":""Point"",""coordinates"":[-101.26624166666667,55.74910555555556]}"
"CZEM","Eastmain River","Eastmain River","Canada","CAN",52.226400000000005,-78.52258333333333,"{""type"":""Point"",""coordinates"":[-78.52258333333333,52.226400000000005]}"
"CZBF","Bathurst","Bathurst","Canada","CAN",47.62961111111111,-65.73895833333333,"{""type"":""Point"",""coordinates"":[-65.73895833333333,47.62961111111111]}"
"CZBB","Boundary Bay","Vancouver","Canada","CAN",49.07406666666667,-123.00757777777778,"{""type"":""Point"",""coordinates"":[-123.00757777777778,49.07406666666667]}"
"CZBA","Burlington Executive","Burlington","Canada","CAN",43.44146666666666,-79.85021944444443,"{""type"":""Point"",""coordinates"":[-79.85021944444443,43.44146666666666]}"
"CZAC","York Landing","York Landing","Canada","CAN",56.089536111111116,-96.08920277777777,"{""type"":""Point"",""coordinates"":[-96.08920277777777,56.089536111111116]}"
"CYZY","Mackenzie","Mackenzie","Canada","CAN",55.29946666666667,-123.13338611111112,"{""type"":""Point"",""coordinates"":[-123.13338611111112,55.29946666666667]}"
"CYZX","Greenwood","Greenwood","Canada","CAN",44.98444444444444,-64.91694444444445,"{""type"":""Point"",""coordinates"":[-64.91694444444445,44.98444444444444]}"
"CYZT","Port Hardy","Port Hardy","Canada","CAN",50.680594444444445,-127.36665833333333,"{""type"":""Point"",""coordinates"":[-127.36665833333333,50.680594444444445]}"
"CYZR","Sarnia (Hadfield)","Sarnia","Canada","CAN",42.99967777777778,-82.30936388888888,"{""type"":""Point"",""coordinates"":[-82.30936388888888,42.99967777777778]}"
"CYZH","Slave Lake","Slave Lake","Canada","CAN",55.292922222222224,-114.77720833333333,"{""type"":""Point"",""coordinates"":[-114.77720833333333,55.292922222222224]}"
"CYZG","Salluit","Salluit","Canada","CAN",62.179383333333334,-75.66728611111111,"{""type"":""Point"",""coordinates"":[-75.66728611111111,62.179383333333334]}"
"CYZE","Gore Bay-Manitoulin","Gore Bay","Canada","CAN",45.884233333333334,-82.56828055555555,"{""type"":""Point"",""coordinates"":[-82.56828055555555,45.884233333333334]}"
"CYYY","Mont-Joli","Mont-Joli","Canada","CAN",48.609025,-68.20758888888889,"{""type"":""Point"",""coordinates"":[-68.20758888888889,48.609025]}"
"CYYT","St John's Intl","St John's","Canada","CAN",47.61861944444445,-52.75241944444444,"{""type"":""Point"",""coordinates"":[-52.75241944444444,47.61861944444445]}"
"CYYR","Goose Bay","Goose Bay","Canada","CAN",53.31916666666667,-60.42583333333333,"{""type"":""Point"",""coordinates"":[-60.42583333333333,53.31916666666667]}"
"CYYQ","Churchill","Churchill","Canada","CAN",58.73905833333333,-94.06637222222221,"{""type"":""Point"",""coordinates"":[-94.06637222222221,58.73905833333333]}"
"CYYL","Lynn Lake","Lynn Lake","Canada","CAN",56.86438888888889,-101.07610555555556,"{""type"":""Point"",""coordinates"":[-101.07610555555556,56.86438888888889]}"
"CYYH","Taloyoak","Taloyoak","Canada","CAN",69.54665,-93.57702222222221,"{""type"":""Point"",""coordinates"":[-93.57702222222221,69.54665]}"
"CYYF","Penticton","Penticton","Canada","CAN",49.462575,-119.60227499999999,"{""type"":""Point"",""coordinates"":[-119.60227499999999,49.462575]}"
"CYYE","Ft Nelson","Ft Nelson","Canada","CAN",58.836400000000005,-122.596975,"{""type"":""Point"",""coordinates"":[-122.596975,58.836400000000005]}"
"CYYD","Smithers","Smithers","Canada","CAN",54.825361111111114,-127.18283333333333,"{""type"":""Point"",""coordinates"":[-127.18283333333333,54.825361111111114]}"
"CYYJ","Victoria Intl","Victoria","Canada","CAN",48.64716388888889,-123.42574166666667,"{""type"":""Point"",""coordinates"":[-123.42574166666667,48.64716388888889]}"
"CYXZ","Wawa","Wawa","Canada","CAN",47.966858333333334,-84.78631944444444,"{""type"":""Point"",""coordinates"":[-84.78631944444444,47.966858333333334]}"
"CYXY","Whitehorse Nielsen Intl","Whitehorse","Canada","CAN",60.70955,-135.06726944444443,"{""type"":""Point"",""coordinates"":[-135.06726944444443,60.70955]}"
"CYXX","Abbotsford","Abbotsford","Canada","CAN",49.02526666666667,-122.35995555555554,"{""type"":""Point"",""coordinates"":[-122.35995555555554,49.02526666666667]}"
"CYXT","Terrace","Terrace","Canada","CAN",54.46854722222223,-128.57838055555555,"{""type"":""Point"",""coordinates"":[-128.57838055555555,54.46854722222223]}"
"CZMD","Muskrat Dam","Muskrat Dam","Canada","CAN",53.44145833333333,-91.76286666666667,"{""type"":""Point"",""coordinates"":[-91.76286666666667,53.44145833333333]}"
"CYXS","Prince George","Prince George","Canada","CAN",53.88403611111111,-122.67755277777778,"{""type"":""Point"",""coordinates"":[-122.67755277777778,53.88403611111111]}"
"CYXP","Pangnirtung","Pangnirtung","Canada","CAN",66.14488055555556,-65.71352222222222,"{""type"":""Point"",""coordinates"":[-65.71352222222222,66.14488055555556]}"
"CYXN","Whale Cove","Whale Cove","Canada","CAN",62.24007777777778,-92.59793888888889,"{""type"":""Point"",""coordinates"":[-92.59793888888889,62.24007777777778]}"
"CYXL","Sioux Lookout","Sioux Lookout","Canada","CAN",50.11416666666667,-91.9055,"{""type"":""Point"",""coordinates"":[-91.9055,50.11416666666667]}"
"CYXK","Rimouski","Rimouski","Canada","CAN",48.477694444444445,-68.49634722222223,"{""type"":""Point"",""coordinates"":[-68.49634722222223,48.477694444444445]}"
"CYXJ","Ft St John","Ft St John","Canada","CAN",56.23837777777778,-120.74028611111112,"{""type"":""Point"",""coordinates"":[-120.74028611111112,56.23837777777778]}"
"CYXH","Medicine Hat","Medicine Hat","Canada","CAN",50.01889444444444,-110.72062777777778,"{""type"":""Point"",""coordinates"":[-110.72062777777778,50.01889444444444]}"
"CYWV","Wainwright","Wainwright","Canada","CAN",52.795833333333334,-110.85749999999999,"{""type"":""Point"",""coordinates"":[-110.85749999999999,52.795833333333334]}"
"CYWP","Webequie","Webequie","Canada","CAN",52.95938055555556,-87.37523333333333,"{""type"":""Point"",""coordinates"":[-87.37523333333333,52.95938055555556]}"
"CYWM","Athabasca","Athabasca","Canada","CAN",54.742925,-113.20520833333333,"{""type"":""Point"",""coordinates"":[-113.20520833333333,54.742925]}"
"CYWL","Williams Lake","Williams Lake","Canada","CAN",52.18340277777777,-122.05433611111111,"{""type"":""Point"",""coordinates"":[-122.05433611111111,52.18340277777777]}"
"CYWK","Wabush","Wabush","Canada","CAN",52.922725,-66.86467499999999,"{""type"":""Point"",""coordinates"":[-66.86467499999999,52.922725]}"
"CYWJ","Deline","Deline","Canada","CAN",65.211175,-123.43651944444444,"{""type"":""Point"",""coordinates"":[-123.43651944444444,65.211175]}"
"CYWE","Wekweeti","Wekweeti","Canada","CAN",64.19075555555555,-114.07680277777777,"{""type"":""Point"",""coordinates"":[-114.07680277777777,64.19075555555555]}"
"CYVZ","Deer Lake","Deer Lake","Canada","CAN",52.655858333333335,-94.06151666666666,"{""type"":""Point"",""coordinates"":[-94.06151666666666,52.655858333333335]}"
"CYVR","Vancouver Intl","Vancouver","Canada","CAN",49.194694444444444,-123.18396666666668,"{""type"":""Point"",""coordinates"":[-123.18396666666668,49.194694444444444]}"
"CYVQ","Norman Wells","Norman Wells","Canada","CAN",65.28132222222222,-126.79856944444444,"{""type"":""Point"",""coordinates"":[-126.79856944444444,65.28132222222222]}"
"CYVO","Val-d'Or","Val-d'Or","Canada","CAN",48.053286111111106,-77.78266111111111,"{""type"":""Point"",""coordinates"":[-77.78266111111111,48.053286111111106]}"
"CYVM","Qikiqtarjuaq","Qikiqtarjuaq","Canada","CAN",67.54655277777778,-64.03156111111112,"{""type"":""Point"",""coordinates"":[-64.03156111111112,67.54655277777778]}"
"CYVL","Tommy Kochon","Colville Lake","Canada","CAN",67.02117777777778,-126.12861944444444,"{""type"":""Point"",""coordinates"":[-126.12861944444444,67.02117777777778]}"
"CYVK","Vernon","Vernon","Canada","CAN",50.246175,-119.33086388888889,"{""type"":""Point"",""coordinates"":[-119.33086388888889,50.246175]}"
"CYVC","La Ronge","La Ronge","Canada","CAN",55.15133888888889,-105.26698611111111,"{""type"":""Point"",""coordinates"":[-105.26698611111111,55.15133888888889]}"
"CYVB","Bonaventure","Bonaventure","Canada","CAN",48.071086111111114,-65.46022222222223,"{""type"":""Point"",""coordinates"":[-65.46022222222223,48.071086111111114]}"
"CYUX","Hall Beach","Hall Beach","Canada","CAN",68.77576944444445,-81.24244444444444,"{""type"":""Point"",""coordinates"":[-81.24244444444444,68.77576944444445]}"
"CYUL","Pierre Elliott Trudeau Intl","Montreal","Canada","CAN",45.470463888888894,-73.74093055555555,"{""type"":""Point"",""coordinates"":[-73.74093055555555,45.470463888888894]}"
"CYUB","James Gruben","Tuktoyaktuk","Canada","CAN",69.43324166666667,-133.02634444444445,"{""type"":""Point"",""coordinates"":[-133.02634444444445,69.43324166666667]}"
"CYTS","Timmins (Power)","Timmins","Canada","CAN",48.570658333333334,-81.37663611111111,"{""type"":""Point"",""coordinates"":[-81.37663611111111,48.570658333333334]}"
"CYTF","Alma","Alma","Canada","CAN",48.508516666666665,-71.64133611111112,"{""type"":""Point"",""coordinates"":[-71.64133611111112,48.508516666666665]}"
"CYSZ","Ste-Anne-Des-Monts","Ste-Anne-Des-Monts","Canada","CAN",49.1201,-66.52891111111111,"{""type"":""Point"",""coordinates"":[-66.52891111111111,49.1201]}"
"CYSY","Sachs Harbour","Sachs Harbour","Canada","CAN",71.99365555555556,-125.24145555555556,"{""type"":""Point"",""coordinates"":[-125.24145555555556,71.99365555555556]}"
"CYSW","Elk Valley","Sparwood","Canada","CAN",49.833333333333336,-114.88333333333334,"{""type"":""Point"",""coordinates"":[-114.88333333333334,49.833333333333336]}"
"CYST","St Theresa Point","St Theresa Point","Canada","CAN",53.84549722222223,-94.85218333333333,"{""type"":""Point"",""coordinates"":[-94.85218333333333,53.84549722222223]}"
"CYSR","Nanisivik","Nanisivik","Canada","CAN",72.98222222222222,-84.61361111111111,"{""type"":""Point"",""coordinates"":[-84.61361111111111,72.98222222222222]}"
"CYSQ","Atlin","Atlin","Canada","CAN",59.576438888888894,-133.67136944444442,"{""type"":""Point"",""coordinates"":[-133.67136944444442,59.576438888888894]}"
"CYSP","Marathon","Marathon","Canada","CAN",48.757105555555555,-86.34584722222222,"{""type"":""Point"",""coordinates"":[-86.34584722222222,48.757105555555555]}"
"CYSK","Sanikiluaq","Sanikiluaq","Canada","CAN",56.536899999999996,-79.250125,"{""type"":""Point"",""coordinates"":[-79.250125,56.536899999999996]}"
"CYSJ","Saint John","Saint John","Canada","CAN",45.316158333333334,-65.89012222222223,"{""type"":""Point"",""coordinates"":[-65.89012222222223,45.316158333333334]}"
"CYSH","Montague","Smiths Falls","Canada","CAN",44.94571944444444,-75.940275,"{""type"":""Point"",""coordinates"":[-75.940275,44.94571944444444]}"
"CYSG","St Georges","St Georges","Canada","CAN",46.09635277777778,-70.71458055555556,"{""type"":""Point"",""coordinates"":[-70.71458055555556,46.09635277777778]}"
"CYSF","Stony Rapids","Stony Rapids","Canada","CAN",59.250366666666665,-105.8414111111111,"{""type"":""Point"",""coordinates"":[-105.8414111111111,59.250366666666665]}"
"CYSU","Summerside","Summerside","Canada","CAN",46.44051944444444,-63.83347777777778,"{""type"":""Point"",""coordinates"":[-63.83347777777778,46.44051944444444]}"
"CYSE","Squamish","Squamish","Canada","CAN",49.781666666666666,-123.16194444444444,"{""type"":""Point"",""coordinates"":[-123.16194444444444,49.781666666666666]}"
"CYSB","Sudbury","Sudbury","Canada","CAN",46.625547222222224,-80.79783333333333,"{""type"":""Point"",""coordinates"":[-80.79783333333333,46.625547222222224]}"
"CYRV","Revelstoke","Revelstoke","Canada","CAN",50.96234166666667,-118.18435277777778,"{""type"":""Point"",""coordinates"":[-118.18435277777778,50.96234166666667]}"
"CYRT","Rankin Inlet","Rankin Inlet","Canada","CAN",62.81066111111111,-92.1146111111111,"{""type"":""Point"",""coordinates"":[-92.1146111111111,62.81066111111111]}"
"CYRQ","Trois-Rivieres","Trois-Rivieres","Canada","CAN",46.351572222222224,-72.68045833333333,"{""type"":""Point"",""coordinates"":[-72.68045833333333,46.351572222222224]}"
"CYRP","Carp","Ottawa","Canada","CAN",45.32236666666667,-76.02220555555556,"{""type"":""Point"",""coordinates"":[-76.02220555555556,45.32236666666667]}"
"CZGR","Little Grand Rapids","Little Grand Rapids","Canada","CAN",52.04486111111111,-95.46619722222222,"{""type"":""Point"",""coordinates"":[-95.46619722222222,52.04486111111111]}"
"CYRO","Rockcliffe","Ottawa","Canada","CAN",45.46027777777778,-75.64611111111111,"{""type"":""Point"",""coordinates"":[-75.64611111111111,45.46027777777778]}"
"CYRL","Red Lake","Red Lake","Canada","CAN",51.06709166666667,-93.79304166666667,"{""type"":""Point"",""coordinates"":[-93.79304166666667,51.06709166666667]}"
"CYRJ","Roberval","Roberval","Canada","CAN",48.519891666666666,-72.26596666666667,"{""type"":""Point"",""coordinates"":[-72.26596666666667,48.519891666666666]}"
"CYTH","Thompson","Thompson","Canada","CAN",55.804630555555555,-97.86240833333333,"{""type"":""Point"",""coordinates"":[-97.86240833333333,55.804630555555555]}"
"CYRC","St-Honore","Chicoutimi","Canada","CAN",48.520697222222225,-71.05057222222221,"{""type"":""Point"",""coordinates"":[-71.05057222222221,48.520697222222225]}"
"CYRB","Resolute Bay","Resolute Bay","Canada","CAN",74.71690833333334,-94.96933888888888,"{""type"":""Point"",""coordinates"":[-94.96933888888888,74.71690833333334]}"
"CYRA","Rae Lakes","Gameti","Canada","CAN",64.11614999999999,-117.30975,"{""type"":""Point"",""coordinates"":[-117.30975,64.11614999999999]}"
"CZFM","Ft Mc Pherson","Ft Mc Pherson","Canada","CAN",67.40690000000001,-134.85975,"{""type"":""Point"",""coordinates"":[-134.85975,67.40690000000001]}"
"CYQZ","Quesnel","Quesnel","Canada","CAN",53.026075,-122.51036666666667,"{""type"":""Point"",""coordinates"":[-122.51036666666667,53.026075]}"
"CYQX","Gander Intl","Gander","Canada","CAN",48.93701944444444,-54.568136111111116,"{""type"":""Point"",""coordinates"":[-54.568136111111116,48.93701944444444]}"
"CYQV","Yorkton Mun","Yorkton","Canada","CAN",51.264722222222225,-102.46138888888889,"{""type"":""Point"",""coordinates"":[-102.46138888888889,51.264722222222225]}"
"CYQS","St Thomas Mun","St Thomas","Canada","CAN",42.769952777777775,-81.10961388888889,"{""type"":""Point"",""coordinates"":[-81.10961388888889,42.769952777777775]}"
"CZMN","Pikwitonei","Pikwitonei","Canada","CAN",55.58931944444445,-97.16360833333334,"{""type"":""Point"",""coordinates"":[-97.16360833333334,55.58931944444445]}"
"CYQR","Regina Intl","Regina","Canada","CAN",50.43219166666666,-104.66605277777778,"{""type"":""Point"",""coordinates"":[-104.66605277777778,50.43219166666666]}"
"CYQQ","Comox","Comox","Canada","CAN",49.71083333333333,-124.88666666666667,"{""type"":""Point"",""coordinates"":[-124.88666666666667,49.71083333333333]}"
"CYQL","Lethbridge","Lethbridge","Canada","CAN",49.630227777777776,-112.79969722222222,"{""type"":""Point"",""coordinates"":[-112.79969722222222,49.630227777777776]}"
"CYQK","Kenora","Kenora","Canada","CAN",49.78832777777777,-94.36311388888889,"{""type"":""Point"",""coordinates"":[-94.36311388888889,49.78832777777777]}"
"CYQH","Watson Lake","Watson Lake","Canada","CAN",60.11645,-128.82241666666667,"{""type"":""Point"",""coordinates"":[-128.82241666666667,60.11645]}"
"CYQG","Windsor","Windsor","Canada","CAN",42.275975,-82.9554,"{""type"":""Point"",""coordinates"":[-82.9554,42.275975]}"
"CYQD","The Pas","The Pas","Canada","CAN",53.97128333333333,-101.09104722222222,"{""type"":""Point"",""coordinates"":[-101.09104722222222,53.97128333333333]}"
"CYQB","Jean Lesage Intl","Quebec","Canada","CAN",46.79119444444444,-71.39331111111112,"{""type"":""Point"",""coordinates"":[-71.39331111111112,46.79119444444444]}"
"CYQA","Muskoka","Muskoka","Canada","CAN",44.975072222222224,-79.30376111111111,"{""type"":""Point"",""coordinates"":[-79.30376111111111,44.975072222222224]}"
"CYPU","Puntzi Mountain","Puntzi Mountain","Canada","CAN",52.112833333333334,-124.14476666666667,"{""type"":""Point"",""coordinates"":[-124.14476666666667,52.112833333333334]}"
"CYPS","Pemberton","Pemberton","Canada","CAN",50.302499999999995,-122.73777777777778,"{""type"":""Point"",""coordinates"":[-122.73777777777778,50.302499999999995]}"
"CYZF","Yellowknife","Yellowknife","Canada","CAN",62.463036111111116,-114.4404,"{""type"":""Point"",""coordinates"":[-114.4404,62.463036111111116]}"
"CYPO","Peawanuck","Peawanuck","Canada","CAN",54.987994444444446,-85.44342222222222,"{""type"":""Point"",""coordinates"":[-85.44342222222222,54.987994444444446]}"
"CYPN","Port Menier","Port Menier","Canada","CAN",49.83651666666667,-64.28861944444444,"{""type"":""Point"",""coordinates"":[-64.28861944444444,49.83651666666667]}"
"CYPK","Pitt Meadows","Pitt Meadows","Canada","CAN",49.21611388888889,-122.71290833333333,"{""type"":""Point"",""coordinates"":[-122.71290833333333,49.21611388888889]}"
"CYQT","Thunder Bay","Thunder Bay","Canada","CAN",48.37199444444445,-89.32170555555555,"{""type"":""Point"",""coordinates"":[-89.32170555555555,48.37199444444445]}"
"CYPE","Peace River","Peace River","Canada","CAN",56.227291666666666,-117.44841944444445,"{""type"":""Point"",""coordinates"":[-117.44841944444445,56.227291666666666]}"
"CYSN","Niagara District","St Catharines","Canada","CAN",43.191599999999994,-79.17115000000001,"{""type"":""Point"",""coordinates"":[-79.17115000000001,43.191599999999994]}"
"CYPC","Paulatuk","Paulatuk","Canada","CAN",69.36065833333333,-124.07570833333332,"{""type"":""Point"",""coordinates"":[-124.07570833333332,69.36065833333333]}"
"CYPA","Prince Albert (Glass Field)","Prince Albert","Canada","CAN",53.214577777777784,-105.67298055555555,"{""type"":""Point"",""coordinates"":[-105.67298055555555,53.214577777777784]}"
"CYOW","Macdonald-Cartier Intl","Ottawa","Canada","CAN",45.322500000000005,-75.66726944444444,"{""type"":""Point"",""coordinates"":[-75.66726944444444,45.322500000000005]}"
"CYOS","Billy Bishop Regl","Owen Sound","Canada","CAN",44.59047777777778,-80.83819444444444,"{""type"":""Point"",""coordinates"":[-80.83819444444444,44.59047777777778]}"
"CYOP","Rainbow Lake","Rainbow Lake","Canada","CAN",58.491372222222225,-119.40783333333334,"{""type"":""Point"",""coordinates"":[-119.40783333333334,58.491372222222225]}"
"CYOJ","High Level","High Level","Canada","CAN",58.62157777777778,-117.16466944444446,"{""type"":""Point"",""coordinates"":[-117.16466944444446,58.62157777777778]}"
"CYOH","Oxford House","Oxford House","Canada","CAN",54.933175,-95.27894166666667,"{""type"":""Point"",""coordinates"":[-95.27894166666667,54.933175]}"
"CYOA","Ekati","Ekati","Canada","CAN",64.69899722222223,-110.61460277777778,"{""type"":""Point"",""coordinates"":[-110.61460277777778,64.69899722222223]}"
"CYNR","Horizon","Fort MacKay","Canada","CAN",57.38155277777778,-111.7011138888889,"{""type"":""Point"",""coordinates"":[-111.7011138888889,57.38155277777778]}"
"CYWG","Richardson Intl","Winnipeg","Canada","CAN",49.91001111111111,-97.24009444444445,"{""type"":""Point"",""coordinates"":[-97.24009444444445,49.91001111111111]}"
"CYNN","Nejanilini Lake","Nejanilini Lake","Canada","CAN",59.485302777777775,-97.78006388888889,"{""type"":""Point"",""coordinates"":[-97.78006388888889,59.485302777777775]}"
"CYNL","Points North Landing","Points North Landing","Canada","CAN",58.27665833333333,-104.08260277777778,"{""type"":""Point"",""coordinates"":[-104.08260277777778,58.27665833333333]}"
"CYNJ","Langley Regl","Langley","Canada","CAN",49.100944444444444,-122.63073333333332,"{""type"":""Point"",""coordinates"":[-122.63073333333332,49.100944444444444]}"
"CYZU","Whitecourt","Whitecourt","Canada","CAN",54.14384722222222,-115.78676666666667,"{""type"":""Point"",""coordinates"":[-115.78676666666667,54.14384722222222]}"
"CYND","Gatineau","Ottawa","Canada","CAN",45.52169166666667,-75.56361111111111,"{""type"":""Point"",""coordinates"":[-75.56361111111111,45.52169166666667]}"
"CYMX","Montreal Intl (Mirabel)","Montreal","Canada","CAN",45.67978055555555,-74.03870833333333,"{""type"":""Point"",""coordinates"":[-74.03870833333333,45.67978055555555]}"
"CYMU","Umiujaq","Umiujaq","Canada","CAN",56.53612222222222,-76.51825,"{""type"":""Point"",""coordinates"":[-76.51825,56.53612222222222]}"
"CYMT","Chapais","Chibougamau","Canada","CAN",49.77186111111111,-74.52797222222222,"{""type"":""Point"",""coordinates"":[-74.52797222222222,49.77186111111111]}"
"CYMO","Moosonee","Moosonee","Canada","CAN",51.29203333333333,-80.60833333333333,"{""type"":""Point"",""coordinates"":[-80.60833333333333,51.29203333333333]}"
"CYMM","Ft McMurray","Ft McMurray","Canada","CAN",56.65319722222222,-111.22333055555556,"{""type"":""Point"",""coordinates"":[-111.22333055555556,56.65319722222222]}"
"CYML","Charlevoix","Charlevoix","Canada","CAN",47.59758888888889,-70.22385555555556,"{""type"":""Point"",""coordinates"":[-70.22385555555556,47.59758888888889]}"
"CYMH","Marys Harbour","Marys Harbour","Canada","CAN",52.302816666666665,-55.84784166666667,"{""type"":""Point"",""coordinates"":[-55.84784166666667,52.302816666666665]}"
"CYME","Matane","Matane","Canada","CAN",48.85628888888889,-67.45230000000001,"{""type"":""Point"",""coordinates"":[-67.45230000000001,48.85628888888889]}"
"CYMA","Mayo","Mayo","Canada","CAN",63.61673611111111,-135.8690138888889,"{""type"":""Point"",""coordinates"":[-135.8690138888889,63.61673611111111]}"
"CYLL","Lloydminster","Lloydminster","Canada","CAN",53.310583333333334,-110.07416111111111,"{""type"":""Point"",""coordinates"":[-110.07416111111111,53.310583333333334]}"
"CYLK","Lutselk'e","Lutselk'e","Canada","CAN",62.418194444444445,-110.68223888888889,"{""type"":""Point"",""coordinates"":[-110.68223888888889,62.418194444444445]}"
"CYLD","Chapleau","Chapleau","Canada","CAN",47.820175000000006,-83.34688888888888,"{""type"":""Point"",""coordinates"":[-83.34688888888888,47.820175000000006]}"
"CYLC","Kimmirut","Kimmirut","Canada","CAN",62.848061111111114,-69.87718888888888,"{""type"":""Point"",""coordinates"":[-69.87718888888888,62.848061111111114]}"
"CYLB","Lac La Biche","Lac La Biche","Canada","CAN",54.77041388888889,-112.03177777777778,"{""type"":""Point"",""coordinates"":[-112.03177777777778,54.77041388888889]}"
"CYLA","Aupaluk","Aupaluk","Canada","CAN",59.296730555555555,-69.59985277777777,"{""type"":""Point"",""coordinates"":[-69.59985277777777,59.296730555555555]}"
"CYKY","Kindersley Regl","Kindersley","Canada","CAN",51.515144444444445,-109.18055833333334,"{""type"":""Point"",""coordinates"":[-109.18055833333334,51.515144444444445]}"
"CYKQ","Waskaganish","Waskaganish","Canada","CAN",51.47332222222222,-78.75838888888889,"{""type"":""Point"",""coordinates"":[-78.75838888888889,51.47332222222222]}"
"CYKP","Ogoki Post","Ogoki Post","Canada","CAN",51.65869722222222,-85.90099444444445,"{""type"":""Point"",""coordinates"":[-85.90099444444445,51.65869722222222]}"
"CYKO","Akulivik","Akulivik","Canada","CAN",60.81869166666667,-78.14857777777779,"{""type"":""Point"",""coordinates"":[-78.14857777777779,60.81869166666667]}"
"CYKM","Kincardine","Kincardine","Canada","CAN",44.20140833333333,-81.60569166666666,"{""type"":""Point"",""coordinates"":[-81.60569166666666,44.20140833333333]}"
"CYKL","Schefferville","Schefferville","Canada","CAN",54.80517222222222,-66.80531666666667,"{""type"":""Point"",""coordinates"":[-66.80531666666667,54.80517222222222]}"
"CYKD","Freddie Carmichael","Aklavik","Canada","CAN",68.22330000000001,-135.00556944444443,"{""type"":""Point"",""coordinates"":[-135.00556944444443,68.22330000000001]}"
"CYKC","Collins Bay","Collins Bay","Canada","CAN",58.236177777777776,-103.6776138888889,"{""type"":""Point"",""coordinates"":[-103.6776138888889,58.236177777777776]}"
"CYJT","Stephenville","Stephenville","Canada","CAN",48.54145,-58.549908333333335,"{""type"":""Point"",""coordinates"":[-58.549908333333335,48.54145]}"
"CYJQ","Denny Island","Bella Bella","Canada","CAN",52.13972222222222,-128.06361111111113,"{""type"":""Point"",""coordinates"":[-128.06361111111113,52.13972222222222]}"
"CYJP","Ft Providence","Ft Providence","Canada","CAN",61.31907777777778,-117.60607777777777,"{""type"":""Point"",""coordinates"":[-117.60607777777777,61.31907777777778]}"
"CYJN","St-Jean","St-Jean","Canada","CAN",45.294374999999995,-73.28163888888889,"{""type"":""Point"",""coordinates"":[-73.28163888888889,45.294374999999995]}"
"CYJF","Ft Liard","Ft Liard","Canada","CAN",60.235475,-123.47000833333334,"{""type"":""Point"",""coordinates"":[-123.47000833333334,60.235475]}"
"CYIO","Pond Inlet","Pond Inlet","Canada","CAN",72.6895138888889,-77.96893055555556,"{""type"":""Point"",""coordinates"":[-77.96893055555556,72.6895138888889]}"
"CYIK","Ivujivik","Ivujivik","Canada","CAN",62.417341666666665,-77.92528055555556,"{""type"":""Point"",""coordinates"":[-77.92528055555556,62.417341666666665]}"
"CYIF","St-Augustin","St-Augustin","Canada","CAN",51.20991111111111,-58.65835,"{""type"":""Point"",""coordinates"":[-58.65835,51.20991111111111]}"
"CYHZ","Stanfield Intl","Halifax","Canada","CAN",44.87968055555556,-63.510191666666664,"{""type"":""Point"",""coordinates"":[-63.510191666666664,44.87968055555556]}"
"CYHY","Merlyn Carter","Hay River","Canada","CAN",60.83977777777778,-115.78279722222221,"{""type"":""Point"",""coordinates"":[-115.78279722222221,60.83977777777778]}"
"CYHS","Saugeen Mun","Hanover","Canada","CAN",44.15801111111111,-81.0632,"{""type"":""Point"",""coordinates"":[-81.0632,44.15801111111111]}"
"CYHR","Chevery","Chevery","Canada","CAN",50.46897222222223,-59.63667777777778,"{""type"":""Point"",""coordinates"":[-59.63667777777778,50.46897222222223]}"
"CYHO","Hopedale","Hopedale","Canada","CAN",55.4488,-60.22809166666667,"{""type"":""Point"",""coordinates"":[-60.22809166666667,55.4488]}"
"CYHM","Hamilton","Hamilton","Canada","CAN",43.173655555555555,-79.93507777777778,"{""type"":""Point"",""coordinates"":[-79.93507777777778,43.173655555555555]}"
"CYLH","Lansdowne House","Lansdowne House","Canada","CAN",52.19541666666667,-87.93407777777779,"{""type"":""Point"",""coordinates"":[-87.93407777777779,52.19541666666667]}"
"CYHK","Gjoa Haven","Gjoa Haven","Canada","CAN",68.635475,-95.85035555555555,"{""type"":""Point"",""coordinates"":[-95.85035555555555,68.635475]}"
"CYHF","Hearst Mun","Hearst","Canada","CAN",49.713950000000004,-83.68706388888889,"{""type"":""Point"",""coordinates"":[-83.68706388888889,49.713950000000004]}"
"CYHD","Dryden Regl","Dryden","Canada","CAN",49.83151111111111,-92.743675,"{""type"":""Point"",""coordinates"":[-92.743675,49.83151111111111]}"
"CYHA","Quaqtaq","Quaqtaq","Canada","CAN",61.04651666666666,-69.61765,"{""type"":""Point"",""coordinates"":[-69.61765,61.04651666666666]}"
"CYGZ","Grise Fiord","Grise Fiord","Canada","CAN",76.42585000000001,-82.90808333333334,"{""type"":""Point"",""coordinates"":[-82.90808333333334,76.42585000000001]}"
"CYXQ","Beaver Creek","Beaver Creek","Canada","CAN",62.410158333333335,-140.8687638888889,"{""type"":""Point"",""coordinates"":[-140.8687638888889,62.410158333333335]}"
"CYKJ","Key Lake","Key Lake","Canada","CAN",57.25633055555556,-105.61742222222222,"{""type"":""Point"",""coordinates"":[-105.61742222222222,57.25633055555556]}"
"CYGW","Kuujjuarapik","Kuujjuarapik","Canada","CAN",55.28202777777778,-77.76525277777777,"{""type"":""Point"",""coordinates"":[-77.76525277777777,55.28202777777778]}"
"CYGV","Havre St-Pierre","Havre St-Pierre","Canada","CAN",50.28194444444444,-63.611111111111114,"{""type"":""Point"",""coordinates"":[-63.611111111111114,50.28194444444444]}"
"CYGR","Iles-De-La-Madeleine","Iles-De-La-Madeleine","Canada","CAN",47.425066666666666,-61.77797777777778,"{""type"":""Point"",""coordinates"":[-61.77797777777778,47.425066666666666]}"
"CYGQ","Greenstone Regl","Geraldton","Canada","CAN",49.77868888888889,-86.93855277777779,"{""type"":""Point"",""coordinates"":[-86.93855277777779,49.77868888888889]}"
"CYQU","Grande Prairie","Grande Prairie","Canada","CAN",55.18190277777777,-118.8871888888889,"{""type"":""Point"",""coordinates"":[-118.8871888888889,55.18190277777777]}"
"CYGO","Gods Lake Narrows","Gods Lake Narrows","Canada","CAN",54.55838055555555,-94.49085555555556,"{""type"":""Point"",""coordinates"":[-94.49085555555556,54.55838055555555]}"
"CYGK","Kingston","Kingston","Canada","CAN",44.22586388888889,-76.59660555555556,"{""type"":""Point"",""coordinates"":[-76.59660555555556,44.22586388888889]}"
"CYZV","Sept-Iles","Sept-Iles","Canada","CAN",50.22338611111111,-66.26569166666667,"{""type"":""Point"",""coordinates"":[-66.26569166666667,50.22338611111111]}"
"CYGD","Goderich","Goderich","Canada","CAN",43.76786388888889,-81.71069444444444,"{""type"":""Point"",""coordinates"":[-81.71069444444444,43.76786388888889]}"
"CYGB","Gillies Bay","Texada","Canada","CAN",49.69416666666666,-124.51777777777778,"{""type"":""Point"",""coordinates"":[-124.51777777777778,49.69416666666666]}"
"CYYB","North Bay","North Bay","Canada","CAN",46.363825,-79.42423055555555,"{""type"":""Point"",""coordinates"":[-79.42423055555555,46.363825]}"
"CYFT","Makkovik","Makkovik","Canada","CAN",55.07725277777778,-59.187799999999996,"{""type"":""Point"",""coordinates"":[-59.187799999999996,55.07725277777778]}"
"CYFS","Ft Simpson","Ft Simpson","Canada","CAN",61.760152777777776,-121.23652777777778,"{""type"":""Point"",""coordinates"":[-121.23652777777778,61.760152777777776]}"
"CYFJ","Mont-Tremblant Intl Inc","La Macaza","Canada","CAN",46.409083333333335,-74.780075,"{""type"":""Point"",""coordinates"":[-74.780075,46.409083333333335]}"
"CYFC","Fredericton","Fredericton","Canada","CAN",45.868877777777776,-66.53721944444445,"{""type"":""Point"",""coordinates"":[-66.53721944444445,45.868877777777776]}"
"CYFB","Iqaluit","Iqaluit","Canada","CAN",63.756572222222225,-68.55611666666667,"{""type"":""Point"",""coordinates"":[-68.55611666666667,63.756572222222225]}"
"CYEY","Magny","Amos","Canada","CAN",48.56488611111111,-78.24905555555556,"{""type"":""Point"",""coordinates"":[-78.24905555555556,48.56488611111111]}"
"CYOC","Old Crow","Old Crow","Canada","CAN",67.57006666666666,-139.83988055555557,"{""type"":""Point"",""coordinates"":[-139.83988055555557,67.57006666666666]}"
"CYEV","Inuvik (Mike Zubko)","Inuvik","Canada","CAN",68.30377777777778,-133.483125,"{""type"":""Point"",""coordinates"":[-133.483125,68.30377777777778]}"
"CYEU","Eureka","Eureka","Canada","CAN",79.99454166666666,-85.81190277777777,"{""type"":""Point"",""coordinates"":[-85.81190277777777,79.99454166666666]}"
"CYES","Edmundston","Edmundston","Canada","CAN",47.49055555555556,-68.48194444444445,"{""type"":""Point"",""coordinates"":[-68.48194444444445,47.49055555555556]}"
"CYEK","Arviat","Arviat","Canada","CAN",61.093963888888894,-94.07159166666666,"{""type"":""Point"",""coordinates"":[-94.07159166666666,61.093963888888894]}"
"CYEE","Huronia","Midland","Canada","CAN",44.68483888888888,-79.92940277777778,"{""type"":""Point"",""coordinates"":[-79.92940277777778,44.68483888888888]}"
"CYED","Namao","Edmonton","Canada","CAN",53.66916666666666,-113.47555555555556,"{""type"":""Point"",""coordinates"":[-113.47555555555556,53.66916666666666]}"
"CYEA","Empress","Empress","Canada","CAN",50.93351666666666,-110.01350277777777,"{""type"":""Point"",""coordinates"":[-110.01350277777777,50.93351666666666]}"
"CYKG","Kangiqsujuaq (Wakeham Bay)","Kangiqsujuaq","Canada","CAN",61.588480555555556,-71.92939722222222,"{""type"":""Point"",""coordinates"":[-71.92939722222222,61.588480555555556]}"
"CYDP","Nain","Nain","Canada","CAN",56.55061666666666,-61.682249999999996,"{""type"":""Point"",""coordinates"":[-61.682249999999996,56.55061666666666]}"
"CYDN","Barker","Dauphin","Canada","CAN",51.10151944444445,-100.05326111111111,"{""type"":""Point"",""coordinates"":[-100.05326111111111,51.10151944444445]}"
"CYDM","Ross River","Ross River","Canada","CAN",61.9705,-132.42212777777777,"{""type"":""Point"",""coordinates"":[-132.42212777777777,61.9705]}"
"CYHE","Hope","Hope","Canada","CAN",49.36833333333333,-121.49805555555555,"{""type"":""Point"",""coordinates"":[-121.49805555555555,49.36833333333333]}"
"CYDB","Burwash","Burwash","Canada","CAN",61.37066111111111,-139.03994722222222,"{""type"":""Point"",""coordinates"":[-139.03994722222222,61.37066111111111]}"
"CYCZ","Fairmont Hot Springs","Fairmont Hot Springs","Canada","CAN",50.33016388888889,-115.87345277777777,"{""type"":""Point"",""coordinates"":[-115.87345277777777,50.33016388888889]}"
"CYUT","Naujaat","Naujaat","Canada","CAN",66.52066944444444,-86.22473333333333,"{""type"":""Point"",""coordinates"":[-86.22473333333333,66.52066944444444]}"
"CYSA","Stratford Mun","Stratford","Canada","CAN",43.415869444444446,-80.93407777777779,"{""type"":""Point"",""coordinates"":[-80.93407777777779,43.415869444444446]}"
"CYCY","Clyde River","Clyde River","Canada","CAN",70.48591388888889,-68.51693333333333,"{""type"":""Point"",""coordinates"":[-68.51693333333333,70.48591388888889]}"
"CYCW","Chilliwack","Chilliwack","Canada","CAN",49.15277777777778,-121.9388888888889,"{""type"":""Point"",""coordinates"":[-121.9388888888889,49.15277777777778]}"
"CYCT","Coronation","Coronation","Canada","CAN",52.075,-111.44527777777778,"{""type"":""Point"",""coordinates"":[-111.44527777777778,52.075]}"
"CYCR","Sinclair Meml","Cross Lake","Canada","CAN",54.61091666666667,-97.76019444444445,"{""type"":""Point"",""coordinates"":[-97.76019444444445,54.61091666666667]}"
"CYCQ","Chetwynd","Chetwynd","Canada","CAN",55.687213888888884,-121.62665,"{""type"":""Point"",""coordinates"":[-121.62665,55.687213888888884]}"
"CYCP","Blue River","Blue River","Canada","CAN",52.12475277777778,-119.292825,"{""type"":""Point"",""coordinates"":[-119.292825,52.12475277777778]}"
"CYCO","Kugluktuk","Kugluktuk","Canada","CAN",67.8167,-115.14390555555556,"{""type"":""Point"",""coordinates"":[-115.14390555555556,67.8167]}"
"CYCK","Chatham-Kent","Chatham-Kent","Canada","CAN",42.30623055555555,-82.08174722222222,"{""type"":""Point"",""coordinates"":[-82.08174722222222,42.30623055555555]}"
"CYPX","Puvirnituq","Puvirnituq","Canada","CAN",60.05211111111111,-77.28760555555556,"{""type"":""Point"",""coordinates"":[-77.28760555555556,60.05211111111111]}"
"CYCH","Miramichi","Miramichi","Canada","CAN",47.00579166666667,-65.45680555555556,"{""type"":""Point"",""coordinates"":[-65.45680555555556,47.00579166666667]}"
"CYZW","Teslin","Teslin","Canada","CAN",60.17307222222222,-132.74172222222222,"{""type"":""Point"",""coordinates"":[-132.74172222222222,60.17307222222222]}"
"CYCG","West Kootenay Regl","Castlegar","Canada","CAN",49.296225,-117.63250277777777,"{""type"":""Point"",""coordinates"":[-117.63250277777777,49.296225]}"
"CYCD","Nanaimo","Nanaimo","Canada","CAN",49.05454444444444,-123.87011944444444,"{""type"":""Point"",""coordinates"":[-123.87011944444444,49.05454444444444]}"
"CYQY","J A Douglas McCurdy","Sydney","Canada","CAN",46.161519444444444,-60.04804166666666,"{""type"":""Point"",""coordinates"":[-60.04804166666666,46.161519444444444]}"
"CYCB","Cambridge Bay","Cambridge Bay","Canada","CAN",69.10792222222221,-105.13711666666667,"{""type"":""Point"",""coordinates"":[-105.13711666666667,69.10792222222221]}"
"CYCA","Cartwright","Cartwright","Canada","CAN",53.682602777777774,-57.04196111111111,"{""type"":""Point"",""coordinates"":[-57.04196111111111,53.682602777777774]}"
"CYBW","Springbank","Calgary","Canada","CAN",51.105313888888894,-114.37148888888888,"{""type"":""Point"",""coordinates"":[-114.37148888888888,51.105313888888894]}"
"CYBV","Berens River","Berens River","Canada","CAN",52.35883333333334,-97.018,"{""type"":""Point"",""coordinates"":[-97.018,52.35883333333334]}"
"CYBT","Brochet","Brochet","Canada","CAN",57.889466666666664,-101.67918611111112,"{""type"":""Point"",""coordinates"":[-101.67918611111112,57.889466666666664]}"
"CYBR","Brandon Mun","Brandon","Canada","CAN",49.91,-99.95226944444445,"{""type"":""Point"",""coordinates"":[-99.95226944444445,49.91]}"
"CYBQ","Tadoule Lake","Tadoule Lake","Canada","CAN",58.70608055555556,-98.51221666666666,"{""type"":""Point"",""coordinates"":[-98.51221666666666,58.70608055555556]}"
"CYBK","Baker Lake","Baker Lake","Canada","CAN",64.2988111111111,-96.07765277777777,"{""type"":""Point"",""coordinates"":[-96.07765277777777,64.2988111111111]}"
"CYBF","Bonnyville","Bonnyville","Canada","CAN",54.304775,-110.74123055555556,"{""type"":""Point"",""coordinates"":[-110.74123055555556,54.304775]}"
"CYBD","Bella Coola","Bella Coola","Canada","CAN",52.3875,-126.59583333333333,"{""type"":""Point"",""coordinates"":[-126.59583333333333,52.3875]}"
"CYAC","Cat Lake","Cat Lake","Canada","CAN",51.727333333333334,-91.8245,"{""type"":""Point"",""coordinates"":[-91.8245,51.727333333333334]}"
"CYZP","Sandspit","Sandspit","Canada","CAN",53.25425555555555,-131.81380833333336,"{""type"":""Point"",""coordinates"":[-131.81380833333336,53.25425555555555]}"
"CWH5","Inglis Field","Wingham","Canada","CAN",43.896388888888886,-81.33638888888889,"{""type"":""Point"",""coordinates"":[-81.33638888888889,43.896388888888886]}"
"CWF3","Warren","Mount Brydges","Canada","CAN",42.93572777777777,-81.47738611111112,"{""type"":""Point"",""coordinates"":[-81.47738611111112,42.93572777777777]}"
"CYBB","Kugaaruk","Kugaaruk","Canada","CAN",68.53590555555556,-89.80539444444445,"{""type"":""Point"",""coordinates"":[-89.80539444444445,68.53590555555556]}"
"CYYN","Swift Current","Swift Current","Canada","CAN",50.292516666666664,-107.69088611111111,"{""type"":""Point"",""coordinates"":[-107.69088611111111,50.292516666666664]}"
"CYTL","Big Trout Lake","Big Trout Lake","Canada","CAN",53.817883333333334,-89.89691944444445,"{""type"":""Point"",""coordinates"":[-89.89691944444445,53.817883333333334]}"
"CFS6","Loon River","Loon River","Canada","CAN",57.14083333333333,-115.07388888888889,"{""type"":""Point"",""coordinates"":[-115.07388888888889,57.14083333333333]}"
"CWC1","White City","White City","Canada","CAN",50.439722222222215,-104.30638888888889,"{""type"":""Point"",""coordinates"":[-104.30638888888889,50.439722222222215]}"
"CYRI","Riviere-Du-Loup","Riviere-Du-Loup","Canada","CAN",47.76434722222222,-69.58437222222221,"{""type"":""Point"",""coordinates"":[-69.58437222222221,47.76434722222222]}"
"CVS2","Viking South","Viking","Canada","CAN",53.025555555555556,-111.94861111111112,"{""type"":""Point"",""coordinates"":[-111.94861111111112,53.025555555555556]}"
"CVM2","Victor Mine","Victor Mine","Canada","CAN",52.83284444444445,-83.92481944444445,"{""type"":""Point"",""coordinates"":[-83.92481944444445,52.83284444444445]}"
"CVL2","Kirkcaldy","Vulcan","Canada","CAN",50.331808333333335,-113.35789166666666,"{""type"":""Point"",""coordinates"":[-113.35789166666666,50.331808333333335]}"
"CYYU","Kapuskasing","Kapuskasing","Canada","CAN",49.411588888888886,-82.46845,"{""type"":""Point"",""coordinates"":[-82.46845,49.411588888888886]}"
"CTY5","Rougemont","Rougemont","Canada","CAN",45.43888888888888,-73.03710555555556,"{""type"":""Point"",""coordinates"":[-73.03710555555556,45.43888888888888]}"
"CPR5","Woodstock","Woodstock Ontario","Canada","CAN",43.109722222222224,-80.82083333333333,"{""type"":""Point"",""coordinates"":[-80.82083333333333,43.109722222222224]}"
"CTU5","La Tabatiere","La Tabatiere","Canada","CAN",50.83080555555556,-58.97551111111111,"{""type"":""Point"",""coordinates"":[-58.97551111111111,50.83080555555556]}"
"CJT3","Knee Lake","Knee Lake","Canada","CAN",54.915277777777774,-94.79805555555555,"{""type"":""Point"",""coordinates"":[-94.79805555555555,54.915277777777774]}"
"CTS4","St-Simon-De-Bagot","St-Simon-De-Bagot","Canada","CAN",45.68111111111111,-72.82833333333333,"{""type"":""Point"",""coordinates"":[-72.82833333333333,45.68111111111111]}"
"CZUM","Churchill Falls","Churchill Falls","Canada","CAN",53.56262777777778,-64.1059361111111,"{""type"":""Point"",""coordinates"":[-64.1059361111111,53.56262777777778]}"
"CZEE","Kelsey","Kelsey","Canada","CAN",56.03679444444444,-96.50615833333333,"{""type"":""Point"",""coordinates"":[-96.50615833333333,56.03679444444444]}"
"CPN5","Listowel","Listowel","Canada","CAN",43.74277777777778,-80.99138888888889,"{""type"":""Point"",""coordinates"":[-80.99138888888889,43.74277777777778]}"
"CJW5","Russell","Russell","Canada","CAN",50.76405555555556,-101.29406666666667,"{""type"":""Point"",""coordinates"":[-101.29406666666667,50.76405555555556]}"
"CTR6","Marcotte","St-Basile","Canada","CAN",46.78361111111111,-71.82638888888889,"{""type"":""Point"",""coordinates"":[-71.82638888888889,46.78361111111111]}"
"CFX5","Renard","Renard","Canada","CAN",52.730625,-72.22096666666667,"{""type"":""Point"",""coordinates"":[-72.22096666666667,52.730625]}"
"CYAM","Sault Ste Marie","Sault Ste Marie","Canada","CAN",46.48506944444445,-84.50955,"{""type"":""Point"",""coordinates"":[-84.50955,46.48506944444445]}"
"CJU4","Humboldt","Humboldt","Canada","CAN",52.17658333333333,-105.13365555555556,"{""type"":""Point"",""coordinates"":[-105.13365555555556,52.17658333333333]}"
"CTK2","Senneterre","Senneterre","Canada","CAN",48.333333333333336,-77.18333333333334,"{""type"":""Point"",""coordinates"":[-77.18333333333334,48.333333333333336]}"
"CTH7","Riviere aux Saumons","Riviere aux Saumons","Canada","CAN",49.40148611111111,-62.29535555555555,"{""type"":""Point"",""coordinates"":[-62.29535555555555,49.40148611111111]}"
"CTH3","Les Bergeronnes","Les Bergeronnes","Canada","CAN",48.23222222222223,-69.54277777777777,"{""type"":""Point"",""coordinates"":[-69.54277777777777,48.23222222222223]}"
"CJR3","Grace Lake","The Pas","Canada","CAN",53.82646944444445,-101.20533333333334,"{""type"":""Point"",""coordinates"":[-101.20533333333334,53.82646944444445]}"
"CTA6","Bracebridge (Tinks)","Bracebridge","Canada","CAN",45.006483333333335,-79.41334444444445,"{""type"":""Point"",""coordinates"":[-79.41334444444445,45.006483333333335]}"
"CYPR","Prince Rupert","Prince Rupert","Canada","CAN",54.285891666666664,-130.44467777777777,"{""type"":""Point"",""coordinates"":[-130.44467777777777,54.285891666666664]}"
"CTA3","ILE AUX COUDRES","ILE AUX COUDRES","Canada","CAN",47.38944444444444,-70.38444444444445,"{""type"":""Point"",""coordinates"":[-70.38444444444445,47.38944444444444]}"
"CSZ3","St-Jovite","Mont-Tremblant","Canada","CAN",46.15416666666667,-74.58361111111111,"{""type"":""Point"",""coordinates"":[-74.58361111111111,46.15416666666667]}"
"CJC6","Hafford","Hafford","Canada","CAN",52.73222222222223,-107.37416666666665,"{""type"":""Point"",""coordinates"":[-107.37416666666665,52.73222222222223]}"
"CSY4","St Donat","St Donat","Canada","CAN",46.30583333333333,-74.18138888888889,"{""type"":""Point"",""coordinates"":[-74.18138888888889,46.30583333333333]}"
"CSY3","Sorel","Sorel","Canada","CAN",45.98027777777778,-73.04222222222222,"{""type"":""Point"",""coordinates"":[-73.04222222222222,45.98027777777778]}"
"CSX7","Exeter","Sexsmith","Canada","CAN",43.37722222222222,-81.50416666666666,"{""type"":""Point"",""coordinates"":[-81.50416666666666,43.37722222222222]}"
"CTU2","Fontanges","Fontanges","Canada","CAN",54.55387777777778,-71.17327777777778,"{""type"":""Point"",""coordinates"":[-71.17327777777778,54.55387777777778]}"
"CNA9","Tomvale","Plevna","Canada","CAN",44.91611111111111,-76.93583333333333,"{""type"":""Point"",""coordinates"":[-76.93583333333333,44.91611111111111]}"
"CSN3","St-Jerome","St-Jerome","Canada","CAN",45.780277777777776,-74.06194444444444,"{""type"":""Point"",""coordinates"":[-74.06194444444444,45.780277777777776]}"
"CSX5","Grant","St-Mathias","Canada","CAN",45.471944444444446,-73.19944444444445,"{""type"":""Point"",""coordinates"":[-73.19944444444445,45.471944444444446]}"
"CGB3","Greenbush","Picton","Canada","CAN",44.001125,-77.07345833333333,"{""type"":""Point"",""coordinates"":[-77.07345833333333,44.001125]}"
"CSW5","Bell","Montreal","Canada","CAN",45.684,-73.9315,"{""type"":""Point"",""coordinates"":[-73.9315,45.684]}"
"CFT3","Finlayson Lake","Finlayson Lake","Canada","CAN",61.69138888888889,-130.7738888888889,"{""type"":""Point"",""coordinates"":[-130.7738888888889,61.69138888888889]}"
"CSU5","Weymontachie","Weymontachie","Canada","CAN",47.93694444444444,-73.81722222222221,"{""type"":""Point"",""coordinates"":[-73.81722222222221,47.93694444444444]}"
"CYGL","La Grande Riviere","La Grande Riviere","Canada","CAN",53.62538611111111,-77.70405555555556,"{""type"":""Point"",""coordinates"":[-77.70405555555556,53.62538611111111]}"
"CCP4","Port Hope Simpson","Port Hope Simpson","Canada","CAN",52.52806944444444,-56.28519722222222,"{""type"":""Point"",""coordinates"":[-56.28519722222222,52.52806944444444]}"
"CFP5","Glendon","Glendon","Canada","CAN",54.270833333333336,-111.06666666666666,"{""type"":""Point"",""coordinates"":[-111.06666666666666,54.270833333333336]}"
"CSU2","Chisasibi","Chisasibi","Canada","CAN",53.805702777777775,-78.91698055555555,"{""type"":""Point"",""coordinates"":[-78.91698055555555,53.805702777777775]}"
"CSR3","Victoriaville","Victoriaville","Canada","CAN",46.112494444444444,-71.92948611111112,"{""type"":""Point"",""coordinates"":[-71.92948611111112,46.112494444444444]}"
"CYCN","Cochrane","Cochrane","Canada","CAN",49.106719444444444,-81.01524722222223,"{""type"":""Point"",""coordinates"":[-81.01524722222223,49.106719444444444]}"
"CYAG","Fort Frances Mun","Fort Frances","Canada","CAN",48.65438888888889,-93.44057777777778,"{""type"":""Point"",""coordinates"":[-93.44057777777778,48.65438888888889]}"
"CSQ2","Skwlax","Shushwap","Canada","CAN",50.878925,-119.59038333333334,"{""type"":""Point"",""coordinates"":[-119.59038333333334,50.878925]}"
"CSK5","Paquet","St-Raymond","Canada","CAN",46.894999999999996,-71.78583333333333,"{""type"":""Point"",""coordinates"":[-71.78583333333333,46.894999999999996]}"
"CSK4","Mansonville","Mansonville","Canada","CAN",45.02638888888889,-72.40194444444445,"{""type"":""Point"",""coordinates"":[-72.40194444444445,45.02638888888889]}"
"CVL3","Varty Lake","Camden East","Canada","CAN",44.408963888888884,-76.80529722222222,"{""type"":""Point"",""coordinates"":[-76.80529722222222,44.408963888888884]}"
"CSJ2","Kanawata Aeroparc","Kanawata","Canada","CAN",47.594722222222224,-74.13361111111112,"{""type"":""Point"",""coordinates"":[-74.13361111111112,47.594722222222224]}"
"CYIV","Island Lake","Island Lake","Canada","CAN",53.85712222222222,-94.65366944444445,"{""type"":""Point"",""coordinates"":[-94.65366944444445,53.85712222222222]}"
"CCN2","Grand Manan","Grand Manan","Canada","CAN",44.713413888888894,-66.79682777777778,"{""type"":""Point"",""coordinates"":[-66.79682777777778,44.713413888888894]}"
"CSH4","Lebel-Sur-Quevillon","Lebel-Sur-Quevillon","Canada","CAN",49.03021388888889,-77.01709722222222,"{""type"":""Point"",""coordinates"":[-77.01709722222222,49.03021388888889]}"
"CPV2","Castlewood","Orangeville","Canada","CAN",43.95861111111111,-80.155,"{""type"":""Point"",""coordinates"":[-80.155,43.95861111111111]}"
"CSH2","Isle-Aux-Grues","Isle-Aux-Grues","Canada","CAN",47.072250000000004,-70.5333611111111,"{""type"":""Point"",""coordinates"":[-70.5333611111111,47.072250000000004]}"
"CEJ6","Elk Point","Elk Point","Canada","CAN",53.893055555555556,-110.77222222222223,"{""type"":""Point"",""coordinates"":[-110.77222222222223,53.893055555555556]}"
"CSG5","St-Jean Chrysostome","St-Jean Chrysostome","Canada","CAN",46.68527777777778,-71.15166666666667,"{""type"":""Point"",""coordinates"":[-71.15166666666667,46.68527777777778]}"
"CZTA","Bloodvein River","Bloodvein River","Canada","CAN",51.784327777777776,-96.69224166666667,"{""type"":""Point"",""coordinates"":[-96.69224166666667,51.784327777777776]}"
"CJC2","Craik","Craik","Canada","CAN",51.05611111111111,-105.83833333333332,"{""type"":""Point"",""coordinates"":[-105.83833333333332,51.05611111111111]}"
"CBW4","Bob Quinn Lake","Bob Quinn Lake","Canada","CAN",56.96675833333334,-130.2493111111111,"{""type"":""Point"",""coordinates"":[-130.2493111111111,56.96675833333334]}"
"CPU3","New Glasgow","Rodney","Canada","CAN",42.53138888888889,-81.60694444444444,"{""type"":""Point"",""coordinates"":[-81.60694444444444,42.53138888888889]}"
"CSF5","Safron Farms","Markerville","Canada","CAN",52.19916666666666,-114.2375,"{""type"":""Point"",""coordinates"":[-114.2375,52.19916666666666]}"
"CSF3","Poste Montagnais","Poste Montagnais","Canada","CAN",51.888647222222225,-65.71488055555555,"{""type"":""Point"",""coordinates"":[-65.71488055555555,51.888647222222225]}"
"CSE4","Lachute","Lachute","Canada","CAN",45.63955555555555,-74.37044444444444,"{""type"":""Point"",""coordinates"":[-74.37044444444444,45.63955555555555]}"
"CBW3","Fort Grahame","Fort Graham","Canada","CAN",56.52166666666667,-124.46833333333333,"{""type"":""Point"",""coordinates"":[-124.46833333333333,56.52166666666667]}"
"CSF8","Spitfire","Lampman","Canada","CAN",49.49008333333333,-102.88274999999999,"{""type"":""Point"",""coordinates"":[-102.88274999999999,49.49008333333333]}"
"CSE3","Lourdes-De-Joliette","Lourdes-De-Joliette","Canada","CAN",46.10944444444445,-73.45277777777778,"{""type"":""Point"",""coordinates"":[-73.45277777777778,46.10944444444445]}"
"CSD7","Sunderland","Blackwater Creek","Canada","CAN",44.22703055555556,-79.09729444444444,"{""type"":""Point"",""coordinates"":[-79.09729444444444,44.22703055555556]}"
"CSD4","Mont-Laurier","Mont-Laurier","Canada","CAN",46.56476111111111,-75.576225,"{""type"":""Point"",""coordinates"":[-75.576225,46.56476111111111]}"
"CJE2","Dore Lake","Dore Lake","Canada","CAN",54.61666666666667,-107.38333333333334,"{""type"":""Point"",""coordinates"":[-107.38333333333334,54.61666666666667]}"
"CSM3","Thetford Mines","Thetford Mines","Canada","CAN",46.05216111111111,-71.257425,"{""type"":""Point"",""coordinates"":[-71.257425,46.05216111111111]}"
"CSC9","Coniston","Sudbury","Canada","CAN",46.48222222222223,-80.83388888888888,"{""type"":""Point"",""coordinates"":[-80.83388888888888,46.48222222222223]}"
"CSC5","Lac Etchemin","Lac Etchemin","Canada","CAN",46.407222222222224,-70.50138888888888,"{""type"":""Point"",""coordinates"":[-70.50138888888888,46.407222222222224]}"
"CCF4","Porters Lake","Porters Lake","Canada","CAN",44.71,-63.30166666666666,"{""type"":""Point"",""coordinates"":[-63.30166666666666,44.71]}"
"CSB5","Shediac Bridge","Shediac Bridge","Canada","CAN",46.25472222222222,-64.57666666666667,"{""type"":""Point"",""coordinates"":[-64.57666666666667,46.25472222222222]}"
"CYXE","John G Diefenbaker Intl","Saskatoon","Canada","CAN",52.17096111111111,-106.69995555555556,"{""type"":""Point"",""coordinates"":[-106.69995555555556,52.17096111111111]}"
"CPB8","Bistcho","Bistcho","Canada","CAN",59.638219444444445,-118.33314722222222,"{""type"":""Point"",""coordinates"":[-118.33314722222222,59.638219444444445]}"
"CSB2","Sable Island","Sable Island","Canada","CAN",43.92944444444444,-59.959722222222226,"{""type"":""Point"",""coordinates"":[-59.959722222222226,43.92944444444444]}"
"CJK4","Esterhazy","Esterhazy","Canada","CAN",50.64277777777778,-102.10027777777778,"{""type"":""Point"",""coordinates"":[-102.10027777777778,50.64277777777778]}"
"CRS4","Rosseau","Rosseau","Canada","CAN",45.269125,-79.65570833333334,"{""type"":""Point"",""coordinates"":[-79.65570833333334,45.269125]}"
"CRN2","Ridgetown (Carnie)","Ridgetown","Canada","CAN",42.42483333333333,-81.86605,"{""type"":""Point"",""coordinates"":[-81.86605,42.42483333333333]}"
"CDF5","Elora","Elora","Canada","CAN",43.63240277777778,-80.35647222222222,"{""type"":""Point"",""coordinates"":[-80.35647222222222,43.63240277777778]}"
"CRML","Le Cunff","Stoney Point","Canada","CAN",42.29555555555555,-82.535,"{""type"":""Point"",""coordinates"":[-82.535,42.29555555555555]}"
"CKX5","Dinsmore","Dinsmore","Canada","CAN",51.33083333333334,-107.4375,"{""type"":""Point"",""coordinates"":[-107.4375,51.33083333333334]}"
"CTF5","Turchyn","Pierceland","Canada","CAN",54.30031666666667,-109.927225,"{""type"":""Point"",""coordinates"":[-109.927225,54.30031666666667]}"
"CKE2","Quill Lake","Quill Lake","Canada","CAN",52.06666666666667,-104.26666666666667,"{""type"":""Point"",""coordinates"":[-104.26666666666667,52.06666666666667]}"
"CRM4","Cormier","Cormier","Canada","CAN",46.18083333333333,-64.37555555555555,"{""type"":""Point"",""coordinates"":[-64.37555555555555,46.18083333333333]}"
"CRL4","Kirby Lake","Kirby Lake","Canada","CAN",55.35561666666667,-110.63759722222223,"{""type"":""Point"",""coordinates"":[-110.63759722222223,55.35561666666667]}"
"CFC7","Rimbey","Rimbey","Canada","CAN",52.68194444444444,-114.2375,"{""type"":""Point"",""coordinates"":[-114.2375,52.68194444444444]}"
"CRL2","Rideau Lakes","Westport","Canada","CAN",44.66554166666666,-76.39851111111112,"{""type"":""Point"",""coordinates"":[-76.39851111111112,44.66554166666666]}"
"CRF5","Richter","Saskatoon","Canada","CAN",52.280277777777776,-106.68388888888889,"{""type"":""Point"",""coordinates"":[-106.68388888888889,52.280277777777776]}"
"CRD6","Truant South","Red Deer","Canada","CAN",52.27777777777778,-113.91527777777779,"{""type"":""Point"",""coordinates"":[-113.91527777777779,52.27777777777778]}"
"CPJ6","St-Pierre-Jolys (Carl's)","St-Pierre-Jolys","Canada","CAN",49.43611111111111,-96.92694444444444,"{""type"":""Point"",""coordinates"":[-96.92694444444444,49.43611111111111]}"
"CTQ6","St-Anselme","St-Anselme","Canada","CAN",46.619166666666665,-70.955,"{""type"":""Point"",""coordinates"":[-70.955,46.619166666666665]}"
"CRB5","Riviere Bell","Riviere Bell","Canada","CAN",49.07888888888889,-62.23694444444445,"{""type"":""Point"",""coordinates"":[-62.23694444444445,49.07888888888889]}"
"CJR5","Gladstone","Gladstone","Canada","CAN",50.16361111111111,-98.94250000000001,"{""type"":""Point"",""coordinates"":[-98.94250000000001,50.16361111111111]}"
"CRB2","Cottam","Cottam","Canada","CAN",42.14,-82.65277777777779,"{""type"":""Point"",""coordinates"":[-82.65277777777779,42.14]}"
"CPZ3","Mountain View","Trenton","Canada","CAN",44.06944444444445,-77.33805555555556,"{""type"":""Point"",""coordinates"":[-77.33805555555556,44.06944444444445]}"
"CYAZ","Long Beach","Tofino","Canada","CAN",49.082119444444444,-125.77239722222222,"{""type"":""Point"",""coordinates"":[-125.77239722222222,49.082119444444444]}"
"CPV8","Keewaywin","Keewaywin","Canada","CAN",52.99105277777778,-92.8363111111111,"{""type"":""Point"",""coordinates"":[-92.8363111111111,52.99105277777778]}"
"CPV7","Poplar Hill","Poplar Hill","Canada","CAN",52.11340277777778,-94.255625,"{""type"":""Point"",""coordinates"":[-94.255625,52.11340277777778]}"
"CYEM","Manitoulin East Mun","Manitowaning","Canada","CAN",45.84246666666667,-81.85756944444444,"{""type"":""Point"",""coordinates"":[-81.85756944444444,45.84246666666667]}"
"CPV4","Mansfield","Mansfield","Canada","CAN",44.15,-80.01972222222223,"{""type"":""Point"",""coordinates"":[-80.01972222222223,44.15]}"
"CYFH","Ft Hope","Ft Hope","Canada","CAN",51.56196111111111,-87.90771388888889,"{""type"":""Point"",""coordinates"":[-87.90771388888889,51.56196111111111]}"
"CSW4","Bracebridge (Stone Wall Farm)","Bracebridge","Canada","CAN",44.98854722222222,-79.18949166666667,"{""type"":""Point"",""coordinates"":[-79.18949166666667,44.98854722222222]}"
"CPV3","St. Joseph Island","St. Joseph Island","Canada","CAN",46.28333333333333,-83.95,"{""type"":""Point"",""coordinates"":[-83.95,46.28333333333333]}"
"CPU6","Tyendinaga (Mohawk)","Tyendinaga","Canada","CAN",44.18472222222222,-77.10777777777777,"{""type"":""Point"",""coordinates"":[-77.10777777777777,44.18472222222222]}"
"CYLU","Kangiqsualujjuaq Georges River","Kangiqsualujjuaq","Canada","CAN",58.711397222222224,-65.99285555555555,"{""type"":""Point"",""coordinates"":[-65.99285555555555,58.711397222222224]}"
"CRF3","Villeneuve (Rose Field)","Edmonton","Canada","CAN",53.64555555555555,-113.80277777777778,"{""type"":""Point"",""coordinates"":[-113.80277777777778,53.64555555555555]}"
"CPT9","Pintendre","Pintendre","Canada","CAN",46.7575,-71.10916666666667,"{""type"":""Point"",""coordinates"":[-71.10916666666667,46.7575]}"
"CPS4","Lucan","Lucan","Canada","CAN",43.163333333333334,-81.41250000000001,"{""type"":""Point"",""coordinates"":[-81.41250000000001,43.163333333333334]}"
"CPS2","Elmhirst's Resort","Keene","Canada","CAN",44.25,-78.11666666666666,"{""type"":""Point"",""coordinates"":[-78.11666666666666,44.25]}"
"CPR7","Richard W LeVan","Wingham","Canada","CAN",43.867575,-81.29856111111111,"{""type"":""Point"",""coordinates"":[-81.29856111111111,43.867575]}"
"CPM3","Pourvoirie Mirage","Pourvoirie Mirage","Canada","CAN",53.802499999999995,-72.84138888888889,"{""type"":""Point"",""coordinates"":[-72.84138888888889,53.802499999999995]}"
"CYLT","Alert","Alert","Canada","CAN",82.51777777777778,-62.28055555555555,"{""type"":""Point"",""coordinates"":[-62.28055555555555,82.51777777777778]}"
"CPL5","Thessalon Mun","Thessalon","Canada","CAN",46.31666666666667,-83.53333333333333,"{""type"":""Point"",""coordinates"":[-83.53333333333333,46.31666666666667]}"
"CPL4","Grand Bend","Grand Bend","Canada","CAN",43.28944444444444,-81.7125,"{""type"":""Point"",""coordinates"":[-81.7125,43.28944444444444]}"
"CYPG","Southport","Portage La Prairie","Canada","CAN",49.903130555555556,-98.27390833333334,"{""type"":""Point"",""coordinates"":[-98.27390833333334,49.903130555555556]}"
"CED5","Taber","Taber","Canada","CAN",49.826486111111116,-112.18479166666667,"{""type"":""Point"",""coordinates"":[-112.18479166666667,49.826486111111116]}"
"CPK2","Blue Yonder","Strathroy","Canada","CAN",42.965833333333336,-81.59166666666667,"{""type"":""Point"",""coordinates"":[-81.59166666666667,42.965833333333336]}"
"CYCC","Cornwall Regl","Cornwall","Canada","CAN",45.09266111111111,-74.56784444444445,"{""type"":""Point"",""coordinates"":[-74.56784444444445,45.09266111111111]}"
"CPH9","Fordwich","Fordwich","Canada","CAN",43.88805555555555,-80.99527777777777,"{""type"":""Point"",""coordinates"":[-80.99527777777777,43.88805555555555]}"
"CPH3","Peter's","Port Hope","Canada","CAN",44.02472222222222,-78.42694444444444,"{""type"":""Point"",""coordinates"":[-78.42694444444444,44.02472222222222]}"
"CPG5","Hawkesbury (East)","Hawkesbury","Canada","CAN",45.58277777777778,-74.54888888888888,"{""type"":""Point"",""coordinates"":[-74.54888888888888,45.58277777777778]}"
"CPF7","Southampton","Southampton","Canada","CAN",44.49388888888889,-81.33527777777778,"{""type"":""Point"",""coordinates"":[-81.33527777777778,44.49388888888889]}"
"CPF6","Stoney Creek","Stoney Creek","Canada","CAN",43.16948333333333,-79.70961666666668,"{""type"":""Point"",""coordinates"":[-79.70961666666668,43.16948333333333]}"
"CPF4","Bruce McPhail Meml","Cobden","Canada","CAN",45.59525,-76.834125,"{""type"":""Point"",""coordinates"":[-76.834125,45.59525]}"
"CPD4","Brussels (Armstrong Field)","Brussels","Canada","CAN",43.75,-81.23333333333333,"{""type"":""Point"",""coordinates"":[-81.23333333333333,43.75]}"
"CYEN","Estevan Regl","Estevan","Canada","CAN",49.21019444444445,-102.96575833333334,"{""type"":""Point"",""coordinates"":[-102.96575833333334,49.21019444444445]}"
"CAJ4","Anahim Lake","Anahim Lake","Canada","CAN",52.45209166666667,-125.30444444444444,"{""type"":""Point"",""coordinates"":[-125.30444444444444,52.45209166666667]}"
"CPD2","Ethel","Ethel","Canada","CAN",43.745,-81.17666666666668,"{""type"":""Point"",""coordinates"":[-81.17666666666668,43.745]}"
"CPC3","Arthur (Walter's Field)","Arthur","Canada","CAN",43.85,-80.45,"{""type"":""Point"",""coordinates"":[-80.45,43.85]}"
"CPE3","Elk Lake","Elk Lake","Canada","CAN",47.728611111111114,-80.31583333333333,"{""type"":""Point"",""coordinates"":[-80.31583333333333,47.728611111111114]}"
"CPB5","Pilot Butte","Pilot Butte","Canada","CAN",50.461111111111116,-104.43055555555556,"{""type"":""Point"",""coordinates"":[-104.43055555555556,50.461111111111116]}"
"CFS7","Twin Creeks","Twin Creeks","Canada","CAN",62.61944444444445,-131.27027777777778,"{""type"":""Point"",""coordinates"":[-131.27027777777778,62.61944444444445]}"
"CFL9","Johnson Lake","Johnson Lake","Canada","CAN",57.56666666666667,-110.31666666666666,"{""type"":""Point"",""coordinates"":[-110.31666666666666,57.56666666666667]}"
"CST7","St-Lambert-De-Lauzon","St-Lambert-De-Lauzon","Canada","CAN",46.56027777777778,-71.1825,"{""type"":""Point"",""coordinates"":[-71.1825,46.56027777777778]}"
"CNY4","Alliston","Alliston","Canada","CAN",44.18333333333333,-79.83333333333333,"{""type"":""Point"",""coordinates"":[-79.83333333333333,44.18333333333333]}"
"CNX3","Carey Lake","Carey Lake","Canada","CAN",49.75,-84.03333333333333,"{""type"":""Point"",""coordinates"":[-84.03333333333333,49.75]}"
"CNW3","Bancroft","Bancroft","Canada","CAN",45.073055555555555,-77.88055555555555,"{""type"":""Point"",""coordinates"":[-77.88055555555555,45.073055555555555]}"
"CYDA","Dawson City","Dawson City","Canada","CAN",64.04211388888889,-139.13030833333335,"{""type"":""Point"",""coordinates"":[-139.13030833333335,64.04211388888889]}"
"CNV9","Neuville","Quebec","Canada","CAN",46.723333333333336,-71.5825,"{""type"":""Point"",""coordinates"":[-71.5825,46.723333333333336]}"
"CJF4","Buffalo (Jaques Farms)","Buffalo","Canada","CAN",50.86069444444445,-110.65486111111112,"{""type"":""Point"",""coordinates"":[-110.65486111111112,50.86069444444445]}"
"CNU8","Markham","Toronto","Canada","CAN",43.93583333333333,-79.26222222222222,"{""type"":""Point"",""coordinates"":[-79.26222222222222,43.93583333333333]}"
"CYTZ","Toronto/Billy Bishop Toronto City","Toronto","Canada","CAN",43.62739166666667,-79.39620277777779,"{""type"":""Point"",""coordinates"":[-79.39620277777779,43.62739166666667]}"
"CNU4","Belleville","Belleville","Canada","CAN",44.19222222222222,-77.30944444444444,"{""type"":""Point"",""coordinates"":[-77.30944444444444,44.19222222222222]}"
"CYQI","Yarmouth","Yarmouth","Canada","CAN",43.82718055555556,-66.08825833333333,"{""type"":""Point"",""coordinates"":[-66.08825833333333,43.82718055555556]}"
"CNS8","Morrisburg","Morrisburg","Canada","CAN",44.95,-75.08333333333333,"{""type"":""Point"",""coordinates"":[-75.08333333333333,44.95]}"
"CNR9","Arnstein","Arnstein","Canada","CAN",45.925555555555555,-79.92777777777778,"{""type"":""Point"",""coordinates"":[-79.92777777777778,45.925555555555555]}"
"CZBD","Ilford","Ilford","Canada","CAN",56.05158333333333,-95.61796666666666,"{""type"":""Point"",""coordinates"":[-95.61796666666666,56.05158333333333]}"
"CNR6","Carleton Place","Carleton Place","Canada","CAN",45.10388888888889,-76.12333333333332,"{""type"":""Point"",""coordinates"":[-76.12333333333332,45.10388888888889]}"
"CNR4","Tobermory","Tobermory","Canada","CAN",45.22173333333333,-81.62864444444443,"{""type"":""Point"",""coordinates"":[-81.62864444444443,45.22173333333333]}"
"CCL2","Candle Lake","Candle Lake Airpark","Canada","CAN",53.76833333333333,-105.30777777777777,"{""type"":""Point"",""coordinates"":[-105.30777777777777,53.76833333333333]}"
"CNN3","Fisher","Shelburne","Canada","CAN",44.02833333333333,-80.20611111111111,"{""type"":""Point"",""coordinates"":[-80.20611111111111,44.02833333333333]}"
"CME2","Omemee","Omemee","Canada","CAN",44.285555555555554,-78.62751388888888,"{""type"":""Point"",""coordinates"":[-78.62751388888888,44.285555555555554]}"
"CNM2","Melbourne","Melbourne","Canada","CAN",42.82416666666667,-81.54861111111111,"{""type"":""Point"",""coordinates"":[-81.54861111111111,42.82416666666667]}"
"CEZ2","Chapman","Chapman Lake","Canada","CAN",64.9,-138.26666666666668,"{""type"":""Point"",""coordinates"":[-138.26666666666668,64.9]}"
"CNL4","Port Elgin","Port Elgin","Canada","CAN",44.415277777777774,-81.41444444444446,"{""type"":""Point"",""coordinates"":[-81.41444444444446,44.415277777777774]}"
"CPR3","Palmerston","Palmerston","Canada","CAN",43.85,-80.78333333333333,"{""type"":""Point"",""coordinates"":[-80.78333333333333,43.85]}"
"CNL3","Brockville Regl Tackaberry","Brockville","Canada","CAN",44.63941944444444,-75.75018333333334,"{""type"":""Point"",""coordinates"":[-75.75018333333334,44.63941944444444]}"
"CNL2","North Liege","Fort McMurray","Canada","CAN",57.13598888888889,-113.28968333333333,"{""type"":""Point"",""coordinates"":[-113.28968333333333,57.13598888888889]}"
"CJN5","Corman","Saskatoon","Canada","CAN",52.00055555555556,-106.4625,"{""type"":""Point"",""coordinates"":[-106.4625,52.00055555555556]}"
"CVB2","Voisey's Bay","Voisey's Bay","Canada","CAN",56.344722222222224,-62.088055555555556,"{""type"":""Point"",""coordinates"":[-62.088055555555556,56.344722222222224]}"
"CSE5","Montmagny","Montmagny","Canada","CAN",47.001841666666664,-70.51579722222222,"{""type"":""Point"",""coordinates"":[-70.51579722222222,47.001841666666664]}"
"CRJ2","Trepanier","Stoney Point","Canada","CAN",42.288888888888884,-82.59833333333333,"{""type"":""Point"",""coordinates"":[-82.59833333333333,42.288888888888884]}"
"CNF9","Niagara South","Niagara","Canada","CAN",42.99944444444444,-79.06333333333333,"{""type"":""Point"",""coordinates"":[-79.06333333333333,42.99944444444444]}"
"CNF4","Lindsay","Lindsay","Canada","CAN",44.36478888888889,-78.78384444444444,"{""type"":""Point"",""coordinates"":[-78.78384444444444,44.36478888888889]}"
"CYNA","Natashquan","Natashquan","Canada","CAN",50.19008333333333,-61.78894722222222,"{""type"":""Point"",""coordinates"":[-61.78894722222222,50.19008333333333]}"
"CNF3","Pendleton","Pendleton","Canada","CAN",45.486111111111114,-75.0961111111111,"{""type"":""Point"",""coordinates"":[-75.0961111111111,45.486111111111114]}"
"CJU6","Arborg","Arborg","Canada","CAN",50.91277777777778,-97.30444444444444,"{""type"":""Point"",""coordinates"":[-97.30444444444444,50.91277777777778]}"
"CPT3","Rockton","Rockton","Canada","CAN",43.32222222222222,-80.1763888888889,"{""type"":""Point"",""coordinates"":[-80.1763888888889,43.32222222222222]}"
"CNE9","Essex","Essex","Canada","CAN",42.09583333333334,-82.87944444444443,"{""type"":""Point"",""coordinates"":[-82.87944444444443,42.09583333333334]}"
"CEA6","Cardston","Cardston","Canada","CAN",49.1625,-113.24111111111111,"{""type"":""Point"",""coordinates"":[-113.24111111111111,49.1625]}"
"CNE2","Orillia (MARA)","Orillia","Canada","CAN",44.615833333333335,-79.33388888888888,"{""type"":""Point"",""coordinates"":[-79.33388888888888,44.615833333333335]}"
"CWS2","Washago","Washago","Canada","CAN",44.74048055555556,-79.36183055555556,"{""type"":""Point"",""coordinates"":[-79.36183055555556,44.74048055555556]}"
"CFG6","Firebag","Fort Mackay","Canada","CAN",57.27572222222222,-110.976675,"{""type"":""Point"",""coordinates"":[-110.976675,57.27572222222222]}"
"CNC3","Brampton-Caledon","Brampton","Canada","CAN",43.75980555555556,-79.87388888888889,"{""type"":""Point"",""coordinates"":[-79.87388888888889,43.75980555555556]}"
"CYXR","Earlton (Timiskaming Reg'l)","Earlton","Canada","CAN",47.694913888888884,-79.84895555555555,"{""type"":""Point"",""coordinates"":[-79.84895555555555,47.694913888888884]}"
"CYGP","Gaspe (Michel-Pouliot)","Gaspe","Canada","CAN",48.77516388888889,-64.4796638888889,"{""type"":""Point"",""coordinates"":[-64.4796638888889,48.77516388888889]}"
"CTN6","Treherne (South Norfolk Airpark)","Treherne","Canada","CAN",49.65972222222222,-98.66527777777779,"{""type"":""Point"",""coordinates"":[-98.66527777777779,49.65972222222222]}"
"CNA3","Barrie Airpark","Springwater","Canada","CAN",44.406388888888884,-79.73166666666667,"{""type"":""Point"",""coordinates"":[-79.73166666666667,44.406388888888884]}"
"CJA2","Selkirk","Selkirk","Canada","CAN",42.806805555555556,-79.97688333333333,"{""type"":""Point"",""coordinates"":[-79.97688333333333,42.806805555555556]}"
"CNA2","Highgate","Highgate","Canada","CAN",42.55444444444444,-81.80305555555556,"{""type"":""Point"",""coordinates"":[-81.80305555555556,42.55444444444444]}"
"CMZ2","Arthur (Metz Field)","Arthur","Canada","CAN",43.81015,-80.4353,"{""type"":""Point"",""coordinates"":[-80.4353,43.81015]}"
"CMR2","Mary River","Mary River","Canada","CAN",71.32349166666667,-79.35377222222222,"{""type"":""Point"",""coordinates"":[-79.35377222222222,71.32349166666667]}"
"CNP3","South Renfrew Mun","Arnprior","Canada","CAN",45.41381388888889,-76.36571944444444,"{""type"":""Point"",""coordinates"":[-76.36571944444444,45.41381388888889]}"
"CSP6","Aeroparc Ile Perrot","Montreal","Canada","CAN",45.376111111111115,-73.90722222222223,"{""type"":""Point"",""coordinates"":[-73.90722222222223,45.376111111111115]}"
"CMN5","Manic-5","Manic-5","Canada","CAN",50.65747222222222,-68.83240833333333,"{""type"":""Point"",""coordinates"":[-68.83240833333333,50.65747222222222]}"
"CAA2","St-Andre-Avellin","St-Andre-Avellin","Canada","CAN",45.74111111111111,-75.07222222222222,"{""type"":""Point"",""coordinates"":[-75.07222222222222,45.74111111111111]}"
"CMN3","St-Michel-De-Napierville","St-Michel-De-Napierville","Canada","CAN",45.21361111111111,-73.57583333333334,"{""type"":""Point"",""coordinates"":[-73.57583333333334,45.21361111111111]}"
"CYIB","Atikokan Mun","Atikokan","Canada","CAN",48.77388888888889,-91.63861111111112,"{""type"":""Point"",""coordinates"":[-91.63861111111112,48.77388888888889]}"
"CEG8","North Seal River","North Seal River","Canada","CAN",58.96944444444445,-99.97500000000001,"{""type"":""Point"",""coordinates"":[-99.97500000000001,58.96944444444445]}"
"CJL4","La Loche","La Loche","Canada","CAN",56.47316666666667,-109.40366666666667,"{""type"":""Point"",""coordinates"":[-109.40366666666667,56.47316666666667]}"
"CMB5","Bellshill","Campbellville","Canada","CAN",43.43171944444444,-80.02514166666667,"{""type"":""Point"",""coordinates"":[-80.02514166666667,43.43171944444444]}"
"CLV2","Stayner/Clearview","Stayner","Canada","CAN",44.4045,-80.14816666666667,"{""type"":""Point"",""coordinates"":[-80.14816666666667,44.4045]}"
"CLS3","South Liege","Fort McMurray","Canada","CAN",56.83222777777778,-113.09868888888889,"{""type"":""Point"",""coordinates"":[-113.09868888888889,56.83222777777778]}"
"CBD6","Nahanni Butte","Nahanni Butte","Canada","CAN",61.02958611111111,-123.38834722222222,"{""type"":""Point"",""coordinates"":[-123.38834722222222,61.02958611111111]}"
"CLJ3","Lethbridge (J3 Airfield)","Lethbridge","Canada","CAN",49.74166666666667,-112.73944444444444,"{""type"":""Point"",""coordinates"":[-112.73944444444444,49.74166666666667]}"
"CLG7","Legend","Fort McMurray","Canada","CAN",57.19699444444444,-112.89558055555557,"{""type"":""Point"",""coordinates"":[-112.89558055555557,57.19699444444444]}"
"CLG3","Liege/CNRL","Liege","Canada","CAN",57.001891666666666,-113.19385555555556,"{""type"":""Point"",""coordinates"":[-113.19385555555556,57.001891666666666]}"
"CLA4","Holland Landing Airpark","Holland Landing Airpark","Canada","CAN",44.089444444444446,-79.495,"{""type"":""Point"",""coordinates"":[-79.495,44.089444444444446]}"
"CYYW","Armstrong","Armstrong","Canada","CAN",50.290277777777774,-88.90972222222223,"{""type"":""Point"",""coordinates"":[-88.90972222222223,50.290277777777774]}"
"CKZ7","Winkler","Winkler","Canada","CAN",49.16694444444444,-97.92027777777778,"{""type"":""Point"",""coordinates"":[-97.92027777777778,49.16694444444444]}"
"CKZ6","Louise Mun","Crystal City-Pilot Mound","Canada","CAN",49.14722222222222,-98.88083333333333,"{""type"":""Point"",""coordinates"":[-98.88083333333333,49.14722222222222]}"
"CJC4","Central Butte","Central Butte","Canada","CAN",50.80138888888889,-106.48833333333333,"{""type"":""Point"",""coordinates"":[-106.48833333333333,50.80138888888889]}"
"CKZ3","Elk Island","Elk Island","Canada","CAN",54.671388888888885,-94.14527777777778,"{""type"":""Point"",""coordinates"":[-94.14527777777778,54.671388888888885]}"
"CKV7","Wawota","Wawota","Canada","CAN",49.9,-102.03333333333333,"{""type"":""Point"",""coordinates"":[-102.03333333333333,49.9]}"
"CKV6","Churchbridge","Churchbridge","Canada","CAN",51.016666666666666,-101.81666666666666,"{""type"":""Point"",""coordinates"":[-101.81666666666666,51.016666666666666]}"
"CKV4","North of Sixty","Obre Lake","Canada","CAN",60.31553333333333,-103.13163333333333,"{""type"":""Point"",""coordinates"":[-103.13163333333333,60.31553333333333]}"
"CRP2","R M of Pipestone","Reston","Canada","CAN",49.580555555555556,-101.05277777777778,"{""type"":""Point"",""coordinates"":[-101.05277777777778,49.580555555555556]}"
"CKV2","Kelvington","Kelvington","Canada","CAN",52.126111111111115,-103.53111111111112,"{""type"":""Point"",""coordinates"":[-103.53111111111112,52.126111111111115]}"
"CKU7","Watrous","Watrous","Canada","CAN",51.68527777777778,-105.36999999999999,"{""type"":""Point"",""coordinates"":[-105.36999999999999,51.68527777777778]}"
"CTG3","Du Rocher-Perce (Pabok)","Grande-Riviere","Canada","CAN",48.383202777777775,-64.564475,"{""type"":""Point"",""coordinates"":[-64.564475,48.383202777777775]}"
"CNS4","Alexandria","Alexandria","Canada","CAN",45.333333333333336,-74.61666666666666,"{""type"":""Point"",""coordinates"":[-74.61666666666666,45.333333333333336]}"
"CNR5","Trotter","Norland","Canada","CAN",44.7284,-78.75045833333333,"{""type"":""Point"",""coordinates"":[-78.75045833333333,44.7284]}"
"CKU6","Grenfell","Grenfell","Canada","CAN",50.41916666666666,-102.93527777777778,"{""type"":""Point"",""coordinates"":[-102.93527777777778,50.41916666666666]}"
"CZBM","Bromont (Roland Desourdy)","Bromont","Canada","CAN",45.29093333333333,-72.741975,"{""type"":""Point"",""coordinates"":[-72.741975,45.29093333333333]}"
"CSD3","Salaberry de Valleyfield","Salaberry de Valleyfield","Canada","CAN",45.208333333333336,-74.1413888888889,"{""type"":""Point"",""coordinates"":[-74.1413888888889,45.208333333333336]}"
"CKU4","Cut Knife","Cut Knife","Canada","CAN",52.733333333333334,-109.01666666666667,"{""type"":""Point"",""coordinates"":[-109.01666666666667,52.733333333333334]}"
"CYBA","Banff","Banff","Canada","CAN",51.2,-115.53333333333333,"{""type"":""Point"",""coordinates"":[-115.53333333333333,51.2]}"
"CCF7","Cowan Farm Private","Alida","Canada","CAN",49.39646388888889,-101.82495277777777,"{""type"":""Point"",""coordinates"":[-101.82495277777777,49.39646388888889]}"
"CJW3","Loon Lake","Loon Lake","Canada","CAN",54.01833333333333,-109.13527777777779,"{""type"":""Point"",""coordinates"":[-109.13527777777779,54.01833333333333]}"
"CKT7","Wakaw","Wakaw","Canada","CAN",52.65,-105.76666666666667,"{""type"":""Point"",""coordinates"":[-105.76666666666667,52.65]}"
"CKR3","Ste. Rose Du Lac","Ste. Rose Du Lac","Canada","CAN",51.04083333333333,-99.49527777777777,"{""type"":""Point"",""coordinates"":[-99.49527777777777,51.04083333333333]}"
"CKS8","Crystal Lodge","Cree Lake","Canada","CAN",57.46416666666667,-106.74833333333333,"{""type"":""Point"",""coordinates"":[-106.74833333333333,57.46416666666667]}"
"CFB5","Namur Lake","Namur Lake","Canada","CAN",57.38333333333333,-112.8,"{""type"":""Point"",""coordinates"":[-112.8,57.38333333333333]}"
"CSA2","Lac Agile (Mascouche)","Lac Agile","Canada","CAN",45.79194444444444,-73.63805555555557,"{""type"":""Point"",""coordinates"":[-73.63805555555557,45.79194444444444]}"
"CNE3","Bearskin Lake","Bearskin Lake","Canada","CAN",53.96566666666667,-91.02721111111111,"{""type"":""Point"",""coordinates"":[-91.02721111111111,53.96566666666667]}"
"CKR7","Gabrielle Farm","Virden","Canada","CAN",49.78472222222222,-100.95611111111111,"{""type"":""Point"",""coordinates"":[-100.95611111111111,49.78472222222222]}"
"CKR4","Lundar","Lundar","Canada","CAN",50.70333333333333,-98.05666666666666,"{""type"":""Point"",""coordinates"":[-98.05666666666666,50.70333333333333]}"
"CYPT","Pelee Island","Pelee Island","Canada","CAN",41.77761944444444,-82.6780138888889,"{""type"":""Point"",""coordinates"":[-82.6780138888889,41.77761944444444]}"
"CKQ9","Pine Dock","Pine Dock","Canada","CAN",51.619525,-96.81235555555556,"{""type"":""Point"",""coordinates"":[-96.81235555555556,51.619525]}"
"CKQ7","Vermillion Bay","Vermillion Bay","Canada","CAN",49.87972222222222,-93.4363888888889,"{""type"":""Point"",""coordinates"":[-93.4363888888889,49.87972222222222]}"
"CKY2","Whitewood","Whitewood","Canada","CAN",50.333333333333336,-102.26666666666667,"{""type"":""Point"",""coordinates"":[-102.26666666666667,50.333333333333336]}"
"CYCS","Chesterfield Inlet","Chesterfield Inlet","Canada","CAN",63.34711111111111,-90.73115555555556,"{""type"":""Point"",""coordinates"":[-90.73115555555556,63.34711111111111]}"
"CKQ6","Erickson Mun","Erickson","Canada","CAN",50.49944444444444,-99.89777777777779,"{""type"":""Point"",""coordinates"":[-99.89777777777779,50.49944444444444]}"
"CKN8","Nekweaga Bay","Nekweaga Bay","Canada","CAN",57.7425,-103.94472222222223,"{""type"":""Point"",""coordinates"":[-103.94472222222223,57.7425]}"
"CKN5","Fillmore","Fillmore","Canada","CAN",49.86888888888889,-103.44527777777778,"{""type"":""Point"",""coordinates"":[-103.44527777777778,49.86888888888889]}"
"CKM8","Opapimiskan Lake","Opapimiskan Lake","Canada","CAN",52.608691666666665,-90.37704166666666,"{""type"":""Point"",""coordinates"":[-90.37704166666666,52.608691666666665]}"
"CCZ3","Clarenville","Clarenville","Canada","CAN",48.27466388888889,-53.92393333333333,"{""type"":""Point"",""coordinates"":[-53.92393333333333,48.27466388888889]}"
"CKM4","Jan Lake","Jan Lake","Canada","CAN",54.83083333333334,-102.78861111111111,"{""type"":""Point"",""coordinates"":[-102.78861111111111,54.83083333333334]}"
"CAL3","Douglas Lake","Douglas Lake","Canada","CAN",50.166666666666664,-120.18333333333334,"{""type"":""Point"",""coordinates"":[-120.18333333333334,50.166666666666664]}"
"CKL6","Little Bear Lake","Little Bear Lake","Canada","CAN",54.29194444444444,-104.6713888888889,"{""type"":""Point"",""coordinates"":[-104.6713888888889,54.29194444444444]}"
"CYKX","Kirkland Lake","Kirkland Lake","Canada","CAN",48.210261111111116,-79.98125,"{""type"":""Point"",""coordinates"":[-79.98125,48.210261111111116]}"
"CKL3","Wunnumin Lake","Wunnumin Lake","Canada","CAN",52.89391666666667,-89.289075,"{""type"":""Point"",""coordinates"":[-89.289075,52.89391666666667]}"
"CSB3","St-Mathieu-De-Beloeil","St-Mathieu-De-Beloeil","Canada","CAN",45.590158333333335,-73.23798333333333,"{""type"":""Point"",""coordinates"":[-73.23798333333333,45.590158333333335]}"
"CEV7","Tofield","Tofield","Canada","CAN",53.37111111111111,-112.69666666666667,"{""type"":""Point"",""coordinates"":[-112.69666666666667,53.37111111111111]}"
"CKL2","Selkirk","Selkirk","Canada","CAN",50.17222222222222,-96.87222222222222,"{""type"":""Point"",""coordinates"":[-96.87222222222222,50.17222222222222]}"
"CEP5","Janvier","Janvier","Canada","CAN",55.9,-110.73333333333333,"{""type"":""Point"",""coordinates"":[-110.73333333333333,55.9]}"
"CKK3","Scobey Border Station","Coronach","Canada","CAN",49,-105.39888888888889,"{""type"":""Point"",""coordinates"":[-105.39888888888889,49]}"
"CBX5","Tungsten (Cantung)","Tungsten","Canada","CAN",61.956944444444446,-128.20277777777775,"{""type"":""Point"",""coordinates"":[-128.20277777777775,61.956944444444446]}"
"CKK2","St. Brieux","St. Brieux","Canada","CAN",52.65,-104.86666666666666,"{""type"":""Point"",""coordinates"":[-104.86666666666666,52.65]}"
"CEJ3","Stettler","Stettler","Canada","CAN",52.309999999999995,-112.7538888888889,"{""type"":""Point"",""coordinates"":[-112.7538888888889,52.309999999999995]}"
"CKJ9","Lemberg","Lemberg","Canada","CAN",50.70888888888889,-103.19666666666667,"{""type"":""Point"",""coordinates"":[-103.19666666666667,50.70888888888889]}"
"CFX8","Kirkby Field","Chestermere","Canada","CAN",51.041666666666664,-113.75166666666667,"{""type"":""Point"",""coordinates"":[-113.75166666666667,51.041666666666664]}"
"CKJ8","Molson Lake","Molson Lake","Canada","CAN",54.25805555555556,-97.0111111111111,"{""type"":""Point"",""coordinates"":[-97.0111111111111,54.25805555555556]}"
"CKH3","Debden","Debden","Canada","CAN",53.53194444444444,-106.88388888888889,"{""type"":""Point"",""coordinates"":[-106.88388888888889,53.53194444444444]}"
"CKH2","Rocanville","Rocanville","Canada","CAN",50.46472222222223,-101.55444444444444,"{""type"":""Point"",""coordinates"":[-101.55444444444444,50.46472222222223]}"
"CKF4","Goodsoil","Goodsoil","Canada","CAN",54.416666666666664,-109.23333333333333,"{""type"":""Point"",""coordinates"":[-109.23333333333333,54.416666666666664]}"
"CKE8","Unity","Unity","Canada","CAN",52.44583333333333,-109.18527777777778,"{""type"":""Point"",""coordinates"":[-109.18527777777778,52.44583333333333]}"
"CYFO","Flin Flon","Flin Flon","Canada","CAN",54.678063888888886,-101.68188055555557,"{""type"":""Point"",""coordinates"":[-101.68188055555557,54.678063888888886]}"
"CKD5","Kipling","Kipling","Canada","CAN",50.09916666666667,-102.60666666666665,"{""type"":""Point"",""coordinates"":[-102.60666666666665,50.09916666666667]}"
"CKD2","Porcupine Plain","Porcupine Plain","Canada","CAN",52.61972222222222,-103.24777777777778,"{""type"":""Point"",""coordinates"":[-103.24777777777778,52.61972222222222]}"
"CKC8","Somerset","Somerset","Canada","CAN",49.4,-98.7,"{""type"":""Point"",""coordinates"":[-98.7,49.4]}"
"CKC6","Lanigan","Lanigan","Canada","CAN",51.84527777777778,-104.99222222222222,"{""type"":""Point"",""coordinates"":[-104.99222222222222,51.84527777777778]}"
"CYTQ","Tasiujaq","Tasiujaq","Canada","CAN",58.66766111111111,-69.95578611111111,"{""type"":""Point"",""coordinates"":[-69.95578611111111,58.66766111111111]}"
"CEN4","High River","High River","Canada","CAN",50.53333333333333,-113.83333333333333,"{""type"":""Point"",""coordinates"":[-113.83333333333333,50.53333333333333]}"
"CKP2","Spring Valley North","Spring Valley","Canada","CAN",50.059999999999995,-105.40194444444445,"{""type"":""Point"",""coordinates"":[-105.40194444444445,50.059999999999995]}"
"CKB8","Silver Falls","Silver Falls","Canada","CAN",50.5,-96.09805555555555,"{""type"":""Point"",""coordinates"":[-96.09805555555555,50.5]}"
"CFB3","Hespero","Hespero","Canada","CAN",52.3,-114.46361111111112,"{""type"":""Point"",""coordinates"":[-114.46361111111112,52.3]}"
"CTA4","St Bruno De Guigues","St Bruno De Guigues","Canada","CAN",47.44929166666666,-79.41797777777778,"{""type"":""Point"",""coordinates"":[-79.41797777777778,47.44929166666666]}"
"CAH4","Valemount","Valemount","Canada","CAN",52.85275,-119.3362611111111,"{""type"":""Point"",""coordinates"":[-119.3362611111111,52.85275]}"
"CKB7","Roblin","Roblin","Canada","CAN",51.23444444444444,-101.39250000000001,"{""type"":""Point"",""coordinates"":[-101.39250000000001,51.23444444444444]}"
"CEP6","Warner","Warner","Canada","CAN",49.2934,-112.18913333333333,"{""type"":""Point"",""coordinates"":[-112.18913333333333,49.2934]}"
"CKA4","Zhoda","Zhoda","Canada","CAN",49.280833333333334,-96.50111111111111,"{""type"":""Point"",""coordinates"":[-96.50111111111111,49.280833333333334]}"
"CJZ4","Shellbrook","Shellbrook","Canada","CAN",53.233333333333334,-106.36666666666666,"{""type"":""Point"",""coordinates"":[-106.36666666666666,53.233333333333334]}"
"CEL5","Valleyview","Valleyview","Canada","CAN",55.0325,-117.29583333333333,"{""type"":""Point"",""coordinates"":[-117.29583333333333,55.0325]}"
"CFV3","Mobil Bistcho","Mobil Bistcho","Canada","CAN",59.483333333333334,-119.01666666666667,"{""type"":""Point"",""coordinates"":[-119.01666666666667,59.483333333333334]}"
"CJK2","Gunisao Lake","Gunisao Lake","Canada","CAN",53.519999999999996,-96.3711111111111,"{""type"":""Point"",""coordinates"":[-96.3711111111111,53.519999999999996]}"
"CKF2","Radville","Radville","Canada","CAN",49.46055555555556,-104.27166666666666,"{""type"":""Point"",""coordinates"":[-104.27166666666666,49.46055555555556]}"
"CJY5","Strathclair","Strathclair","Canada","CAN",50.39611111111111,-100.42527777777778,"{""type"":""Point"",""coordinates"":[-100.42527777777778,50.39611111111111]}"
"CNJ4","Orillia","Orillia","Canada","CAN",44.68333333333333,-79.31666666666666,"{""type"":""Point"",""coordinates"":[-79.31666666666666,44.68333333333333]}"
"CJY4","Sandy Bay","Sandy Bay","Canada","CAN",55.54547222222222,-102.27193333333334,"{""type"":""Point"",""coordinates"":[-102.27193333333334,55.54547222222222]}"
"CJX5","Souris Glenwood Industrial Air Park","Souris Glenwood Industrial Air Park","Canada","CAN",49.63333333333333,-100.2,"{""type"":""Point"",""coordinates"":[-100.2,49.63333333333333]}"
"CJX4","Rosetown","Rosetown","Canada","CAN",51.56444444444444,-107.91833333333334,"{""type"":""Point"",""coordinates"":[-107.91833333333334,51.56444444444444]}"
"CSP3","Lichtner Farms","Stony Plain","Canada","CAN",53.5375,-114.06833333333333,"{""type"":""Point"",""coordinates"":[-114.06833333333333,53.5375]}"
"CJV9","Melville Mun","Melville","Canada","CAN",50.94138888888889,-102.73777777777778,"{""type"":""Point"",""coordinates"":[-102.73777777777778,50.94138888888889]}"
"CJV8","Grand Rapids","Grand Rapids","Canada","CAN",53.172580555555555,-99.32298888888889,"{""type"":""Point"",""coordinates"":[-99.32298888888889,53.172580555555555]}"
"CJV7","Summer Beaver","Summer Beaver","Canada","CAN",52.70872777777778,-88.54206944444444,"{""type"":""Point"",""coordinates"":[-88.54206944444444,52.70872777777778]}"
"CKK7","Steinbach (South)","Steinbach","Canada","CAN",49.49397777777778,-96.69893333333334,"{""type"":""Point"",""coordinates"":[-96.69893333333334,49.49397777777778]}"
"CSZ4","St Frederic","St Frederic","Canada","CAN",46.331472222222224,-70.960875,"{""type"":""Point"",""coordinates"":[-70.960875,46.331472222222224]}"
"CJT9","Leoville","Leoville","Canada","CAN",53.620555555555555,-107.60944444444443,"{""type"":""Point"",""coordinates"":[-107.60944444444443,53.620555555555555]}"
"CYHN","Hornepayne Mun","Hornepayne","Canada","CAN",49.19308333333333,-84.7593611111111,"{""type"":""Point"",""coordinates"":[-84.7593611111111,49.19308333333333]}"
"CTQ2","Weller","Stanstead","Canada","CAN",45.03444444444444,-72.035,"{""type"":""Point"",""coordinates"":[-72.035,45.03444444444444]}"
"CKB2","Patuanak","Patuanak","Canada","CAN",55.899119444444445,-107.71934722222223,"{""type"":""Point"",""coordinates"":[-107.71934722222223,55.899119444444445]}"
"CZLQ","Thicket Portage","Thicket Portage","Canada","CAN",55.31896944444445,-97.70777222222223,"{""type"":""Point"",""coordinates"":[-97.70777222222223,55.31896944444445]}"
"CBC2","Ford Bay","Ford Bay","Canada","CAN",66.0375,-124.715,"{""type"":""Point"",""coordinates"":[-124.715,66.0375]}"
"CJT8","Homewood","Homewood","Canada","CAN",49.509166666666665,-97.85055555555554,"{""type"":""Point"",""coordinates"":[-97.85055555555554,49.509166666666665]}"
"CJT5","Melita","Melita","Canada","CAN",49.26166666666666,-101.01388888888889,"{""type"":""Point"",""coordinates"":[-101.01388888888889,49.26166666666666]}"
"CBX3","Chilanko Lodge","Kleena Kleene","Canada","CAN",51.95,-124.88333333333334,"{""type"":""Point"",""coordinates"":[-124.88333333333334,51.95]}"
"CJT4","Cumberland House","Cumberland House","Canada","CAN",53.95616666666667,-102.29833333333333,"{""type"":""Point"",""coordinates"":[-102.29833333333333,53.95616666666667]}"
"CJS4","Moose Jaw Mun","Moose Jaw","Canada","CAN",50.43469444444444,-105.38767222222224,"{""type"":""Point"",""coordinates"":[-105.38767222222224,50.43469444444444]}"
"CYTA","Pembroke","Pembroke","Canada","CAN",45.8645,-77.25146944444444,"{""type"":""Point"",""coordinates"":[-77.25146944444444,45.8645]}"
"CJB8","Kyle","Kyle","Canada","CAN",50.833333333333336,-108.07,"{""type"":""Point"",""coordinates"":[-108.07,50.833333333333336]}"
"CHC5","Hayes Camp","Hayes Camp","Canada","CAN",66.65166666666667,-91.54416666666667,"{""type"":""Point"",""coordinates"":[-91.54416666666667,66.65166666666667]}"
"CKW6","Davin Lake","Davin Lake","Canada","CAN",56.88333333333333,-103.58333333333333,"{""type"":""Point"",""coordinates"":[-103.58333333333333,56.88333333333333]}"
"CNZ4","Madawaska Valley","Barry's Bay","Canada","CAN",45.5,-77.65,"{""type"":""Point"",""coordinates"":[-77.65,45.5]}"
"CJR2","Luseland","Luseland","Canada","CAN",52.07,-109.37444444444444,"{""type"":""Point"",""coordinates"":[-109.37444444444444,52.07]}"
"CYBC","Baie-Comeau","Baie-Comeau","Canada","CAN",49.13249722222222,-68.20435,"{""type"":""Point"",""coordinates"":[-68.20435,49.13249722222222]}"
"CJQ9","Big Sand Lake","Big Sand Lake","Canada","CAN",57.62,-99.87527777777777,"{""type"":""Point"",""coordinates"":[-99.87527777777777,57.62]}"
"CYAQ","Kasabonika","Kasabonika","Canada","CAN",53.52476111111111,-88.64294444444445,"{""type"":""Point"",""coordinates"":[-88.64294444444445,53.52476111111111]}"
"CJQ2","Lampman","Lampman","Canada","CAN",49.37186666666667,-102.76328055555555,"{""type"":""Point"",""coordinates"":[-102.76328055555555,49.37186666666667]}"
"CRG3","Carignan (Bouthillier)","Carignan","Canada","CAN",45.47777777777778,-73.30138888888888,"{""type"":""Point"",""coordinates"":[-73.30138888888888,45.47777777777778]}"
"CJP9","Charlot River","Charlot River","Canada","CAN",59.60166666666667,-109.1375,"{""type"":""Point"",""coordinates"":[-109.1375,59.60166666666667]}"
"CFP7","Wainwright(Field 21)","Wainwright","Canada","CAN",52.830555555555556,-111.10055555555554,"{""type"":""Point"",""coordinates"":[-111.10055555555554,52.830555555555556]}"
"CPS5","Miminiska","Miminiska","Canada","CAN",51.60444444444445,-88.58222222222221,"{""type"":""Point"",""coordinates"":[-88.58222222222221,51.60444444444445]}"
"CJP6","Camsell Portage","Camsell Portage","Canada","CAN",59.61,-109.26694444444445,"{""type"":""Point"",""coordinates"":[-109.26694444444445,59.61]}"
"CJP2","Kerrobert","Kerrobert","Canada","CAN",51.926944444444445,-109.12944444444443,"{""type"":""Point"",""coordinates"":[-109.12944444444443,51.926944444444445]}"
"CAL4","Albian","Fort Mackay","Canada","CAN",57.22395277777778,-111.41893333333334,"{""type"":""Point"",""coordinates"":[-111.41893333333334,57.22395277777778]}"
"CTP9","Donaldson","Kattiniq","Canada","CAN",61.66223333333333,-73.32133888888889,"{""type"":""Point"",""coordinates"":[-73.32133888888889,61.66223333333333]}"
"CJN2","Kamsack","Kamsack","Canada","CAN",51.55972222222222,-101.87888888888888,"{""type"":""Point"",""coordinates"":[-101.87888888888888,51.55972222222222]}"
"CYGE","Golden","Golden","Canada","CAN",51.29918611111111,-116.98212222222223,"{""type"":""Point"",""coordinates"":[-116.98212222222223,51.29918611111111]}"
"CYCL","Charlo","Charlo","Canada","CAN",47.99095,-66.33039444444444,"{""type"":""Point"",""coordinates"":[-66.33039444444444,47.99095]}"
"CTB6","Tete-A-La-Baleine","Tete-A-La-Baleine","Canada","CAN",50.67444444444444,-59.38361111111111,"{""type"":""Point"",""coordinates"":[-59.38361111111111,50.67444444444444]}"
"CAY2","Gang Ranch","Gang Ranch","Canada","CAN",51.55166666666666,-122.32694444444444,"{""type"":""Point"",""coordinates"":[-122.32694444444444,51.55166666666666]}"
"CPC2","Port Carling","Port Carling","Canada","CAN",45.09279166666667,-79.59726388888889,"{""type"":""Point"",""coordinates"":[-79.59726388888889,45.09279166666667]}"
"CCM3","Sevogle","Sevogle","Canada","CAN",47.18333333333333,-66.15,"{""type"":""Point"",""coordinates"":[-66.15,47.18333333333333]}"
"CFX2","Okotoks Air Park","Calgary","Canada","CAN",50.73386111111111,-113.93433333333334,"{""type"":""Point"",""coordinates"":[-113.93433333333334,50.73386111111111]}"
"CJM5","Frontier","Frontier","Canada","CAN",49.166666666666664,-108.56666666666666,"{""type"":""Point"",""coordinates"":[-108.56666666666666,49.166666666666664]}"
"CYPQ","Peterborough","Peterborough","Canada","CAN",44.230536111111114,-78.36319444444445,"{""type"":""Point"",""coordinates"":[-78.36319444444445,44.230536111111114]}"
"CST3","St Lazare","Montreal","Canada","CAN",45.3925,-74.13416666666667,"{""type"":""Point"",""coordinates"":[-74.13416666666667,45.3925]}"
"CYPZ","Burns Lake","Burns Lake","Canada","CAN",54.37646111111111,-125.95137777777778,"{""type"":""Point"",""coordinates"":[-125.95137777777778,54.37646111111111]}"
"CJL2","Hatchet Lake","Hatchet Lake Lodge","Canada","CAN",58.66251388888889,-103.53833611111111,"{""type"":""Point"",""coordinates"":[-103.53833611111111,58.66251388888889]}"
"CJK5","Gull Lake","Gull Lake","Canada","CAN",50.05777777777777,-108.49,"{""type"":""Point"",""coordinates"":[-108.49,50.05777777777777]}"
"CJZ3","Melfort (Miller Field)","Melfort","Canada","CAN",52.86445,-104.70094166666667,"{""type"":""Point"",""coordinates"":[-104.70094166666667,52.86445]}"
"CFS8","Clearwater River","Clearwater River","Canada","CAN",51.988055555555555,-115.22833333333334,"{""type"":""Point"",""coordinates"":[-115.22833333333334,51.988055555555555]}"
"CER2","Castor","Castor","Canada","CAN",52.21666666666667,-111.93333333333334,"{""type"":""Point"",""coordinates"":[-111.93333333333334,52.21666666666667]}"
"CYAV","St Andrews","Winnipeg","Canada","CAN",50.05624444444444,-97.03253055555555,"{""type"":""Point"",""coordinates"":[-97.03253055555555,50.05624444444444]}"
"CPE4","Reid's","Cambridge","Canada","CAN",43.44277777777778,-80.23222222222222,"{""type"":""Point"",""coordinates"":[-80.23222222222222,43.44277777777778]}"
"CAV3","One Hundred Mile House","One Hundred Mile House","Canada","CAN",51.6425,-121.30694444444444,"{""type"":""Point"",""coordinates"":[-121.30694444444444,51.6425]}"
"CBL9","Elkin Creek Guest Ranch","Elkin Creek","Canada","CAN",51.51277777777778,-123.80444444444444,"{""type"":""Point"",""coordinates"":[-123.80444444444444,51.51277777777778]}"
"CJJ3","Loche Mist Farms","Wildwood","Canada","CAN",53.546499999999995,-115.26066666666667,"{""type"":""Point"",""coordinates"":[-115.26066666666667,53.546499999999995]}"
"CJH7","Beechy","Beechy","Canada","CAN",50.833333333333336,-107.37222222222222,"{""type"":""Point"",""coordinates"":[-107.37222222222222,50.833333333333336]}"
"CRT2","Riviere Temiscamie (Air Roberval Ltee)","Riviere Temiscamie","Canada","CAN",51.009058333333336,-72.984025,"{""type"":""Point"",""coordinates"":[-72.984025,51.009058333333336]}"
"CYNE","Norway House","Norway House","Canada","CAN",53.958286111111114,-97.8441611111111,"{""type"":""Point"",""coordinates"":[-97.8441611111111,53.958286111111114]}"
"CJF3","Ile-A-La-Crosse","Ile-A-La-Crosse","Canada","CAN",55.489666666666665,-107.93083333333334,"{""type"":""Point"",""coordinates"":[-107.93083333333334,55.489666666666665]}"
"CJE7","Ashern","Ashern","Canada","CAN",51.15861111111111,-98.33194444444445,"{""type"":""Point"",""coordinates"":[-98.33194444444445,51.15861111111111]}"
"CJE3","Weyburn","Weyburn","Canada","CAN",49.697491666666664,-103.80071944444444,"{""type"":""Point"",""coordinates"":[-103.80071944444444,49.697491666666664]}"
"CJD5","Leader","Leader","Canada","CAN",50.87722222222222,-109.50055555555555,"{""type"":""Point"",""coordinates"":[-109.50055555555555,50.87722222222222]}"
"CMF2","Calmar","Edmonton","Canada","CAN",53.18444444444444,-113.73944444444444,"{""type"":""Point"",""coordinates"":[-113.73944444444444,53.18444444444444]}"
"CJD2","Cudworth Mun","Cudworth Mun","Canada","CAN",52.483333333333334,-105.71722222222222,"{""type"":""Point"",""coordinates"":[-105.71722222222222,52.483333333333334]}"
"CFB6","Josephburg","Edmonton","Canada","CAN",53.72806111111111,-113.08719722222222,"{""type"":""Point"",""coordinates"":[-113.08719722222222,53.72806111111111]}"
"CDV2","Downs Gulch","Downs Gulch","Canada","CAN",47.75295277777778,-67.42655555555557,"{""type"":""Point"",""coordinates"":[-67.42655555555557,47.75295277777778]}"
"CJC5","Shaunavon","Shaunavon","Canada","CAN",49.658325,-108.40592222222223,"{""type"":""Point"",""coordinates"":[-108.40592222222223,49.658325]}"
"CJC3","Davidson Muni","Davidson","Canada","CAN",51.24777777777778,-105.97638888888889,"{""type"":""Point"",""coordinates"":[-105.97638888888889,51.24777777777778]}"
"CDA5","St Andrews (Codroy Valley)","St Andrews","Canada","CAN",47.77552222222222,-59.31258611111111,"{""type"":""Point"",""coordinates"":[-59.31258611111111,47.77552222222222]}"
"CAJ7","A. J. Flying Ranch","Cayley","Canada","CAN",50.45366666666667,-113.747325,"{""type"":""Point"",""coordinates"":[-113.747325,50.45366666666667]}"
"CJB5","Marshall McLeod","Moosomin","Canada","CAN",50.16861111111111,-101.64416666666668,"{""type"":""Point"",""coordinates"":[-101.64416666666668,50.16861111111111]}"
"CZWH","Lac Brochet","Lac Brochet","Canada","CAN",58.61428055555556,-101.46896111111111,"{""type"":""Point"",""coordinates"":[-101.46896111111111,58.61428055555556]}"
"CYAS","Kangirsuk","Kangirsuk","Canada","CAN",60.027252777777775,-69.99917777777777,"{""type"":""Point"",""coordinates"":[-69.99917777777777,60.027252777777775]}"
"CJB2","Friendship","Carman","Canada","CAN",49.49138888888889,-98.01861111111111,"{""type"":""Point"",""coordinates"":[-98.01861111111111,49.49138888888889]}"
"CCY4","East Gore Eco","East Gore","Canada","CAN",45.11666666666667,-63.7,"{""type"":""Point"",""coordinates"":[-63.7,45.11666666666667]}"
"CJA7","Arcola","Arcola","Canada","CAN",49.63333333333333,-102.48333333333333,"{""type"":""Point"",""coordinates"":[-102.48333333333333,49.63333333333333]}"
"CYAX","Lac Du Bonnet","Lac Du Bonnet","Canada","CAN",50.29473055555555,-96.00996944444445,"{""type"":""Point"",""coordinates"":[-96.00996944444445,50.29473055555555]}"
"CJJ5","Cabri","Cabri","Canada","CAN",50.61944444444445,-108.46611111111112,"{""type"":""Point"",""coordinates"":[-108.46611111111112,50.61944444444445]}"
"CJA3","Morden Regional","Morden","Canada","CAN",49.21053888888889,-98.06043055555556,"{""type"":""Point"",""coordinates"":[-98.06043055555556,49.21053888888889]}"
"CYYC","Calgary Intl","Calgary","Canada","CAN",51.12261388888889,-114.01334722222222,"{""type"":""Point"",""coordinates"":[-114.01334722222222,51.12261388888889]}"
"CDU6","Doaktown","Doaktown","Canada","CAN",46.55241944444444,-66.09392777777778,"{""type"":""Point"",""coordinates"":[-66.09392777777778,46.55241944444444]}"
"CJQ4","Maple Creek","Maple Creek","Canada","CAN",49.89650833333333,-109.47595833333334,"{""type"":""Point"",""coordinates"":[-109.47595833333334,49.89650833333333]}"
"CCZ5","Thorburn","Thorburn","Canada","CAN",45.56055555555555,-62.594722222222224,"{""type"":""Point"",""coordinates"":[-62.594722222222224,45.56055555555555]}"
"CHS3","Hillspring","Hillspring","Canada","CAN",49.336666666666666,-113.57333333333332,"{""type"":""Point"",""coordinates"":[-113.57333333333332,49.336666666666666]}"
"CPA4","Simcoe (Dennison Field)","Simcoe","Canada","CAN",42.81916666666667,-80.26583333333333,"{""type"":""Point"",""coordinates"":[-80.26583333333333,42.81916666666667]}"
"CNP7","Iroquois","Iroquois","Canada","CAN",44.841944444444444,-75.31222222222222,"{""type"":""Point"",""coordinates"":[-75.31222222222222,44.841944444444444]}"
"CCF6","Morinville (Currie Field)","Edmonton","Canada","CAN",53.819722222222225,-113.76083333333334,"{""type"":""Point"",""coordinates"":[-113.76083333333334,53.819722222222225]}"
"CHL2","Kings","Hillaton","Canada","CAN",45.14268055555556,-64.42275000000001,"{""type"":""Point"",""coordinates"":[-64.42275000000001,45.14268055555556]}"
"CTF3","Causapscal","Causapscal","Canada","CAN",48.311388888888885,-67.25138888888888,"{""type"":""Point"",""coordinates"":[-67.25138888888888,48.311388888888885]}"
"CJS5","Killarney Mun","Killarney","Canada","CAN",49.151666666666664,-99.69027777777778,"{""type"":""Point"",""coordinates"":[-99.69027777777778,49.151666666666664]}"
"CHF3","Westlock","Westlock","Canada","CAN",54.206725000000006,-114.12059166666666,"{""type"":""Point"",""coordinates"":[-114.12059166666666,54.206725000000006]}"
"CFY2","Grist Lake","Grist Lake","Canada","CAN",55.4,-110.48333333333333,"{""type"":""Point"",""coordinates"":[-110.48333333333333,55.4]}"
"CYLQ","La Tuque","La Tuque","Canada","CAN",47.40972222222222,-72.78888888888889,"{""type"":""Point"",""coordinates"":[-72.78888888888889,47.40972222222222]}"
"CBX7","Tumbler Ridge","Tumbler Ridge","Canada","CAN",55.02734722222222,-120.93100000000001,"{""type"":""Point"",""coordinates"":[-120.93100000000001,55.02734722222222]}"
"CEE5","Wabasca","Wabasca","Canada","CAN",55.96145277777778,-113.81828055555555,"{""type"":""Point"",""coordinates"":[-113.81828055555555,55.96145277777778]}"
"CHF2","Manotick (Hope)","Ottawa","Canada","CAN",45.190555555555555,-75.70861111111111,"{""type"":""Point"",""coordinates"":[-75.70861111111111,45.190555555555555]}"
"CSJ4","Louiseville","Louiseville","Canada","CAN",46.24611111111111,-72.90444444444445,"{""type"":""Point"",""coordinates"":[-72.90444444444445,46.24611111111111]}"
"CJQ6","Tanquary Fiord","Tanquary Fiord","Canada","CAN",81.40944444444445,-76.88166666666666,"{""type"":""Point"",""coordinates"":[-76.88166666666666,81.40944444444445]}"
"CAD5","Merritt","Merritt","Canada","CAN",50.12361111111111,-120.74388888888889,"{""type"":""Point"",""coordinates"":[-120.74388888888889,50.12361111111111]}"
"CEA5","Hardisty","Hardisty","Canada","CAN",52.64694444444444,-111.38416666666667,"{""type"":""Point"",""coordinates"":[-111.38416666666667,52.64694444444444]}"
"CHB3","Hope Bay","Hope Bay","Canada","CAN",68.1639638888889,-106.614325,"{""type"":""Point"",""coordinates"":[-106.614325,68.1639638888889]}"
"CNM5","Kingfisher Lake","Kingfisher Lake","Canada","CAN",53.01249444444444,-89.85518055555555,"{""type"":""Point"",""coordinates"":[-89.85518055555555,53.01249444444444]}"
"CEV9","Snare River","Snare River","Canada","CAN",63.43333333333333,-116.18333333333334,"{""type"":""Point"",""coordinates"":[-116.18333333333334,63.43333333333333]}"
"CYQM","Greater Moncton Intl","Moncton","Canada","CAN",46.11609444444444,-64.67860555555556,"{""type"":""Point"",""coordinates"":[-64.67860555555556,46.11609444444444]}"
"CGS2","Goose Lake","Goose Lake","Canada","CAN",65.55180833333333,-106.43636666666667,"{""type"":""Point"",""coordinates"":[-106.43636666666667,65.55180833333333]}"
"CYSC","Sherbrooke","Sherbrooke","Canada","CAN",45.43848055555555,-71.69135277777778,"{""type"":""Point"",""coordinates"":[-71.69135277777778,45.43848055555555]}"
"CGL2","Harrow","Harrow","Canada","CAN",42.059444444444445,-82.84083333333332,"{""type"":""Point"",""coordinates"":[-82.84083333333332,42.059444444444445]}"
"CYFR","Ft Resolution","Ft Resolution","Canada","CAN",61.18080833333333,-113.68965277777778,"{""type"":""Point"",""coordinates"":[-113.68965277777778,61.18080833333333]}"
"CMB2","Meadowbank","Meadowbank","Canada","CAN",65.02500277777777,-96.07101944444445,"{""type"":""Point"",""coordinates"":[-96.07101944444445,65.02500277777777]}"
"CGK2","Gahcho Kue","Gahcho Kue","Canada","CAN",63.43474166666666,-109.17501944444444,"{""type"":""Point"",""coordinates"":[-109.17501944444444,63.43474166666666]}"
"CYPH","Inukjuak","Inukjuak","Canada","CAN",58.47193055555556,-78.07701388888889,"{""type"":""Point"",""coordinates"":[-78.07701388888889,58.47193055555556]}"
"CSC3","Drummondville","St-Nicephore","Canada","CAN",45.84569722222223,-72.39506111111112,"{""type"":""Point"",""coordinates"":[-72.39506111111112,45.84569722222223]}"
"CGF2","Lechelt","Edmonton","Canada","CAN",53.57638888888889,-112.98083333333334,"{""type"":""Point"",""coordinates"":[-112.98083333333334,53.57638888888889]}"
"CBJ6","Pointed Mountain","Pointed Mountain","Canada","CAN",60.333333333333336,-123.83333333333333,"{""type"":""Point"",""coordinates"":[-123.83333333333333,60.333333333333336]}"
"CJJ8","Macklin","Macklin","Canada","CAN",52.34277777777778,-109.91888888888889,"{""type"":""Point"",""coordinates"":[-109.91888888888889,52.34277777777778]}"
"CKF6","Mac Gregor","Mac Gregor","Canada","CAN",49.96743888888889,-98.76029722222222,"{""type"":""Point"",""coordinates"":[-98.76029722222222,49.96743888888889]}"
"CAL8","Ste-Anne-Du-Lac (Aviation PLMG Inc)","Ste-Anne-Du-Lac","Canada","CAN",46.88444444444444,-75.33277777777778,"{""type"":""Point"",""coordinates"":[-75.33277777777778,46.88444444444444]}"
"CTM7","Tundra Mine/Salmita Mine","Tundra Mine/Salmita Mine","Canada","CAN",64.07277777777777,-111.16333333333334,"{""type"":""Point"",""coordinates"":[-111.16333333333334,64.07277777777777]}"
"CJB6","Gods Lake","Gods Lake","Canada","CAN",54.77916666666667,-93.71694444444445,"{""type"":""Point"",""coordinates"":[-93.71694444444445,54.77916666666667]}"
"CFA7","Taltheilei Narrows","Great Slave Lake Lodge","Canada","CAN",62.59719722222223,-111.54135,"{""type"":""Point"",""coordinates"":[-111.54135,62.59719722222223]}"
"CGB2","Bishell's","Carstairs","Canada","CAN",51.58277777777778,-114.05194444444444,"{""type"":""Point"",""coordinates"":[-114.05194444444444,51.58277777777778]}"
"CFR5","Alban","French River","Canada","CAN",46.09324166666667,-80.60403888888888,"{""type"":""Point"",""coordinates"":[-80.60403888888888,46.09324166666667]}"
"CRE2","Edzo","Rae","Canada","CAN",62.766666666666666,-116.08361111111111,"{""type"":""Point"",""coordinates"":[-116.08361111111111,62.766666666666666]}"
"CKA8","St Francois Xavier","St Francois Xavier","Canada","CAN",49.92444444444444,-97.54888888888888,"{""type"":""Point"",""coordinates"":[-97.54888888888888,49.92444444444444]}"
"CFW4","Muskeg Tower","Muskeg Tower","Canada","CAN",57.1375,-110.89250000000001,"{""type"":""Point"",""coordinates"":[-110.89250000000001,57.1375]}"
"CYET","Edson","Edson","Canada","CAN",53.57893333333334,-116.46505833333333,"{""type"":""Point"",""coordinates"":[-116.46505833333333,53.57893333333334]}"
"CPG4","Elmira (East)","Elmira","Canada","CAN",43.591944444444444,-80.51222222222222,"{""type"":""Point"",""coordinates"":[-80.51222222222222,43.591944444444444]}"
"CYYZ","Lester B Pearson Intl","Toronto","Canada","CAN",43.67666111111111,-79.63064166666666,"{""type"":""Point"",""coordinates"":[-79.63064166666666,43.67666111111111]}"
"CFV2","Beiseker","Beiseker","Canada","CAN",51.39333333333333,-113.47194444444445,"{""type"":""Point"",""coordinates"":[-113.47194444444445,51.39333333333333]}"
"CYNM","Matagami","Matagami","Canada","CAN",49.76177222222222,-77.80270555555555,"{""type"":""Point"",""coordinates"":[-77.80270555555555,49.76177222222222]}"
"CFM4","Donnelly","Donnelly","Canada","CAN",55.70934444444445,-117.09390555555555,"{""type"":""Point"",""coordinates"":[-117.09390555555555,55.70934444444445]}"
"CLM2","Leamington","Leamington","Canada","CAN",42.02478333333333,-82.52503333333333,"{""type"":""Point"",""coordinates"":[-82.52503333333333,42.02478333333333]}"
"CYDC","Princeton","Princeton","Canada","CAN",49.46788611111111,-120.51247222222223,"{""type"":""Point"",""coordinates"":[-120.51247222222223,49.46788611111111]}"
"CFU4","Garden River","Garden River","Canada","CAN",58.71388888888889,-113.8761111111111,"{""type"":""Point"",""coordinates"":[-113.8761111111111,58.71388888888889]}"
"CJM4","Gravelbourg","Gravelbourg","Canada","CAN",49.86666666666667,-106.56666666666666,"{""type"":""Point"",""coordinates"":[-106.56666666666666,49.86666666666667]}"
"CJW4","Pelican Narrows","Pelican Narrows","Canada","CAN",55.287238888888886,-102.74946111111112,"{""type"":""Point"",""coordinates"":[-102.74946111111112,55.287238888888886]}"
"CAY5","Sargeant Private","Ayr","Canada","CAN",43.30583333333333,-80.49916666666667,"{""type"":""Point"",""coordinates"":[-80.49916666666667,43.30583333333333]}"
"CFT9","Zama Lake","Zama Lake","Canada","CAN",59.06401944444444,-118.88968055555556,"{""type"":""Point"",""coordinates"":[-118.88968055555556,59.06401944444444]}"
"CYBE","Uranium City","Uranium City","Canada","CAN",59.561388888888885,-108.48138888888889,"{""type"":""Point"",""coordinates"":[-108.48138888888889,59.561388888888885]}"
"CFT8","Pelican","Pelican","Canada","CAN",56.160805555555555,-113.47361666666667,"{""type"":""Point"",""coordinates"":[-113.47361666666667,56.160805555555555]}"
"CFT5","Hyland","Hyland","Canada","CAN",61.52388888888889,-128.26972222222224,"{""type"":""Point"",""coordinates"":[-128.26972222222224,61.52388888888889]}"
"CCC2","Winterland","Winterland","Canada","CAN",47.137058333333336,-55.32915277777778,"{""type"":""Point"",""coordinates"":[-55.32915277777778,47.137058333333336]}"
"CLC2","Chapeskie","London","Canada","CAN",43.068333333333335,-81.12555555555555,"{""type"":""Point"",""coordinates"":[-81.12555555555555,43.068333333333335]}"
"CYVD","R J (Bob) Andrew Regl","Virden","Canada","CAN",49.87820833333333,-100.91821111111112,"{""type"":""Point"",""coordinates"":[-100.91821111111112,49.87820833333333]}"
"CYBL","Campbell River","Campbell River","Canada","CAN",49.95203888888889,-125.27305,"{""type"":""Point"",""coordinates"":[-125.27305,49.95203888888889]}"
"CJV5","Neepawa","Neepawa","Canada","CAN",50.232575000000004,-99.51007777777778,"{""type"":""Point"",""coordinates"":[-99.51007777777778,50.232575000000004]}"
"CEF3","Bow Island","Bow Island","Canada","CAN",49.88333333333333,-111.33333333333333,"{""type"":""Point"",""coordinates"":[-111.33333333333333,49.88333333333333]}"
"CJK9","Preeceville","Preeceville","Canada","CAN",51.95,-102.65,"{""type"":""Point"",""coordinates"":[-102.65,51.95]}"
"CYNC","Wemindji","Wemindji","Canada","CAN",53.01060277777778,-78.83121388888888,"{""type"":""Point"",""coordinates"":[-78.83121388888888,53.01060277777778]}"
"CJE4","Snow Lake","Snow Lake","Canada","CAN",54.89722222222222,-99.81888888888888,"{""type"":""Point"",""coordinates"":[-99.81888888888888,54.89722222222222]}"
"CAF2","Cayuga East","Cayuga","Canada","CAN",42.960319444444444,-79.78829166666667,"{""type"":""Point"",""coordinates"":[-79.78829166666667,42.960319444444444]}"
"CFT2","Wilderman Farm","Blackie","Canada","CAN",50.552499999999995,-113.59666666666666,"{""type"":""Point"",""coordinates"":[-113.59666666666666,50.552499999999995]}"
"CYHU","St-Hubert","Montreal","Canada","CAN",45.51805833333333,-73.41699444444446,"{""type"":""Point"",""coordinates"":[-73.41699444444446,45.51805833333333]}"
"CSS3","Les Cedres","Montreal","Canada","CAN",45.347500000000004,-74.07666666666667,"{""type"":""Point"",""coordinates"":[-74.07666666666667,45.347500000000004]}"
"CYSL","St Leonard","St Leonard","Canada","CAN",47.15729722222222,-67.83631388888888,"{""type"":""Point"",""coordinates"":[-67.83631388888888,47.15729722222222]}"
"CKU2","Treherne","Treherne","Canada","CAN",49.63111111111111,-98.66638888888889,"{""type"":""Point"",""coordinates"":[-98.66638888888889,49.63111111111111]}"
"CFR7","Red Deer Forestry","Red Deer Forestry","Canada","CAN",51.65138888888889,-115.23916666666666,"{""type"":""Point"",""coordinates"":[-115.23916666666666,51.65138888888889]}"
"CYAD","La Grande-3","Sakami","Canada","CAN",53.571783333333336,-76.19628888888889,"{""type"":""Point"",""coordinates"":[-76.19628888888889,53.571783333333336]}"
"CFQ7","Gartner","Edmonton","Canada","CAN",53.281666666666666,-113.455,"{""type"":""Point"",""coordinates"":[-113.455,53.281666666666666]}"
"CKD8","Balsam Lake","Kirkfield","Canada","CAN",44.53988888888889,-78.88863333333335,"{""type"":""Point"",""coordinates"":[-78.88863333333335,44.53988888888889]}"
"CFH8","Zajes","Warburg","Canada","CAN",53.21666666666667,-114.33333333333333,"{""type"":""Point"",""coordinates"":[-114.33333333333333,53.21666666666667]}"
"CZSN","South Indian Lake","South Indian Lake","Canada","CAN",56.792833333333334,-98.90716666666667,"{""type"":""Point"",""coordinates"":[-98.90716666666667,56.792833333333334]}"
"CFQ6","Pelly Crossing","Pelly Crossing","Canada","CAN",62.83750277777778,-136.52769444444445,"{""type"":""Point"",""coordinates"":[-136.52769444444445,62.83750277777778]}"
"CFD4","Foremost","Foremost","Canada","CAN",49.48305555555556,-111.49444444444444,"{""type"":""Point"",""coordinates"":[-111.49444444444444,49.48305555555556]}"
"CSN7","Farnham","Farnham","Canada","CAN",45.285555555555554,-73.00777777777778,"{""type"":""Point"",""coordinates"":[-73.00777777777778,45.285555555555554]}"
"CYSM","Ft Smith","Ft Smith","Canada","CAN",60.020316666666666,-111.96181944444444,"{""type"":""Point"",""coordinates"":[-111.96181944444444,60.020316666666666]}"
"CCG3","Weyman","Weyman","Canada","CAN",46.0375,-66.85888888888888,"{""type"":""Point"",""coordinates"":[-66.85888888888888,46.0375]}"
"CJM2","Ituna","Ituna","Canada","CAN",51.14611111111111,-103.42611111111111,"{""type"":""Point"",""coordinates"":[-103.42611111111111,51.14611111111111]}"
"CKP4","Palestine","Kirkfield","Canada","CAN",44.49,-78.97777777777777,"{""type"":""Point"",""coordinates"":[-78.97777777777777,44.49]}"
"CJP7","Bird River (Lac Du Bonnet)","Bird River","Canada","CAN",50.39666666666667,-95.735,"{""type"":""Point"",""coordinates"":[-95.735,50.39666666666667]}"
"CCD4","Postville","Postville","Canada","CAN",54.91020833333333,-59.78515,"{""type"":""Point"",""coordinates"":[-59.78515,54.91020833333333]}"
"CJU3","Macdonald","Macdonald","Canada","CAN",50.09638888888889,-98.50083333333333,"{""type"":""Point"",""coordinates"":[-98.50083333333333,50.09638888888889]}"
"CYHT","Haines Junction","Haines Junction","Canada","CAN",60.78948888888889,-137.54523333333333,"{""type"":""Point"",""coordinates"":[-137.54523333333333,60.78948888888889]}"
"CRA2","Rollick","Queensville","Canada","CAN",44.14072222222222,-79.48460277777778,"{""type"":""Point"",""coordinates"":[-79.48460277777778,44.14072222222222]}"
"CCW3","Kings Co Mun","Waterville","Canada","CAN",45.05191111111111,-64.65170833333335,"{""type"":""Point"",""coordinates"":[-64.65170833333335,45.05191111111111]}"
"CFN7","Sundre","Sundre","Canada","CAN",51.77466944444444,-114.68096944444444,"{""type"":""Point"",""coordinates"":[-114.68096944444444,51.77466944444444]}"
"CYID","Annapolis Regl","Digby","Canada","CAN",44.54588611111111,-65.78573055555556,"{""type"":""Point"",""coordinates"":[-65.78573055555556,44.54588611111111]}"
"CFN5","La Crete","La Crete","Canada","CAN",58.173005555555555,-116.33425,"{""type"":""Point"",""coordinates"":[-116.33425,58.173005555555555]}"
"CFL4","Smithorrs","Flesherton","Canada","CAN",44.264986111111114,-80.52766666666666,"{""type"":""Point"",""coordinates"":[-80.52766666666666,44.264986111111114]}"
"CDT7","Dutton","Dutton","Canada","CAN",42.65905,-81.51247777777778,"{""type"":""Point"",""coordinates"":[-81.51247777777778,42.65905]}"
"CFK6","Netook","Olds","Canada","CAN",51.85,-114.06666666666666,"{""type"":""Point"",""coordinates"":[-114.06666666666666,51.85]}"
"CFK4","Calling Lake","Calling Lake","Canada","CAN",55.31666666666667,-113.25,"{""type"":""Point"",""coordinates"":[-113.25,55.31666666666667]}"
"CFK3","Fontas","Fontas","Canada","CAN",57.8,-119.45,"{""type"":""Point"",""coordinates"":[-119.45,57.8]}"
"CYYM","Cowley","Cowley","Canada","CAN",49.63638888888889,-114.09444444444443,"{""type"":""Point"",""coordinates"":[-114.09444444444443,49.63638888888889]}"
"CDC4","St-Quentin","St-Quentin","Canada","CAN",47.52108333333333,-67.42155555555556,"{""type"":""Point"",""coordinates"":[-67.42155555555556,47.52108333333333]}"
"CYUY","Rouyn-Noranda","Rouyn-Noranda","Canada","CAN",48.20618888888889,-78.83558611111111,"{""type"":""Point"",""coordinates"":[-78.83558611111111,48.20618888888889]}"
"CFK2","Bashaw","Bashaw","Canada","CAN",52.5575,-112.96472222222222,"{""type"":""Point"",""coordinates"":[-112.96472222222222,52.5575]}"
"CJL6","Altona Mun","Altona","Canada","CAN",49.09444444444445,-97.53388888888888,"{""type"":""Point"",""coordinates"":[-97.53388888888888,49.09444444444445]}"
"CDS2","Disley","Disley","Canada","CAN",50.635775,-105.03591666666667,"{""type"":""Point"",""coordinates"":[-105.03591666666667,50.635775]}"
"CSR8","La Sarre","La Sarre","Canada","CAN",48.91677222222222,-79.17906666666667,"{""type"":""Point"",""coordinates"":[-79.17906666666667,48.91677222222222]}"
"CPT2","Killarney","Killarney","Canada","CAN",45.9775,-81.49472222222222,"{""type"":""Point"",""coordinates"":[-81.49472222222222,45.9775]}"
"CPE6","Almaguin Highlands","Sundridge","Canada","CAN",45.82261666666667,-79.32358333333333,"{""type"":""Point"",""coordinates"":[-79.32358333333333,45.82261666666667]}"
"CAG2","Aerogate","Regina","Canada","CAN",50.59777777777778,-104.60111111111111,"{""type"":""Point"",""coordinates"":[-104.60111111111111,50.59777777777778]}"
"CFL2","McNeill Spectra Energy","Empress","Canada","CAN",50.6825,-110.04194444444444,"{""type"":""Point"",""coordinates"":[-110.04194444444444,50.6825]}"
"CFG4","Debolt","Debolt","Canada","CAN",55.233333333333334,-118.03333333333333,"{""type"":""Point"",""coordinates"":[-118.03333333333333,55.233333333333334]}"
"CCD3","Woodstock","Woodstock","Canada","CAN",46.15,-67.55,"{""type"":""Point"",""coordinates"":[-67.55,46.15]}"
"CKQ8","McArthur River","McArthur River","Canada","CAN",57.76739166666667,-105.02424722222221,"{""type"":""Point"",""coordinates"":[-105.02424722222221,57.76739166666667]}"
"CKG5","Manitou","Manitou","Canada","CAN",49.24611111111111,-98.53861111111111,"{""type"":""Point"",""coordinates"":[-98.53861111111111,49.24611111111111]}"
"CYLR","Leaf Rapids","Leaf Rapids","Canada","CAN",56.513333333333335,-99.98527777777778,"{""type"":""Point"",""coordinates"":[-99.98527777777778,56.513333333333335]}"
"CFC4","Macmillan Pass","Macmillan Pass","Canada","CAN",63.18111111111111,-130.20194444444442,"{""type"":""Point"",""coordinates"":[-130.20194444444442,63.18111111111111]}"
"CRC3","Ross Creek","Ross Creek","Canada","CAN",50.965833333333336,-119.2255,"{""type"":""Point"",""coordinates"":[-119.2255,50.965833333333336]}"
"CYPD","Port Hawkesbury","Port Hawkesbury","Canada","CAN",45.656502777777774,-61.36836666666667,"{""type"":""Point"",""coordinates"":[-61.36836666666667,45.656502777777774]}"
"CFB7","Steen River","Steen River","Canada","CAN",59.63333333333333,-117.16666666666667,"{""type"":""Point"",""coordinates"":[-117.16666666666667,59.63333333333333]}"
"CYDO","Dolbeau-St-Felicien","Dolbeau-St-Felicien","Canada","CAN",48.77853888888889,-72.37492777777777,"{""type"":""Point"",""coordinates"":[-72.37492777777777,48.77853888888889]}"
"CFB4","Trout Lake","Trout Lake","Canada","CAN",56.5,-114.55,"{""type"":""Point"",""coordinates"":[-114.55,56.5]}"
"CYGH","Ft Good Hope","Ft Good Hope","Canada","CAN",66.24063611111112,-128.6475972222222,"{""type"":""Point"",""coordinates"":[-128.6475972222222,66.24063611111112]}"
"CCD2","Springdale","Springdale","Canada","CAN",49.47888888888889,-56.17805555555555,"{""type"":""Point"",""coordinates"":[-56.17805555555555,49.47888888888889]}"
"CCP6","CANIAPISCAU","CANIAPISCAU","Canada","CAN",54.83777777777778,-69.89277777777778,"{""type"":""Point"",""coordinates"":[-69.89277777777778,54.83777777777778]}"
"CYPM","Pikangikum","Pikangikum","Canada","CAN",51.81984444444445,-93.97328333333334,"{""type"":""Point"",""coordinates"":[-93.97328333333334,51.81984444444445]}"
"CEM5","Swan Hills","Swan Hills","Canada","CAN",54.67080833333333,-115.41486666666667,"{""type"":""Point"",""coordinates"":[-115.41486666666667,54.67080833333333]}"
"CCE3","Juniper","Juniper","Canada","CAN",46.5627,-67.16840277777779,"{""type"":""Point"",""coordinates"":[-67.16840277777779,46.5627]}"
"CNA4","Emsdale","Emsdale","Canada","CAN",45.55,-79.35,"{""type"":""Point"",""coordinates"":[-79.35,45.55]}"
"CJG2","Eatonia","Eatonia","Canada","CAN",51.21888888888889,-109.39250000000001,"{""type"":""Point"",""coordinates"":[-109.39250000000001,51.21888888888889]}"
"CYVP","Kuujjuaq","Kuujjuaq","Canada","CAN",58.094875,-68.42217222222223,"{""type"":""Point"",""coordinates"":[-68.42217222222223,58.094875]}"
"CGR3","George Lake","George Lake","Canada","CAN",65.92861111111111,-107.4625,"{""type"":""Point"",""coordinates"":[-107.4625,65.92861111111111]}"
"CYTB","Tillsonburg","Tillsonburg","Canada","CAN",42.92648611111111,-80.74706944444445,"{""type"":""Point"",""coordinates"":[-80.74706944444445,42.92648611111111]}"
"CYGT","Igloolik","Igloolik","Canada","CAN",69.3646611111111,-81.81647777777778,"{""type"":""Point"",""coordinates"":[-81.81647777777778,69.3646611111111]}"
"CES2","St-Esprit","St-Esprit","Canada","CAN",45.91138888888889,-73.6725,"{""type"":""Point"",""coordinates"":[-73.6725,45.91138888888889]}"
"CYTN","Trenton","Trenton","Canada","CAN",45.61181666666667,-62.621116666666666,"{""type"":""Point"",""coordinates"":[-62.621116666666666,45.61181666666667]}"
"CNH2","Natuashish","Natuashish","Canada","CAN",55.91390277777778,-61.18438888888888,"{""type"":""Point"",""coordinates"":[-61.18438888888888,55.91390277777778]}"
"CYAY","St Anthony","St Anthony","Canada","CAN",51.391891666666666,-56.08316388888889,"{""type"":""Point"",""coordinates"":[-56.08316388888889,51.391891666666666]}"
"CYAW","Shearwater","Halifax","Canada","CAN",44.637163888888885,-63.50223888888889,"{""type"":""Point"",""coordinates"":[-63.50223888888889,44.637163888888885]}"
"CNV4","Hawkesbury","Hawkesbury","Canada","CAN",45.61666666666667,-74.65,"{""type"":""Point"",""coordinates"":[-74.65,45.61666666666667]}"
"CKD9","Slate Falls","Slate Falls","Canada","CAN",51.130069444444445,-91.6654638888889,"{""type"":""Point"",""coordinates"":[-91.6654638888889,51.130069444444445]}"
"CKQ5","Lucky Lake","Lucky Lake","Canada","CAN",50.994166666666665,-107.13138888888888,"{""type"":""Point"",""coordinates"":[-107.13138888888888,50.994166666666665]}"
"CCS5","Havelock","Havelock","Canada","CAN",45.98638888888889,-65.30194444444444,"{""type"":""Point"",""coordinates"":[-65.30194444444444,45.98638888888889]}"
"CNR2","Innerkip","Innerkip","Canada","CAN",43.23263888888889,-80.69452777777778,"{""type"":""Point"",""coordinates"":[-80.69452777777778,43.23263888888889]}"
"CPC6","Teeswater (Thompson Field)","Teeswater","Canada","CAN",43.94833333333333,-81.27194444444444,"{""type"":""Point"",""coordinates"":[-81.27194444444444,43.94833333333333]}"
"CEX4","Carmacks","Carmacks","Canada","CAN",62.11083333333333,-136.1783333333333,"{""type"":""Point"",""coordinates"":[-136.1783333333333,62.11083333333333]}"
"CJY3","Tisdale","Tisdale","Canada","CAN",52.836780555555556,-104.06599444444444,"{""type"":""Point"",""coordinates"":[-104.06599444444444,52.836780555555556]}"
"CZGF","Grand Forks","Grand Forks","Canada","CAN",49.015625,-118.43046111111111,"{""type"":""Point"",""coordinates"":[-118.43046111111111,49.015625]}"
"CFG5","John D'Or Prairie","John D'Or Prairie","Canada","CAN",58.49138888888889,-115.13833333333334,"{""type"":""Point"",""coordinates"":[-115.13833333333334,58.49138888888889]}"
"CFN6","Primrose","Primrose","Canada","CAN",55.39060555555555,-111.12029444444444,"{""type"":""Point"",""coordinates"":[-111.12029444444444,55.39060555555555]}"
"CDY3","Fogo","Fogo","Canada","CAN",49.657399999999996,-54.23743611111111,"{""type"":""Point"",""coordinates"":[-54.23743611111111,49.657399999999996]}"
"CAF4","Tsuniah Lake Lodge","Tsuniah Lake","Canada","CAN",51.53333333333333,-124.16666666666667,"{""type"":""Point"",""coordinates"":[-124.16666666666667,51.53333333333333]}"
"CYGX","Gillam","Gillam","Canada","CAN",56.35772222222222,-94.7107,"{""type"":""Point"",""coordinates"":[-94.7107,56.35772222222222]}"
"CEU2","Beaverlodge","Beaverlodge","Canada","CAN",55.184461111111105,-119.4474888888889,"{""type"":""Point"",""coordinates"":[-119.4474888888889,55.184461111111105]}"
"CAD4","Trail","Trail","Canada","CAN",49.05554166666666,-117.60920555555555,"{""type"":""Point"",""coordinates"":[-117.60920555555555,49.05554166666666]}"
"CYQF","Red Deer Regl","Red Deer","Canada","CAN",52.18228611111111,-113.8944888888889,"{""type"":""Point"",""coordinates"":[-113.8944888888889,52.18228611111111]}"
"CEX3","Wetaskiwin","Wetaskiwin","Canada","CAN",52.96493055555556,-113.41109166666668,"{""type"":""Point"",""coordinates"":[-113.41109166666668,52.96493055555556]}"
"CKL9","Regina Beach","Regina Beach","Canada","CAN",50.757222222222225,-104.98277777777778,"{""type"":""Point"",""coordinates"":[-104.98277777777778,50.757222222222225]}"
"CFS4","Ogilvie","Ogilvie River","Canada","CAN",65.67444444444445,-138.11583333333334,"{""type"":""Point"",""coordinates"":[-138.11583333333334,65.67444444444445]}"
"CCW4","Stanley","Stanley","Canada","CAN",45.10055555555556,-63.92055555555555,"{""type"":""Point"",""coordinates"":[-63.92055555555555,45.10055555555556]}"
"CYJM","Perison","Ft St James","Canada","CAN",54.39805555555556,-124.26472222222222,"{""type"":""Point"",""coordinates"":[-124.26472222222222,54.39805555555556]}"
"CEW3","St Paul","St Paul","Canada","CAN",53.99373055555556,-111.37794722222222,"{""type"":""Point"",""coordinates"":[-111.37794722222222,53.99373055555556]}"
"CJJ2","Glenboro","Glenboro","Canada","CAN",49.55,-99.33361111111111,"{""type"":""Point"",""coordinates"":[-99.33361111111111,49.55]}"
"CEV3","Vegreville","Vegreville","Canada","CAN",53.51394166666667,-112.02741666666667,"{""type"":""Point"",""coordinates"":[-112.02741666666667,53.51394166666667]}"
"CJL9","Radisson","Radisson","Canada","CAN",52.463055555555556,-107.37722222222222,"{""type"":""Point"",""coordinates"":[-107.37722222222222,52.463055555555556]}"
"CJB3","Steinbach","Steinbach","Canada","CAN",49.54944444444444,-96.67944444444444,"{""type"":""Point"",""coordinates"":[-96.67944444444444,49.54944444444444]}"
"CJU7","Edam","Edam","Canada","CAN",53.184999999999995,-108.78916666666666,"{""type"":""Point"",""coordinates"":[-108.78916666666666,53.184999999999995]}"
"CEZ4","Ft Vermilion","Ft Vermilion","Canada","CAN",58.40405277777778,-115.94812222222222,"{""type"":""Point"",""coordinates"":[-115.94812222222222,58.40405277777778]}"
"CKG2","Riverton","Riverton","Canada","CAN",50.97166666666667,-97.0111111111111,"{""type"":""Point"",""coordinates"":[-97.0111111111111,50.97166666666667]}"
"CFM2","Birch Mountain","Birch Mountain","Canada","CAN",57.7,-111.83333333333333,"{""type"":""Point"",""coordinates"":[-111.83333333333333,57.7]}"
"CCZ4","Margaree","Margaree","Canada","CAN",46.34111111111111,-60.97972222222222,"{""type"":""Point"",""coordinates"":[-60.97972222222222,46.34111111111111]}"
"CFQ4","Cheadle","Cheadle","Canada","CAN",51.0575,-113.6236111111111,"{""type"":""Point"",""coordinates"":[-113.6236111111111,51.0575]}"
"CEV2","Edra","Edra","Canada","CAN",57.85,-113.25,"{""type"":""Point"",""coordinates"":[-113.25,57.85]}"
"CFZ5","Goodwins Farm","Sundre","Canada","CAN",51.733333333333334,-114.66666666666667,"{""type"":""Point"",""coordinates"":[-114.66666666666667,51.733333333333334]}"
"CND4","Stanhope Mun","Haliburton","Canada","CAN",45.11083333333333,-78.64,"{""type"":""Point"",""coordinates"":[-78.64,45.11083333333333]}"
"CMB7","Bourdon Farm","Maxville","Canada","CAN",45.25299444444445,-74.80689166666666,"{""type"":""Point"",""coordinates"":[-74.80689166666666,45.25299444444445]}"
"CKD7","Roland (Graham Field)","Roland","Canada","CAN",49.40833333333333,-97.99055555555556,"{""type"":""Point"",""coordinates"":[-97.99055555555556,49.40833333333333]}"
"CCI9","Cortes Island","Cortes Island","Canada","CAN",50.02361111111111,-124.98416666666667,"{""type"":""Point"",""coordinates"":[-124.98416666666667,50.02361111111111]}"
"CYKA","Kamloops","Kamloops","Canada","CAN",50.702511111111114,-120.44860555555556,"{""type"":""Point"",""coordinates"":[-120.44860555555556,50.702511111111114]}"
"CBH7","Hillman's Farm","Benalto","Canada","CAN",52.225833333333334,-114.25583333333333,"{""type"":""Point"",""coordinates"":[-114.25583333333333,52.225833333333334]}"
"CEW5","Milk River","Milk River","Canada","CAN",49.13333333333333,-112.05,"{""type"":""Point"",""coordinates"":[-112.05,49.13333333333333]}"
"CET9","Jean Marie River","Jean Marie River","Canada","CAN",61.52236944444444,-120.62487222222221,"{""type"":""Point"",""coordinates"":[-120.62487222222221,61.52236944444444]}"
"CJL8","Kasba Lake","Kasba Lake","Canada","CAN",60.29183888888889,-102.501975,"{""type"":""Point"",""coordinates"":[-102.501975,60.29183888888889]}"
"CFY4","Winters Aire Park","Indus","Canada","CAN",50.9,-113.78333333333333,"{""type"":""Point"",""coordinates"":[-113.78333333333333,50.9]}"
"CEQ5","Grande Cache","Grande Cache","Canada","CAN",53.916999999999994,-118.87416666666665,"{""type"":""Point"",""coordinates"":[-118.87416666666665,53.916999999999994]}"
"CEU9","Trout Lake","Trout Lake","Canada","CAN",60.42349722222222,-121.26959722222222,"{""type"":""Point"",""coordinates"":[-121.26959722222222,60.42349722222222]}"
"CCS3","St Stephen","St Stephen","Canada","CAN",45.2075,-67.25055555555555,"{""type"":""Point"",""coordinates"":[-67.25055555555555,45.2075]}"
"CCK3","Grand Falls","Grand Falls","Canada","CAN",47.075,-67.685,"{""type"":""Point"",""coordinates"":[-67.685,47.075]}"
"CFS3","Fort Selkirk","Fort Selkirk","Canada","CAN",62.76833333333333,-137.38472222222222,"{""type"":""Point"",""coordinates"":[-137.38472222222222,62.76833333333333]}"
"CYAU","South Shore Regl","Liverpool","Canada","CAN",44.23045277777778,-64.85618055555555,"{""type"":""Point"",""coordinates"":[-64.85618055555555,44.23045277777778]}"
"CPH2","Rolph","Deep River","Canada","CAN",46.11666666666667,-77.53333333333333,"{""type"":""Point"",""coordinates"":[-77.53333333333333,46.11666666666667]}"
"CAX5","Likely","Likely","Canada","CAN",52.61666666666667,-121.5,"{""type"":""Point"",""coordinates"":[-121.5,52.61666666666667]}"
"CNT7","Picton","Picton","Canada","CAN",43.98916666666667,-77.13916666666667,"{""type"":""Point"",""coordinates"":[-77.13916666666667,43.98916666666667]}"
"CEQ4","Whetstone Intl","Del Bonita","Canada","CAN",48.99866388888889,-112.77625277777777,"{""type"":""Point"",""coordinates"":[-112.77625277777777,48.99866388888889]}"
"CJR7","Canora","Canora","Canada","CAN",51.62888888888889,-102.45,"{""type"":""Point"",""coordinates"":[-102.45,51.62888888888889]}"
"CEP4","Ross Intl","Coutts","Canada","CAN",49,-111.96666666666667,"{""type"":""Point"",""coordinates"":[-111.96666666666667,49]}"
"CKC9","Pangman","Pangman","Canada","CAN",49.646388888888886,-104.66555555555556,"{""type"":""Point"",""coordinates"":[-104.66555555555556,49.646388888888886]}"
"CDA6","Bristol","Bristol","Canada","CAN",46.45944444444445,-67.56472222222222,"{""type"":""Point"",""coordinates"":[-67.56472222222222,46.45944444444445]}"
"CFC2","Bitumount","Bitumount","Canada","CAN",57.36666666666667,-111.63333333333334,"{""type"":""Point"",""coordinates"":[-111.63333333333334,57.36666666666667]}"
"CPL3","Rideau Valley","Kars","Canada","CAN",45.1,-75.63333333333334,"{""type"":""Point"",""coordinates"":[-75.63333333333334,45.1]}"
"CJM6","Arborfield","Arborfield","Canada","CAN",53.10777777777778,-103.65055555555556,"{""type"":""Point"",""coordinates"":[-103.65055555555556,53.10777777777778]}"
"CNK4","Parry Sound Area Mun","Parry Sound","Canada","CAN",45.257575,-79.82973055555556,"{""type"":""Point"",""coordinates"":[-79.82973055555556,45.257575]}"
"CYRS","Red Sucker Lake","Red Sucker Lake","Canada","CAN",54.1674,-93.55743333333334,"{""type"":""Point"",""coordinates"":[-93.55743333333334,54.1674]}"
"CEX9","Brant (Dixon Farm)","Brant","Canada","CAN",50.419444444444444,-113.54083333333332,"{""type"":""Point"",""coordinates"":[-113.54083333333332,50.419444444444444]}"
"CEP3","Barrhead","Barrhead","Canada","CAN",54.09687777777778,-114.43884166666668,"{""type"":""Point"",""coordinates"":[-114.43884166666668,54.09687777777778]}"
"CSK3","Mascouche","Montreal","Canada","CAN",45.71867777777778,-73.59818333333332,"{""type"":""Point"",""coordinates"":[-73.59818333333332,45.71867777777778]}"
"CAG3","Chilko Lake (Tsylos Park Lodge","Chilko Lake","Canada","CAN",51.626111111111115,-124.14194444444445,"{""type"":""Point"",""coordinates"":[-124.14194444444445,51.626111111111115]}"
"CFS5","Spirit River","Spirit River","Canada","CAN",55.78361111111111,-118.83972222222222,"{""type"":""Point"",""coordinates"":[-118.83972222222222,55.78361111111111]}"
"CEC4","Jasper-Hinton","Hinton","Canada","CAN",53.319050000000004,-117.75324444444445,"{""type"":""Point"",""coordinates"":[-117.75324444444445,53.319050000000004]}"
"CEN5","Cold Lake Regl","Cold Lake","Canada","CAN",54.477583333333335,-110.26907222222222,"{""type"":""Point"",""coordinates"":[-110.26907222222222,54.477583333333335]}"
"CYAH","La Grande-4","La Grande-4","Canada","CAN",53.754725,-73.67529444444445,"{""type"":""Point"",""coordinates"":[-73.67529444444445,53.754725]}"
"CFQ5","Silver City","Silver City","Canada","CAN",61.028888888888886,-138.4075,"{""type"":""Point"",""coordinates"":[-138.4075,61.028888888888886]}"
"CBH4","Prairie Creek","Prairie Creek","Canada","CAN",61.56472222222222,-124.815,"{""type"":""Point"",""coordinates"":[-124.815,61.56472222222222]}"
"CYWY","Wrigley","Wrigley","Canada","CAN",63.2096,-123.43675833333333,"{""type"":""Point"",""coordinates"":[-123.43675833333333,63.2096]}"
"CBD8","Flying R Ranch","Black Diamond","Canada","CAN",50.64493611111111,-114.20294166666667,"{""type"":""Point"",""coordinates"":[-114.20294166666667,50.64493611111111]}"
"CNV8","Edenvale","Edenvale","Canada","CAN",44.438830555555555,-79.96528611111111,"{""type"":""Point"",""coordinates"":[-79.96528611111111,44.438830555555555]}"
"CYFA","Ft Albany","Ft Albany","Canada","CAN",52.203494444444445,-81.6958,"{""type"":""Point"",""coordinates"":[-81.6958,52.203494444444445]}"
"CFM8","Ft Macleod (Alcock Farm)","Fort Macleod","Canada","CAN",49.583333333333336,-113.3,"{""type"":""Point"",""coordinates"":[-113.3,49.583333333333336]}"
"CFF2","Christina Basin","Christina Basin","Canada","CAN",55.59,-111.82305555555556,"{""type"":""Point"",""coordinates"":[-111.82305555555556,55.59]}"
"CHG2","Harbour Grace","Harbour Grace","Canada","CAN",47.68555555555555,-53.25388888888889,"{""type"":""Point"",""coordinates"":[-53.25388888888889,47.68555555555555]}"
"CJR8","McCreary","McCreary","Canada","CAN",50.764722222222225,-99.49666666666667,"{""type"":""Point"",""coordinates"":[-99.49666666666667,50.764722222222225]}"
"CEV5","Mayerthorpe","Mayerthorpe","Canada","CAN",53.9375,-115.17888888888889,"{""type"":""Point"",""coordinates"":[-115.17888888888889,53.9375]}"
"CEJ4","Claresholm Industrial","Claresholm","Canada","CAN",50.00472222222222,-113.63,"{""type"":""Point"",""coordinates"":[-113.63,50.00472222222222]}"
"CBM2","Martyn","Blackstock","Canada","CAN",44.09480555555556,-78.73625,"{""type"":""Point"",""coordinates"":[-78.73625,44.09480555555556]}"
"CBS8","Alberni Valley Regl","Port Alberni","Canada","CAN",49.32194444444445,-124.93111111111112,"{""type"":""Point"",""coordinates"":[-124.93111111111112,49.32194444444445]}"
"CEH4","South Calgary","De Winton","Canada","CAN",50.822,-113.82433333333333,"{""type"":""Point"",""coordinates"":[-113.82433333333333,50.822]}"
"CSG3","Joliette","Joliette","Canada","CAN",46.04474444444444,-73.50177222222223,"{""type"":""Point"",""coordinates"":[-73.50177222222223,46.04474444444444]}"
"CES4","Westlock","Westlock","Canada","CAN",54.14222222222222,-113.74083333333333,"{""type"":""Point"",""coordinates"":[-113.74083333333333,54.14222222222222]}"
"CBQ8","Woodcock","Woodcock","Canada","CAN",55.06666666666667,-128.23333333333332,"{""type"":""Point"",""coordinates"":[-128.23333333333332,55.06666666666667]}"
"CYXC","Canadian Rockies Intl","Cranbrook","Canada","CAN",49.612119444444446,-115.78205277777778,"{""type"":""Point"",""coordinates"":[-115.78205277777778,49.612119444444446]}"
"CEG4","Drumheller Mun","Drumheller","Canada","CAN",51.49631111111111,-112.74859166666667,"{""type"":""Point"",""coordinates"":[-112.74859166666667,51.49631111111111]}"
"CFV6","Margaret Lake","Margaret Lake","Canada","CAN",58.95,-115.25,"{""type"":""Point"",""coordinates"":[-115.25,58.95]}"
"CYVV","Wiarton","Wiarton","Canada","CAN",44.74403888888889,-81.10858333333333,"{""type"":""Point"",""coordinates"":[-81.10858333333333,44.74403888888889]}"
"CYPP","Parent","Parent","Canada","CAN",47.93333333333333,-74.61638888888888,"{""type"":""Point"",""coordinates"":[-74.61638888888888,47.93333333333333]}"
"CNE4","Iroquois Falls","Iroquois Falls","Canada","CAN",48.74136388888889,-80.79326666666667,"{""type"":""Point"",""coordinates"":[-80.79326666666667,48.74136388888889]}"
"CJQ3","Carlyle","Carlyle","Canada","CAN",49.64401111111111,-102.28583888888889,"{""type"":""Point"",""coordinates"":[-102.28583888888889,49.64401111111111]}"
"CEG3","Lacombe","Lacombe","Canada","CAN",52.48833333333334,-113.71222222222222,"{""type"":""Point"",""coordinates"":[-113.71222222222222,52.48833333333334]}"
"CEF6","Forestburg","Forestburg","Canada","CAN",52.57472222222223,-112.08416666666666,"{""type"":""Point"",""coordinates"":[-112.08416666666666,52.57472222222223]}"
"CEH5","Red Earth Creek","Red Earth Creek","Canada","CAN",56.546166666666664,-115.2755,"{""type"":""Point"",""coordinates"":[-115.2755,56.546166666666664]}"
"CYFE","Forestville","Forestville","Canada","CAN",48.74611111111111,-69.09722222222221,"{""type"":""Point"",""coordinates"":[-69.09722222222221,48.74611111111111]}"
"CEK2","Braeburn","Braeburn","Canada","CAN",61.48444444444444,-135.7763888888889,"{""type"":""Point"",""coordinates"":[-135.7763888888889,61.48444444444444]}"
"CEF4","Airdrie","Airdrie","Canada","CAN",51.263819444444444,-113.93451388888889,"{""type"":""Point"",""coordinates"":[-113.93451388888889,51.263819444444444]}"
"CJS7","Carman South","Carman","Canada","CAN",49.48034166666667,-98.01589722222222,"{""type"":""Point"",""coordinates"":[-98.01589722222222,49.48034166666667]}"
"CFX4","Manning","Manning","Canada","CAN",56.95088055555556,-117.64403333333334,"{""type"":""Point"",""coordinates"":[-117.64403333333334,56.95088055555556]}"
"CJK3","Beauval","Beauval","Canada","CAN",55.11037777777778,-107.71630555555556,"{""type"":""Point"",""coordinates"":[-107.71630555555556,55.11037777777778]}"
"CJA4","Boissevain","Boissevain","Canada","CAN",49.25,-100.06666666666666,"{""type"":""Point"",""coordinates"":[-100.06666666666666,49.25]}"
"CYCE","James T Field Meml","Centralia","Canada","CAN",43.28569722222222,-81.50638611111111,"{""type"":""Point"",""coordinates"":[-81.50638611111111,43.28569722222222]}"
"CET2","Leismer","Conklin","Canada","CAN",55.69605,-111.279325,"{""type"":""Point"",""coordinates"":[-111.279325,55.69605]}"
"CYLJ","Meadow Lake","Meadow Lake","Canada","CAN",54.125391666666665,-108.52289722222223,"{""type"":""Point"",""coordinates"":[-108.52289722222223,54.125391666666665]}"
"CAK3","Delta Heritage","Delta","Canada","CAN",49.078611111111115,-122.93805555555556,"{""type"":""Point"",""coordinates"":[-122.93805555555556,49.078611111111115]}"
"CBQ2","Fort Langley","Fort Langley","Canada","CAN",49.16747222222222,-122.55441666666667,"{""type"":""Point"",""coordinates"":[-122.55441666666667,49.16747222222222]}"
"CFP4","Mc Questen","Mc Questen","Canada","CAN",63.6,-137.56666666666666,"{""type"":""Point"",""coordinates"":[-137.56666666666666,63.6]}"
"CRD2","Coaldale (Rednek Air)","Coaldale","Canada","CAN",49.821625000000004,-112.53066666666666,"{""type"":""Point"",""coordinates"":[-112.53066666666666,49.821625000000004]}"
"CBK7","Mile 422 (Alaska Highway)","Toad River","Canada","CAN",58.849444444444444,-125.24,"{""type"":""Point"",""coordinates"":[-125.24,58.849444444444444]}"
"CNZ8","Grimsby","Grimsby","Canada","CAN",43.15896111111111,-79.59992222222222,"{""type"":""Point"",""coordinates"":[-79.59992222222222,43.15896111111111]}"
"CER4","Mildred Lake","Fort McMurray","Canada","CAN",57.05545833333333,-111.57400833333332,"{""type"":""Point"",""coordinates"":[-111.57400833333332,57.05545833333333]}"
"CYVG","Vermilion","Vermilion","Canada","CAN",53.35686944444445,-110.82482777777777,"{""type"":""Point"",""coordinates"":[-110.82482777777777,53.35686944444445]}"
"CCT2","Cookstown","Cookstown","Canada","CAN",44.23888888888889,-79.6388888888889,"{""type"":""Point"",""coordinates"":[-79.6388888888889,44.23888888888889]}"
"CED4","Fox Creek","Fox Creek","Canada","CAN",54.38,-116.76555555555555,"{""type"":""Point"",""coordinates"":[-116.76555555555555,54.38]}"
"CFG3","Consort","Consort","Canada","CAN",52.016666666666666,-110.75,"{""type"":""Point"",""coordinates"":[-110.75,52.016666666666666]}"
"CCZ2","Rigolet","Rigolet","Canada","CAN",54.179516666666665,-58.457097222222224,"{""type"":""Point"",""coordinates"":[-58.457097222222224,54.179516666666665]}"
"CED3","Oyen Mun","Oyen","Canada","CAN",51.33416666666667,-110.49138888888889,"{""type"":""Point"",""coordinates"":[-110.49138888888889,51.33416666666667]}"
"CZTM","Shamattawa","Shamattawa","Canada","CAN",55.86302222222222,-92.08138333333333,"{""type"":""Point"",""coordinates"":[-92.08138333333333,55.86302222222222]}"
"CZAM","Salmon Arm","Salmon Arm","Canada","CAN",50.68253333333333,-119.22862500000001,"{""type"":""Point"",""coordinates"":[-119.22862500000001,50.68253333333333]}"
"CBU2","Iskut Village","Eddontenajon","Canada","CAN",57.84722222222222,-129.98277777777778,"{""type"":""Point"",""coordinates"":[-129.98277777777778,57.84722222222222]}"
"CYAB","Arctic Bay","Arctic Bay","Canada","CAN",73.00638611111111,-85.04731666666666,"{""type"":""Point"",""coordinates"":[-85.04731666666666,73.00638611111111]}"
"CPM5","Volk","Tottenham","Canada","CAN",43.993611111111115,-79.78055555555555,"{""type"":""Point"",""coordinates"":[-79.78055555555555,43.993611111111115]}"
"CEB4","Early Bird Air","Rockyford","Canada","CAN",51.17777777777778,-113.27916666666667,"{""type"":""Point"",""coordinates"":[-113.27916666666667,51.17777777777778]}"
"CNN8","Gananoque","Gananoque","Canada","CAN",44.401944444444446,-76.24416666666667,"{""type"":""Point"",""coordinates"":[-76.24416666666667,44.401944444444446]}"
"CTH8","Cookstown/Tally-Ho","Cookstown","Canada","CAN",44.214336111111116,-79.77678888888889,"{""type"":""Point"",""coordinates"":[-79.77678888888889,44.214336111111116]}"
"CYVT","Buffalo Narrows","Buffalo Narrows","Canada","CAN",55.84193611111111,-108.41760833333333,"{""type"":""Point"",""coordinates"":[-108.41760833333333,55.84193611111111]}"
"CAP3","Sechelt","Sechelt","Canada","CAN",49.46055555555556,-123.71861111111112,"{""type"":""Point"",""coordinates"":[-123.71861111111112,49.46055555555556]}"
"CPL6","Parkland","Edmonton","Canada","CAN",53.47441666666667,-113.82942777777778,"{""type"":""Point"",""coordinates"":[-113.82942777777778,53.47441666666667]}"
"CRL7","Lindbergh Lodge","Reindeer Lake","Canada","CAN",57.28811388888889,-102.52508611111111,"{""type"":""Point"",""coordinates"":[-102.52508611111111,57.28811388888889]}"
"CYHI","Holman","Ulukhaktok","Canada","CAN",70.76286944444445,-117.80601666666666,"{""type"":""Point"",""coordinates"":[-117.80601666666666,70.76286944444445]}"
"CEA3","Olds-Didsbury","Olds-Didsbury","Canada","CAN",51.71083333333333,-114.1061111111111,"{""type"":""Point"",""coordinates"":[-114.1061111111111,51.71083333333333]}"
"CMW4","Madawaska Collins","Madawaska","Canada","CAN",45.507508333333334,-77.990625,"{""type"":""Point"",""coordinates"":[-77.990625,45.507508333333334]}"
"CYQW","North Battleford","North Battleford","Canada","CAN",52.7691,-108.24446111111111,"{""type"":""Point"",""coordinates"":[-108.24446111111111,52.7691]}"
"CCE4","Black Tickle","Black Tickle","Canada","CAN",53.469861111111115,-55.787524999999995,"{""type"":""Point"",""coordinates"":[-55.787524999999995,53.469861111111115]}"
"CFF4","Great Bear Lake","Great Bear Lake","Canada","CAN",66.70305555555557,-119.71722222222222,"{""type"":""Point"",""coordinates"":[-119.71722222222222,66.70305555555557]}"
"CYMJ","Air Vice Marshal C M McEwen","Moose Jaw","Canada","CAN",50.33027777777778,-105.55916666666667,"{""type"":""Point"",""coordinates"":[-105.55916666666667,50.33027777777778]}"
"CFY5","Pine Lake","Pine Lake","Canada","CAN",60.10305555555556,-130.9336111111111,"{""type"":""Point"",""coordinates"":[-130.9336111111111,60.10305555555556]}"
"CCR4","Rogersville","Rogersville","Canada","CAN",46.71666666666667,-65.41666666666667,"{""type"":""Point"",""coordinates"":[-65.41666666666667,46.71666666666667]}"
"CAQ5","Nakusp","Nakusp","Canada","CAN",50.26638888888889,-117.81277777777777,"{""type"":""Point"",""coordinates"":[-117.81277777777777,50.26638888888889]}"
"CFM7","Boyle","Boyle","Canada","CAN",54.57333333333334,-112.82,"{""type"":""Point"",""coordinates"":[-112.82,54.57333333333334]}"
"CGL4","Eaglesham","Eaglesham","Canada","CAN",55.67111111111111,-117.93555555555555,"{""type"":""Point"",""coordinates"":[-117.93555555555555,55.67111111111111]}"
"CFP8","Cousins","Whitehorse","Canada","CAN",60.808055555555555,-135.1772222222222,"{""type"":""Point"",""coordinates"":[-135.1772222222222,60.808055555555555]}"
"CJW2","Oxbow","Oxbow","Canada","CAN",49.22380277777778,-102.14600555555556,"{""type"":""Point"",""coordinates"":[-102.14600555555556,49.22380277777778]}"
"CZFA","Faro","Faro","Canada","CAN",62.206950000000006,-133.37341666666669,"{""type"":""Point"",""coordinates"":[-133.37341666666669,62.206950000000006]}"
"CFF9","Marek Farms","Camrose","Canada","CAN",53.03138888888889,-112.77777777777777,"{""type"":""Point"",""coordinates"":[-112.77777777777777,53.03138888888889]}"
"CJA5","Nestor Falls","Nestor Falls","Canada","CAN",49.140277777777776,-93.91694444444445,"{""type"":""Point"",""coordinates"":[-93.91694444444445,49.140277777777776]}"
"CYMW","Maniwaki","Maniwaki","Canada","CAN",46.272825,-75.99053333333333,"{""type"":""Point"",""coordinates"":[-75.99053333333333,46.272825]}"
"CEK6","Flagstaff Regl","Killam-Sedgewick","Canada","CAN",52.79566388888889,-111.76056388888888,"{""type"":""Point"",""coordinates"":[-111.76056388888888,52.79566388888889]}"
"CDM2","Minty","Didsbury","Canada","CAN",51.653194444444445,-114.35291666666666,"{""type"":""Point"",""coordinates"":[-114.35291666666666,51.653194444444445]}"
"CEE4","Entrance","Hinton","Canada","CAN",53.38138888888889,-117.70111111111112,"{""type"":""Point"",""coordinates"":[-117.70111111111112,53.38138888888889]}"
"CDK2","Diavik","Diavik","Canada","CAN",64.51135,-110.28972777777777,"{""type"":""Point"",""coordinates"":[-110.28972777777777,64.51135]}"
"CFU8","Irma","Irma","Canada","CAN",52.91222222222222,-111.1738888888889,"{""type"":""Point"",""coordinates"":[-111.1738888888889,52.91222222222222]}"
"CDJ5","Strathmore (D.J. Murray)","Strathmore","Canada","CAN",51.13413611111111,-113.56015833333333,"{""type"":""Point"",""coordinates"":[-113.56015833333333,51.13413611111111]}"
"CRD5","Truant","Red Deer","Canada","CAN",52.28861111111111,-113.91166666666668,"{""type"":""Point"",""coordinates"":[-113.91166666666668,52.28861111111111]}"
"CSU3","St-Hyacinthe","St-Hyacinthe Quebec","Canada","CAN",45.60674166666667,-73.01509444444444,"{""type"":""Point"",""coordinates"":[-73.01509444444444,45.60674166666667]}"
"CAJ3","Creston","Creston","Canada","CAN",49.03660555555555,-116.498,"{""type"":""Point"",""coordinates"":[-116.498,49.03660555555555]}"
"CSP5","St-Mathias","St-Mathias","Canada","CAN",45.50083333333333,-73.24166666666667,"{""type"":""Point"",""coordinates"":[-73.24166666666667,45.50083333333333]}"
"CEQ3","Camrose","Camrose","Canada","CAN",53.03981388888889,-112.81624444444444,"{""type"":""Point"",""coordinates"":[-112.81624444444444,53.03981388888889]}"
"CEG5","Chipewyan Lake","Chipewyan Lake","Canada","CAN",56.9525,-113.49555555555555,"{""type"":""Point"",""coordinates"":[-113.49555555555555,56.9525]}"
"CAP2","Allan Park","Allan Park","Canada","CAN",44.17959166666667,-80.95135,"{""type"":""Point"",""coordinates"":[-80.95135,44.17959166666667]}"
"CBL3","Gordon Field","Fort Nelson","Canada","CAN",58.81666666666667,-122.78333333333333,"{""type"":""Point"",""coordinates"":[-122.78333333333333,58.81666666666667]}"
"CDC5","Dougall Campbell","Oie Lake","Canada","CAN",52.01083333333333,-121.21111111111111,"{""type"":""Point"",""coordinates"":[-121.21111111111111,52.01083333333333]}"
"CCF9","Scottsfield Airpark","Scottsfield Airpark","Canada","CAN",45.96027777777778,-67.09527777777777,"{""type"":""Point"",""coordinates"":[-67.09527777777777,45.96027777777778]}"
"CYBX","Lourdes-De-Blanc-Sablon","Lourdes-De-Blanc-Sablon","Canada","CAN",51.442049999999995,-57.18612222222222,"{""type"":""Point"",""coordinates"":[-57.18612222222222,51.442049999999995]}"
"CDA4","Pokemouche","Pokemouche","Canada","CAN",47.71639444444445,-64.88242222222222,"{""type"":""Point"",""coordinates"":[-64.88242222222222,47.71639444444445]}"
"CJE5","Glaslyn","Glaslyn","Canada","CAN",53.37722222222222,-108.34222222222222,"{""type"":""Point"",""coordinates"":[-108.34222222222222,53.37722222222222]}"
"CYOO","Oshawa Mun","Toronto","Canada","CAN",43.922827777777776,-78.89674444444445,"{""type"":""Point"",""coordinates"":[-78.89674444444445,43.922827777777776]}"
"CFA5","Grande","Grande","Canada","CAN",56.3,-112.23333333333333,"{""type"":""Point"",""coordinates"":[-112.23333333333333,56.3]}"
"CNC4","Guelph","Guelph","Canada","CAN",43.56388888888888,-80.19611111111111,"{""type"":""Point"",""coordinates"":[-80.19611111111111,43.56388888888888]}"
"CCX3","Brockway","Brockway","Canada","CAN",45.56666666666667,-67.1,"{""type"":""Point"",""coordinates"":[-67.1,45.56666666666667]}"
"CZVL","Villeneuve","Edmonton","Canada","CAN",53.66824166666667,-113.85226388888888,"{""type"":""Point"",""coordinates"":[-113.85226388888888,53.66824166666667]}"
"CYBP","Brooks Regional","Brooks","Canada","CAN",50.63405,-111.92630833333334,"{""type"":""Point"",""coordinates"":[-111.92630833333334,50.63405]}"
"CCV4","Bell Island","Bell Island","Canada","CAN",47.63505,-52.98028333333333,"{""type"":""Point"",""coordinates"":[-52.98028333333333,47.63505]}"
"CAT1","Coghlin","Atwood","Canada","CAN",43.68333333333333,-81.00444444444445,"{""type"":""Point"",""coordinates"":[-81.00444444444445,43.68333333333333]}"
"CCS6","Courtenay (Smit Field)","Courtenay","Canada","CAN",49.666666666666664,-125.1,"{""type"":""Point"",""coordinates"":[-125.1,49.666666666666664]}"
"CJH2","Gilbert Plains","Gilbert Plains","Canada","CAN",51.13333333333333,-100.5,"{""type"":""Point"",""coordinates"":[-100.5,51.13333333333333]}"
"CYPL","Pickle Lake","Pickle Lake","Canada","CAN",51.44648333333333,-90.21413333333334,"{""type"":""Point"",""coordinates"":[-90.21413333333334,51.44648333333333]}"
"CBR2","Kaslo","Kaslo","Canada","CAN",49.90361111111111,-116.93527777777778,"{""type"":""Point"",""coordinates"":[-116.93527777777778,49.90361111111111]}"
"CYER","Ft Severn","Ft Severn","Canada","CAN",56.019,-87.67616666666667,"{""type"":""Point"",""coordinates"":[-87.67616666666667,56.019]}"
"CBS4","Mule Creek","Mule Creek","Canada","CAN",59.78333333333333,-136.58333333333334,"{""type"":""Point"",""coordinates"":[-136.58333333333334,59.78333333333333]}"
"CYXU","London","London","Canada","CAN",43.033052777777776,-81.15100000000001,"{""type"":""Point"",""coordinates"":[-81.15100000000001,43.033052777777776]}"
"CYBU","Nipawin","Nipawin","Canada","CAN",53.33245277777778,-104.0088,"{""type"":""Point"",""coordinates"":[-104.0088,53.33245277777778]}"
"CAM3","Duncan","Duncan","Canada","CAN",48.75833333333333,-123.71666666666667,"{""type"":""Point"",""coordinates"":[-123.71666666666667,48.75833333333333]}"
"CRM2","Riding Mountain","Riding Mountain","Canada","CAN",50.57378333333334,-99.36086388888889,"{""type"":""Point"",""coordinates"":[-99.36086388888889,50.57378333333334]}"
"CBA8","Beaverley","Beaverley","Canada","CAN",53.855555555555554,-122.9075,"{""type"":""Point"",""coordinates"":[-122.9075,53.855555555555554]}"
"CCS4","Chipman","Chipman","Canada","CAN",46.14858888888889,-65.90418055555556,"{""type"":""Point"",""coordinates"":[-65.90418055555556,46.14858888888889]}"
"CNT6","Elmira","Elmira","Canada","CAN",43.584722222222226,-80.60305555555556,"{""type"":""Point"",""coordinates"":[-80.60305555555556,43.584722222222226]}"
"CBS7","Briercrest South","Briercrest South","Canada","CAN",50.06638888888889,-105.30055555555555,"{""type"":""Point"",""coordinates"":[-105.30055555555555,50.06638888888889]}"
"CMN4","Minto","Minto","Canada","CAN",62.60466666666667,-137.222,"{""type"":""Point"",""coordinates"":[-137.222,62.60466666666667]}"
"CEN3","Three Hills","Three Hills","Canada","CAN",51.696666666666665,-113.20916666666668,"{""type"":""Point"",""coordinates"":[-113.20916666666668,51.696666666666665]}"
"CKR9","Outlook","Outlook","Canada","CAN",51.4825,-107.03666666666666,"{""type"":""Point"",""coordinates"":[-107.03666666666666,51.4825]}"
"CYQN","Nakina","Nakina","Canada","CAN",50.18299722222222,-86.69742222222223,"{""type"":""Point"",""coordinates"":[-86.69742222222223,50.18299722222222]}"
"CCR3","Florenceville","Florenceville","Canada","CAN",46.42615,-67.62797499999999,"{""type"":""Point"",""coordinates"":[-67.62797499999999,46.42615]}"
"CKL5","Shoal Lake","Shoal Lake","Canada","CAN",50.4575,-100.6086111111111,"{""type"":""Point"",""coordinates"":[-100.6086111111111,50.4575]}"
"CAS2","MOOSE LAKE LODGE","MOOSE LAKE","Canada","CAN",53.07333333333334,-125.40916666666668,"{""type"":""Point"",""coordinates"":[-125.40916666666668,53.07333333333334]}"
"CPF3","Parti","Dunrobin","Canada","CAN",45.42736111111111,-76.069375,"{""type"":""Point"",""coordinates"":[-76.069375,45.42736111111111]}"
"CNF8","Dwight","Dwight","Canada","CAN",45.313402777777775,-78.97500000000001,"{""type"":""Point"",""coordinates"":[-78.97500000000001,45.313402777777775]}"
"CCR9","Creemore","Creemore","Canada","CAN",44.346580555555555,-80.13427222222222,"{""type"":""Point"",""coordinates"":[-80.13427222222222,44.346580555555555]}"
"CSN5","Stanhope","Stanhope","Canada","CAN",45.01555555555556,-71.79444444444444,"{""type"":""Point"",""coordinates"":[-71.79444444444444,45.01555555555556]}"
"CCQ3","Debert","Debert","Canada","CAN",45.419216666666664,-63.4613,"{""type"":""Point"",""coordinates"":[-63.4613,45.419216666666664]}"
"CEH3","Ponoka Industrial (Labrie Field)","Ponoka","Canada","CAN",52.651849999999996,-113.60443888888888,"{""type"":""Point"",""coordinates"":[-113.60443888888888,52.651849999999996]}"
"CKC7","Rockglen","Rockglen","Canada","CAN",49.16669722222222,-105.93390555555555,"{""type"":""Point"",""coordinates"":[-105.93390555555555,49.16669722222222]}"
"CBT3","Tsetzi Lake (Pan Phillips)","Tsetzi Lake","Canada","CAN",52.971944444444446,-125.02666666666667,"{""type"":""Point"",""coordinates"":[-125.02666666666667,52.971944444444446]}"
"CYRM","Rocky Mountain House","Rocky Mountain House","Canada","CAN",52.42968333333333,-114.90423333333334,"{""type"":""Point"",""coordinates"":[-114.90423333333334,52.42968333333333]}"
"CKS7","Wadena","Wadena","Canada","CAN",51.93333333333333,-103.83333333333333,"{""type"":""Point"",""coordinates"":[-103.83333333333333,51.93333333333333]}"
"CYNH","Hudson's Hope","Hudson's Hope","Canada","CAN",56.035555555555554,-121.97583333333334,"{""type"":""Point"",""coordinates"":[-121.97583333333334,56.035555555555554]}"
"CDL7","Doris Lake","Doris Lake","Canada","CAN",68.12529166666666,-106.58515277777778,"{""type"":""Point"",""coordinates"":[-106.58515277777778,68.12529166666666]}"
"CPP6","York","York","Canada","CAN",43.0375,-79.85249999999999,"{""type"":""Point"",""coordinates"":[-79.85249999999999,43.0375]}"
"CBH2","Helmet","Helmet","Canada","CAN",59.42576944444444,-120.79751388888889,"{""type"":""Point"",""coordinates"":[-120.79751388888889,59.42576944444444]}"
"CCP2","Exploits Valley (Botwood)","Exploits Valley","Canada","CAN",49.05611111111111,-55.448055555555555,"{""type"":""Point"",""coordinates"":[-55.448055555555555,49.05611111111111]}"
"CKK4","Estevan South","Estevan","Canada","CAN",49.038888888888884,-102.97611111111111,"{""type"":""Point"",""coordinates"":[-102.97611111111111,49.038888888888884]}"
"CYKF","Waterloo","Kitchener","Canada","CAN",43.460775000000005,-80.37871388888888,"{""type"":""Point"",""coordinates"":[-80.37871388888888,43.460775000000005]}"
"CET4","Ft Simpson I","Ft Simpson I","Canada","CAN",61.86666666666667,-121.36611111111111,"{""type"":""Point"",""coordinates"":[-121.36611111111111,61.86666666666667]}"
"CCB6","Clementsport Maplecove","Clementsport Maplecove","Canada","CAN",44.67777777777778,-65.60472222222222,"{""type"":""Point"",""coordinates"":[-65.60472222222222,44.67777777777778]}"
"CCA7","Apple River","Apple River","Canada","CAN",45.46666666666667,-64.81666666666666,"{""type"":""Point"",""coordinates"":[-64.81666666666666,45.46666666666667]}"
"CNX8","Nixon","Nixon","Canada","CAN",42.84744444444445,-80.3953888888889,"{""type"":""Point"",""coordinates"":[-80.3953888888889,42.84744444444445]}"
"CYDL","Dease Lake","Dease Lake","Canada","CAN",58.42231111111111,-130.03150555555558,"{""type"":""Point"",""coordinates"":[-130.03150555555558,58.42231111111111]}"
"CAM5","Houston","Houston","Canada","CAN",54.43333333333333,-126.78333333333333,"{""type"":""Point"",""coordinates"":[-126.78333333333333,54.43333333333333]}"
"CBS2","Blue Sky","Estevan","Canada","CAN",49.29411111111111,-103.02066666666667,"{""type"":""Point"",""coordinates"":[-103.02066666666667,49.29411111111111]}"
"CEY3","Ft Macleod","Ft Macleod","Canada","CAN",49.7,-113.41666666666667,"{""type"":""Point"",""coordinates"":[-113.41666666666667,49.7]}"
"CSL9","Baie-Comeau (Manic 1)","Baie-Comeau","Canada","CAN",49.18444444444444,-68.3625,"{""type"":""Point"",""coordinates"":[-68.3625,49.18444444444444]}"
"CAP6","Ingenika","Ingenika","Canada","CAN",56.79055555555556,-124.89666666666668,"{""type"":""Point"",""coordinates"":[-124.89666666666668,56.79055555555556]}"
"CCM4","Port Au Choix","Port Au Choix","Canada","CAN",50.68888888888888,-57.331388888888895,"{""type"":""Point"",""coordinates"":[-57.331388888888895,50.68888888888888]}"
"CYLS","Lake Simcoe","Barrie-Orillia","Canada","CAN",44.48603611111111,-79.55563055555555,"{""type"":""Point"",""coordinates"":[-79.55563055555555,44.48603611111111]}"
"CFR2","Blackwells","Bawlf","Canada","CAN",52.89333333333333,-112.5461111111111,"{""type"":""Point"",""coordinates"":[-112.5461111111111,52.89333333333333]}"
"CER3","Drayton Valley Industrial","Drayton Valley","Canada","CAN",53.26583333333333,-114.96027777777778,"{""type"":""Point"",""coordinates"":[-114.96027777777778,53.26583333333333]}"
"CEM4","Innisfail","Innisfail","Canada","CAN",52.078611111111115,-114.0275,"{""type"":""Point"",""coordinates"":[-114.0275,52.078611111111115]}"
"CYPW","Powell River","Powell River","Canada","CAN",49.83408055555556,-124.50033888888889,"{""type"":""Point"",""coordinates"":[-124.50033888888889,49.83408055555556]}"
"CCL3","Christina Lake","Christina Lake","Canada","CAN",55.628255555555555,-110.75036666666666,"{""type"":""Point"",""coordinates"":[-110.75036666666666,55.628255555555555]}"
"CCY3","Sussex","Sussex","Canada","CAN",45.686388888888885,-65.54188888888889,"{""type"":""Point"",""coordinates"":[-65.54188888888889,45.686388888888885]}"
"CZUC","Ignace Mun","Ignace","Canada","CAN",49.42972222222222,-91.71777777777778,"{""type"":""Point"",""coordinates"":[-91.71777777777778,49.42972222222222]}"
"CZFD","Fond-Du-Lac","Fond-Du-Lac","Canada","CAN",59.334500000000006,-107.182,"{""type"":""Point"",""coordinates"":[-107.182,59.334500000000006]}"
"CDW2","Baddeck (Guneden)","Baddeck","Canada","CAN",46.164225,-60.784194444444445,"{""type"":""Point"",""coordinates"":[-60.784194444444445,46.164225]}"
"CSL3","Lac-A-La-Tortue","Lac-A-La-Tortue","Canada","CAN",46.62166666666667,-72.63027777777778,"{""type"":""Point"",""coordinates"":[-72.63027777777778,46.62166666666667]}"
"CYMG","Manitouwadge","Manitouwadge","Canada","CAN",49.08320277777778,-85.86099999999999,"{""type"":""Point"",""coordinates"":[-85.86099999999999,49.08320277777778]}"
"CCG5","Cayuga (Bruce Field)","Cayuga","Canada","CAN",42.95105,-79.8249,"{""type"":""Point"",""coordinates"":[-79.8249,42.95105]}"
"CNL8","Boker Field","Wyevale","Canada","CAN",44.655277777777776,-79.87888888888888,"{""type"":""Point"",""coordinates"":[-79.87888888888888,44.655277777777776]}"
"CKQ3","North Spirit Lake","North Spirit Lake","Canada","CAN",52.48997222222222,-92.97110833333333,"{""type"":""Point"",""coordinates"":[-92.97110833333333,52.48997222222222]}"
"CCG4","McEwen","Moncton","Canada","CAN",46.153888888888886,-64.76861111111111,"{""type"":""Point"",""coordinates"":[-64.76861111111111,46.153888888888886]}"
"CYJA","Jasper","Jasper","Canada","CAN",52.99666666666667,-118.05944444444444,"{""type"":""Point"",""coordinates"":[-118.05944444444444,52.99666666666667]}"
"CEL6","Two Hills","Two Hills","Canada","CAN",53.7,-111.78333333333333,"{""type"":""Point"",""coordinates"":[-111.78333333333333,53.7]}"
"CLC4","Loon Creek","Loon Creek","Canada","CAN",50.845555555555556,-104.3236111111111,"{""type"":""Point"",""coordinates"":[-104.3236111111111,50.845555555555556]}"
"CAT5","Port Mc Neill","Port Mc Neill","Canada","CAN",50.571111111111115,-127.02472222222222,"{""type"":""Point"",""coordinates"":[-127.02472222222222,50.571111111111115]}"
"CAU4","Vanderhoof","Vanderhoof","Canada","CAN",54.04673888888889,-124.01118611111112,"{""type"":""Point"",""coordinates"":[-124.01118611111112,54.04673888888889]}"
"CCF3","Hopewell","Hopewell","Canada","CAN",45.472500000000004,-62.71805555555556,"{""type"":""Point"",""coordinates"":[-62.71805555555556,45.472500000000004]}"
"CCJ3","Boston Brook","Boston Brook","Canada","CAN",47.44824722222222,-67.62464999999999,"{""type"":""Point"",""coordinates"":[-67.62464999999999,47.44824722222222]}"
"CEL4","Hanna","Hanna","Canada","CAN",51.63138888888889,-111.90416666666667,"{""type"":""Point"",""coordinates"":[-111.90416666666667,51.63138888888889]}"
"CKG8","Kakabeka Falls","Kakabeka Falls","Canada","CAN",48.41833333333333,-89.60194444444444,"{""type"":""Point"",""coordinates"":[-89.60194444444444,48.41833333333333]}"
"CBX2","Mobil Sierra","Fort Nelson","Canada","CAN",58.834722222222226,-121.39277777777778,"{""type"":""Point"",""coordinates"":[-121.39277777777778,58.834722222222226]}"
"CCA6","Williams Harbour","Williams Harbour","Canada","CAN",52.56745555555556,-55.785025,"{""type"":""Point"",""coordinates"":[-55.785025,52.56745555555556]}"
"CZJG","Jenpeg","Jenpeg","Canada","CAN",54.51897777777778,-98.04605,"{""type"":""Point"",""coordinates"":[-98.04605,54.51897777777778]}"
"CYAL","Alert Bay","Alert Bay","Canada","CAN",50.58222222222223,-126.91555555555556,"{""type"":""Point"",""coordinates"":[-126.91555555555556,50.58222222222223]}"
"CEM3","Wha Ti","Lac La Martre","Canada","CAN",63.13180277777778,-117.24608055555555,"{""type"":""Point"",""coordinates"":[-117.24608055555555,63.13180277777778]}"
"CCA3","Cable Head Airpark","Cable Head Airpark","Canada","CAN",46.43333333333333,-62.583333333333336,"{""type"":""Point"",""coordinates"":[-62.583333333333336,46.43333333333333]}"
"CYAT","Attawapiskat","Attawapiskat","Canada","CAN",52.927591666666665,-82.43197500000001,"{""type"":""Point"",""coordinates"":[-82.43197500000001,52.927591666666665]}"
"CEZ3","Cooking Lake","Edmonton","Canada","CAN",53.427524999999996,-113.11556666666667,"{""type"":""Point"",""coordinates"":[-113.11556666666667,53.427524999999996]}"
"CYZS","Coral Harbour","Coral Harbour","Canada","CAN",64.19336666666668,-83.3593611111111,"{""type"":""Point"",""coordinates"":[-83.3593611111111,64.19336666666668]}"
"CSF7","Casselman (Shea)","Ottawa","Canada","CAN",45.29972222222222,-75.1713888888889,"{""type"":""Point"",""coordinates"":[-75.1713888888889,45.29972222222222]}"
"CAJ9","Ft Ware","Ft Ware","Canada","CAN",57.42722222222222,-125.65027777777779,"{""type"":""Point"",""coordinates"":[-125.65027777777779,57.42722222222222]}"
"CNP8","Greenbank","Greenbank","Canada","CAN",44.13424444444444,-79.01240277777778,"{""type"":""Point"",""coordinates"":[-79.01240277777778,44.13424444444444]}"
"CNY3","Collingwood","Collingwood","Canada","CAN",44.44944444444444,-80.15916666666668,"{""type"":""Point"",""coordinates"":[-80.15916666666668,44.44944444444444]}"
"CZHP","High Prairie","High Prairie","Canada","CAN",55.39355,-116.475825,"{""type"":""Point"",""coordinates"":[-116.475825,55.39355]}"
"CBZ9","Fraser Lake","Fraser Lake","Canada","CAN",54.013333333333335,-124.76833333333333,"{""type"":""Point"",""coordinates"":[-124.76833333333333,54.013333333333335]}"
"CJH8","Leask","Leask","Canada","CAN",53.016666666666666,-106.75,"{""type"":""Point"",""coordinates"":[-106.75,53.016666666666666]}"
"CYDF","Deer Lake","Deer Lake","Canada","CAN",49.20916944444445,-57.39435833333333,"{""type"":""Point"",""coordinates"":[-57.39435833333333,49.20916944444445]}"
"CJF8","Biggar","Biggar","Canada","CAN",52.051111111111105,-107.98833333333333,"{""type"":""Point"",""coordinates"":[-107.98833333333333,52.051111111111105]}"
"CBK6","Quesnel Lake","Quesnel Lake","Canada","CAN",52.515,-121.045,"{""type"":""Point"",""coordinates"":[-121.045,52.515]}"
"CAH3","Courtenay","Courtenay","Canada","CAN",49.67944444444444,-124.98166666666667,"{""type"":""Point"",""coordinates"":[-124.98166666666667,49.67944444444444]}"
"CMN6","Morinville (Mike's Field)","Edmonton","Canada","CAN",53.83694444444445,-113.56333333333333,"{""type"":""Point"",""coordinates"":[-113.56333333333333,53.83694444444445]}"
"CBV6","Petitot","Petitot","Canada","CAN",59.75,-121.83333333333333,"{""type"":""Point"",""coordinates"":[-121.83333333333333,59.75]}"
"CTN7","Canton","Canton","Canada","CAN",44.00286388888889,-78.36207222222221,"{""type"":""Point"",""coordinates"":[-78.36207222222221,44.00286388888889]}"
"CAW3","Scum Lake","Scum Lake","Canada","CAN",51.8,-123.58333333333333,"{""type"":""Point"",""coordinates"":[-123.58333333333333,51.8]}"
"CCK4","St Lewis (Fox Harbour)","St Lewis","Canada","CAN",52.37276111111111,-55.67400833333333,"{""type"":""Point"",""coordinates"":[-55.67400833333333,52.37276111111111]}"
"CYHH","Nemiscau","Nemiscau","Canada","CAN",51.691044444444444,-76.13554444444445,"{""type"":""Point"",""coordinates"":[-76.13554444444445,51.691044444444444]}"
"CFH4","Fox Harbour","Fox Harbour","Canada","CAN",45.870105555555554,-63.461130555555556,"{""type"":""Point"",""coordinates"":[-63.461130555555556,45.870105555555554]}"
"CDO2","Ostergard's","Drumheller","Canada","CAN",51.29533333333333,-112.61049999999999,"{""type"":""Point"",""coordinates"":[-112.61049999999999,51.29533333333333]}"
"CBB7","Tipella","Tipella","Canada","CAN",49.74305555555556,-122.16305555555556,"{""type"":""Point"",""coordinates"":[-122.16305555555556,49.74305555555556]}"
"CEE6","Twin Island","Edmonton","Canada","CAN",53.471111111111114,-113.15444444444445,"{""type"":""Point"",""coordinates"":[-113.15444444444445,53.471111111111114]}"
"CYTE","Cape Dorset","Cape Dorset","Canada","CAN",64.230225,-76.52486111111111,"{""type"":""Point"",""coordinates"":[-76.52486111111111,64.230225]}"
"CBQ7","Kemess Creek","Kemess Creek","Canada","CAN",56.97430555555556,-126.74091666666666,"{""type"":""Point"",""coordinates"":[-126.74091666666666,56.97430555555556]}"
"CSJ5","St-Louis-De-France","St-Louis-De-France","Canada","CAN",46.43666666666666,-72.63027777777778,"{""type"":""Point"",""coordinates"":[-72.63027777777778,46.43666666666666]}"
"CEN2","Bassano","Bassano","Canada","CAN",50.8,-112.46666666666667,"{""type"":""Point"",""coordinates"":[-112.46666666666667,50.8]}"
"CAX2","Axe Lake","Axe Lake","Canada","CAN",57.26903333333333,-109.8475,"{""type"":""Point"",""coordinates"":[-109.8475,57.26903333333333]}"
"CKX4","Fisher Branch","Fisher Branch","Canada","CAN",51.083333333333336,-97.48333333333333,"{""type"":""Point"",""coordinates"":[-97.48333333333333,51.083333333333336]}"
"CFA4","Carcross","Carcross","Canada","CAN",60.174166666666665,-134.6977777777778,"{""type"":""Point"",""coordinates"":[-134.6977777777778,60.174166666666665]}"
"CBE2","Demers Meml","Elko","Canada","CAN",49.28333333333333,-115.15,"{""type"":""Point"",""coordinates"":[-115.15,49.28333333333333]}"
"CAQ4","Springhouse Airpark","Springhouse","Canada","CAN",51.955555555555556,-122.13944444444445,"{""type"":""Point"",""coordinates"":[-122.13944444444445,51.955555555555556]}"
"CYOD","Group Captain R.W. McNair","Cold Lake","Canada","CAN",54.405,-110.27944444444444,"{""type"":""Point"",""coordinates"":[-110.27944444444444,54.405]}"
"CDH6","Delhi","Delhi","Canada","CAN",42.88461111111111,-80.40616666666668,"{""type"":""Point"",""coordinates"":[-80.40616666666668,42.88461111111111]}"
"CBN9","Tsay Keh","Tsay Keh","Canada","CAN",56.90611111111111,-124.965,"{""type"":""Point"",""coordinates"":[-124.965,56.90611111111111]}"
"CYYG","Charlottetown","Charlottetown","Canada","CAN",46.28915277777777,-63.11925,"{""type"":""Point"",""coordinates"":[-63.11925,46.28915277777777]}"
"CDT5","Buctouche","Buctouche","Canada","CAN",46.50936388888889,-64.69380833333334,"{""type"":""Point"",""coordinates"":[-64.69380833333334,46.50936388888889]}"
"CYHB","Hudson Bay","Hudson Bay","Canada","CAN",52.81823333333334,-102.31120277777778,"{""type"":""Point"",""coordinates"":[-102.31120277777778,52.81823333333334]}"
"CBM6","Midway","Midway","Canada","CAN",49.01,-118.78972222222222,"{""type"":""Point"",""coordinates"":[-118.78972222222222,49.01]}"
"CFZ3","Schlenker","Medicine Hat","Canada","CAN",49.97222222222222,-110.72361111111111,"{""type"":""Point"",""coordinates"":[-110.72361111111111,49.97222222222222]}"
"CJS2","Malcolm Island","Malcolm Island","Canada","CAN",56.94944444444444,-102.23916666666666,"{""type"":""Point"",""coordinates"":[-102.23916666666666,56.94944444444444]}"
"CJC8","Laurie River","Laurie River","Canada","CAN",56.24861111111111,-101.30416666666666,"{""type"":""Point"",""coordinates"":[-101.30416666666666,56.24861111111111]}"
"CRB4","Riviere Bonnard","Riviere Bonnard","Canada","CAN",50.70444444444445,-71.16250000000001,"{""type"":""Point"",""coordinates"":[-71.16250000000001,50.70444444444445]}"
"CBJ4","Echo Valley","Echo Valley","Canada","CAN",51.24166666666667,-121.99416666666667,"{""type"":""Point"",""coordinates"":[-121.99416666666667,51.24166666666667]}"
"CFP6","La Biche River","La Biche River","Canada","CAN",60.12916666666667,-124.04861111111111,"{""type"":""Point"",""coordinates"":[-124.04861111111111,60.12916666666667]}"
"CAT4","Qualicum Beach","Qualicum Beach","Canada","CAN",49.337294444444446,-124.39387777777779,"{""type"":""Point"",""coordinates"":[-124.39387777777779,49.337294444444446]}"
"CBB9","Osoyoos","Osoyoos","Canada","CAN",49.03722222222222,-119.4888888888889,"{""type"":""Point"",""coordinates"":[-119.4888888888889,49.03722222222222]}"
"CJH3","Maidstone","Maidstone","Canada","CAN",53.097905555555556,-109.32880277777777,"{""type"":""Point"",""coordinates"":[-109.32880277777777,53.097905555555556]}"
"CJV2","Neilburg","Neilburg","Canada","CAN",52.831388888888895,-109.64027777777778,"{""type"":""Point"",""coordinates"":[-109.64027777777778,52.831388888888895]}"
"CBF9","Mabel Lake","Mabel Lake","Canada","CAN",50.60888888888889,-118.73111111111112,"{""type"":""Point"",""coordinates"":[-118.73111111111112,50.60888888888889]}"
"CPB9","Baldwin","Baldwin","Canada","CAN",44.26722222222222,-79.34055555555555,"{""type"":""Point"",""coordinates"":[-79.34055555555555,44.26722222222222]}"
"CBW8","Baldwin West","Baldwin West","Canada","CAN",44.277499999999996,-79.36158333333333,"{""type"":""Point"",""coordinates"":[-79.36158333333333,44.277499999999996]}"
"CSH5","St-Ferdinand","St-Ferdinand","Canada","CAN",46.12625,-71.5363888888889,"{""type"":""Point"",""coordinates"":[-71.5363888888889,46.12625]}"
"CPG7","Juergensen Field","Fergus","Canada","CAN",43.735,-80.44722222222222,"{""type"":""Point"",""coordinates"":[-80.44722222222222,43.735]}"
"CBL8","Bala","Bala","Canada","CAN",45.03063888888889,-79.61805555555554,"{""type"":""Point"",""coordinates"":[-79.61805555555554,45.03063888888889]}"
"CAZ5","Cache Creek","Cache Creek","Canada","CAN",50.77503611111111,-121.32120555555555,"{""type"":""Point"",""coordinates"":[-121.32120555555555,50.77503611111111]}"
"CEH2","Cu Nim","Black Diamond","Canada","CAN",50.722500000000004,-114.17944444444444,"{""type"":""Point"",""coordinates"":[-114.17944444444444,50.722500000000004]}"
"CJU5","Minnedosa","Minnedosa","Canada","CAN",50.27194444444444,-99.76305555555555,"{""type"":""Point"",""coordinates"":[-99.76305555555555,50.27194444444444]}"
"CJL5","Lyncrest","Winnipeg","Canada","CAN",49.8525,-96.97361111111111,"{""type"":""Point"",""coordinates"":[-96.97361111111111,49.8525]}"
"CKJ7","Starbuck","Starbuck","Canada","CAN",49.70605277777778,-97.680525,"{""type"":""Point"",""coordinates"":[-97.680525,49.70605277777778]}"
"CYZD","Downsview","Toronto","Canada","CAN",43.74265555555556,-79.46563888888889,"{""type"":""Point"",""coordinates"":[-79.46563888888889,43.74265555555556]}"
"CAV4","Charlie Leake","McBride","Canada","CAN",53.315,-120.17055555555557,"{""type"":""Point"",""coordinates"":[-120.17055555555557,53.315]}"
"CEH6","Provost","Provost","Canada","CAN",52.337941666666666,-110.27866388888889,"{""type"":""Point"",""coordinates"":[-110.27866388888889,52.337941666666666]}"
"CLE4","Lower East Pubnico (La Field)","Lower East Pubnico","Canada","CAN",43.62222222222222,-65.76222222222222,"{""type"":""Point"",""coordinates"":[-65.76222222222222,43.62222222222222]}"
"CEB5","Fairview","Fairview","Canada","CAN",56.08126666666667,-118.43328333333334,"{""type"":""Point"",""coordinates"":[-118.43328333333334,56.08126666666667]}"
"CDA3","Valley","Valley","Canada","CAN",45.39666666666667,-63.21555555555556,"{""type"":""Point"",""coordinates"":[-63.21555555555556,45.39666666666667]}"
"CBBC","Bella Bella (Campbell I)","Bella Bella","Canada","CAN",52.185125,-128.15679166666666,"{""type"":""Point"",""coordinates"":[-128.15679166666666,52.185125]}"
"CYGM","Gimli Industrial Park","Gimli","Canada","CAN",50.628055555555555,-97.04222222222222,"{""type"":""Point"",""coordinates"":[-97.04222222222222,50.628055555555555]}"
"CBB2","Stouffville","Stouffville","Canada","CAN",43.993208333333335,-79.26705,"{""type"":""Point"",""coordinates"":[-79.26705,43.993208333333335]}"
"CEE8","Viking","Viking","Canada","CAN",53.10008333333334,-111.86755555555555,"{""type"":""Point"",""coordinates"":[-111.86755555555555,53.10008333333334]}"
"CAU3","Oliver","Oliver","Canada","CAN",49.17333333333333,-119.55111111111111,"{""type"":""Point"",""coordinates"":[-119.55111111111111,49.17333333333333]}"
"CAR2","Crawford Bay","Crawford Bay","Canada","CAN",49.666666666666664,-116.81666666666666,"{""type"":""Point"",""coordinates"":[-116.81666666666666,49.666666666666664]}"
"CYEG","Edmonton Intl","Edmonton","Canada","CAN",53.30988333333333,-113.57949444444444,"{""type"":""Point"",""coordinates"":[-113.57949444444444,53.30988333333333]}"
"CSQ3","Valcourt","Valcourt","Canada","CAN",45.48111111111111,-72.31027777777777,"{""type"":""Point"",""coordinates"":[-72.31027777777777,45.48111111111111]}"
"CYTR","Trenton","Trenton","Canada","CAN",44.11888888888889,-77.52805555555555,"{""type"":""Point"",""coordinates"":[-77.52805555555555,44.11888888888889]}"
"CYDQ","Dawson Creek","Dawson Creek","Canada","CAN",55.74226111111111,-120.18305833333334,"{""type"":""Point"",""coordinates"":[-120.18305833333334,55.74226111111111]}"
"CBA9","Ospika","Ospika","Canada","CAN",56.27075,-124.06384722222222,"{""type"":""Point"",""coordinates"":[-124.06384722222222,56.27075]}"
"CAV6","Av-Ranch","Beausejour","Canada","CAN",50.04111111111111,-96.58583333333333,"{""type"":""Point"",""coordinates"":[-96.58583333333333,50.04111111111111]}"
"CDJ4","Clearwater","Clearwater","Canada","CAN",46.713255555555556,-66.82831388888889,"{""type"":""Point"",""coordinates"":[-66.82831388888889,46.713255555555556]}"
"CFX6","Vulcan","Vulcan","Canada","CAN",50.40472222222222,-113.28333333333333,"{""type"":""Point"",""coordinates"":[-113.28333333333333,50.40472222222222]}"
"CAV9","Oak Hammock Air Park","Oak Hammock Air Park","Canada","CAN",50.13777777777778,-97.06138888888889,"{""type"":""Point"",""coordinates"":[-97.06138888888889,50.13777777777778]}"
"CAS3","Barkerville","Barkerville","Canada","CAN",53.088055555555556,-121.51527777777778,"{""type"":""Point"",""coordinates"":[-121.51527777777778,53.088055555555556]}"
"CJW7","Cigar Lake","Cigar Lake","Canada","CAN",58.05293611111111,-104.48450833333334,"{""type"":""Point"",""coordinates"":[-104.48450833333334,58.05293611111111]}"
"CAJ2","Wiley","Wiley","Canada","CAN",66.49111111111111,-136.57333333333332,"{""type"":""Point"",""coordinates"":[-136.57333333333332,66.49111111111111]}"
"CJJ4","Deloraine","Deloraine","Canada","CAN",49.15042222222222,-100.50054444444444,"{""type"":""Point"",""coordinates"":[-100.50054444444444,49.15042222222222]}"
"CMX2","Maxville","Maxville","Canada","CAN",45.29739166666666,-74.849925,"{""type"":""Point"",""coordinates"":[-74.849925,45.29739166666666]}"
"CSS4","St-Dominique","St-Dominique","Canada","CAN",45.6325,-72.81888888888888,"{""type"":""Point"",""coordinates"":[-72.81888888888888,45.6325]}"
"CYLW","Kelowna","Kelowna","Canada","CAN",49.95722222222223,-119.37777777777777,"{""type"":""Point"",""coordinates"":[-119.37777777777777,49.95722222222223]}"
"CCH4","Charlottetown","Charlottetown","Canada","CAN",52.76571944444444,-56.11258055555556,"{""type"":""Point"",""coordinates"":[-56.11258055555556,52.76571944444444]}"
"CBL6","Radium Hot Springs","Radium Hot Springs","Canada","CAN",50.63333333333333,-116.1,"{""type"":""Point"",""coordinates"":[-116.1,50.63333333333333]}"
"CFU3","Chipman","Chipman","Canada","CAN",53.71666666666667,-112.63333333333334,"{""type"":""Point"",""coordinates"":[-112.63333333333334,53.71666666666667]}"
"CPR2","Embrun","Ottawa","Canada","CAN",45.24111111111111,-75.29861111111111,"{""type"":""Point"",""coordinates"":[-75.29861111111111,45.24111111111111]}"
"CBW2","Kitimat","Kitimat","Canada","CAN",54.166666666666664,-128.58333333333334,"{""type"":""Point"",""coordinates"":[-128.58333333333334,54.166666666666664]}"
"CPF2","Bar River","Bar River","Canada","CAN",46.418927777777775,-84.09430277777777,"{""type"":""Point"",""coordinates"":[-84.09430277777777,46.418927777777775]}"
"CYLI","Lillooet","Lillooet","Canada","CAN",50.67472222222222,-121.89361111111111,"{""type"":""Point"",""coordinates"":[-121.89361111111111,50.67472222222222]}"
"CKB6","Wapekeka","Angling Lake","Canada","CAN",53.84906388888889,-89.57937777777778,"{""type"":""Point"",""coordinates"":[-89.57937777777778,53.84906388888889]}"
"CEL8","Eleonore","Eleonore","Canada","CAN",52.71873888888889,-76.08039166666666,"{""type"":""Point"",""coordinates"":[-76.08039166666666,52.71873888888889]}"
"CDH3","Finlay","Finlay","Canada","CAN",43.96222222222222,-65.99416666666667,"{""type"":""Point"",""coordinates"":[-65.99416666666667,43.96222222222222]}"
"CDD3","Ste-Agnes-De-Dundee","Ste-Agnes-De-Dundee","Canada","CAN",45.0475,-74.34333333333333,"{""type"":""Point"",""coordinates"":[-74.34333333333333,45.0475]}"
"CYEL","Elliot Lake Mun","Elliot Lake","Canada","CAN",46.35157777777778,-82.56104166666667,"{""type"":""Point"",""coordinates"":[-82.56104166666667,46.35157777777778]}"
"CFW2","Gordon Lake","Gordon Lake","Canada","CAN",56.61666666666667,-110.5,"{""type"":""Point"",""coordinates"":[-110.5,56.61666666666667]}"
"CSK6","Snap Lake","Snap Lake","Canada","CAN",63.593586111111115,-110.90546388888889,"{""type"":""Point"",""coordinates"":[-110.90546388888889,63.593586111111115]}"
"CPM7","Bradford","Bradford","Canada","CAN",44.13611111111111,-79.62888888888888,"{""type"":""Point"",""coordinates"":[-79.62888888888888,44.13611111111111]}"
"CKJ2","Rosenort","Rosenort","Canada","CAN",49.45305555555556,-97.4225,"{""type"":""Point"",""coordinates"":[-97.4225,49.45305555555556]}"
"CFM6","Teepee","Teepee","Canada","CAN",56.45944444444445,-114.11916666666666,"{""type"":""Point"",""coordinates"":[-114.11916666666666,56.45944444444445]}"
"CTT5","La Romaine","La Romaine","Canada","CAN",50.2596,-60.67391388888888,"{""type"":""Point"",""coordinates"":[-60.67391388888888,50.2596]}"
"CZPO","Pinehouse Lake","Pinehouse Lake","Canada","CAN",55.528124999999996,-106.58229999999999,"{""type"":""Point"",""coordinates"":[-106.58229999999999,55.528124999999996]}"
"CAA8","Invermere","Invermere","Canada","CAN",50.516666666666666,-116.00111111111111,"{""type"":""Point"",""coordinates"":[-116.00111111111111,50.516666666666666]}"
"CEC3","Fox Lake","Fox Lake","Canada","CAN",58.473333333333336,-114.54277777777777,"{""type"":""Point"",""coordinates"":[-114.54277777777777,58.473333333333336]}"
"CBG2","Green Lake","Green Lake","Canada","CAN",51.42944444444444,-121.20972222222223,"{""type"":""Point"",""coordinates"":[-121.20972222222223,51.42944444444444]}"
"CJR4","Eston","Eston","Canada","CAN",51.14416666666666,-108.76277777777777,"{""type"":""Point"",""coordinates"":[-108.76277777777777,51.14416666666666]}"
"CNQ3","Niagara Central Dorothy Rungeling","Welland","Canada","CAN",42.98011666666667,-79.32465555555555,"{""type"":""Point"",""coordinates"":[-79.32465555555555,42.98011666666667]}"
"CAE4","Tsacha Lake","Tsacha Lake","Canada","CAN",53.016666666666666,-124.83333333333333,"{""type"":""Point"",""coordinates"":[-124.83333333333333,53.016666666666666]}"
"CKM6","Easterville","Easterville","Canada","CAN",53.10871111111111,-99.79764444444444,"{""type"":""Point"",""coordinates"":[-99.79764444444444,53.10871111111111]}"
"CEN6","Vauxhall","Vauxhall","Canada","CAN",50.03333333333333,-112.08333333333333,"{""type"":""Point"",""coordinates"":[-112.08333333333333,50.03333333333333]}"
"CJD3","Birch Hills","Birch Hills","Canada","CAN",52.990833333333335,-105.44472222222223,"{""type"":""Point"",""coordinates"":[-105.44472222222223,52.990833333333335]}"
"CSL5","St-Victor-De-Beauce","St-Victor-De-Beauce","Canada","CAN",46.11833333333333,-70.88916666666667,"{""type"":""Point"",""coordinates"":[-70.88916666666667,46.11833333333333]}"
"CYFD","Brantford","Brantford","Canada","CAN",43.13238333333334,-80.34151944444444,"{""type"":""Point"",""coordinates"":[-80.34151944444444,43.13238333333334]}"
"CDY6","Dayspring","Bridgewater","Canada","CAN",44.38194444444444,-64.4575,"{""type"":""Point"",""coordinates"":[-64.4575,44.38194444444444]}"
"CYIN","Bleibler Ranch","Clinton","Canada","CAN",51.26633611111111,-121.68468333333334,"{""type"":""Point"",""coordinates"":[-121.68468333333334,51.26633611111111]}"
"CSM5","St-Michel-Des-Saints","St-Michel-Des-Saints","Canada","CAN",46.68083333333333,-73.99361111111111,"{""type"":""Point"",""coordinates"":[-73.99361111111111,46.68083333333333]}"
"CNL9","Nueltin Lake","Nueltin Lake","Canada","CAN",59.70801666666667,-100.12734722222221,"{""type"":""Point"",""coordinates"":[-100.12734722222221,59.70801666666667]}"
"CYPY","Ft Chipewyan","Ft Chipewyan","Canada","CAN",58.76743888888889,-111.1175611111111,"{""type"":""Point"",""coordinates"":[-111.1175611111111,58.76743888888889]}"
"CFX3","Doig","Doig","Canada","CAN",56.95,-119.51666666666667,"{""type"":""Point"",""coordinates"":[-119.51666666666667,56.95]}"
"CTK6","Kegaska","Kegaska","Canada","CAN",50.195775,-61.26584166666667,"{""type"":""Point"",""coordinates"":[-61.26584166666667,50.195775]}"
"CYYO","W B Needham","Wynyard","Canada","CAN",51.81000833333333,-104.16989166666667,"{""type"":""Point"",""coordinates"":[-104.16989166666667,51.81000833333333]}"
"CYKZ","Buttonville Mun","Toronto","Canada","CAN",43.86085555555556,-79.368725,"{""type"":""Point"",""coordinates"":[-79.368725,43.86085555555556]}"
"CYBG","Bagotville","Bagotville","Canada","CAN",48.330555555555556,-70.99638888888889,"{""type"":""Point"",""coordinates"":[-70.99638888888889,48.330555555555556]}"
"CFW5","Taltson River","Taltson River","Canada","CAN",60.39416666666666,-111.34722222222221,"{""type"":""Point"",""coordinates"":[-111.34722222222221,60.39416666666666]}"
"CJN4","Assiniboia","Assiniboia","Canada","CAN",49.734722222222224,-105.94694444444445,"{""type"":""Point"",""coordinates"":[-105.94694444444445,49.734722222222224]}"