"airportCode","airportName","cityName","countryName","countryCode","latitude","longitude","geometry"
"ZYYJ","Chaoyangchuan","Yanji","China","CHN",42.88166666666667,129.45,"{""type"":""Point"",""coordinates"":[129.45,42.88166666666667]}"
"ZYJM","Jiamusi","Jiamusi","China","CHN",46.84166666666667,130.46499999999997,"{""type"":""Point"",""coordinates"":[130.46499999999997,46.84166666666667]}"
"ZYHB","Taiping","Harbin","China","CHN",45.625,126.25166666666667,"{""type"":""Point"",""coordinates"":[126.25166666666667,45.625]}"
"ZWWW","Diwopu","Urumqi","China","CHN",43.90833333333333,87.47500000000001,"{""type"":""Point"",""coordinates"":[87.47500000000001,43.90833333333333]}"
"ZWSH","Kashi","Kashi","China","CHN",39.544999999999995,76.02166666666666,"{""type"":""Point"",""coordinates"":[76.02166666666666,39.544999999999995]}"
"ZWTL","Jiaohe","Turpan","China","CHN",43.031666666666666,89.1,"{""type"":""Point"",""coordinates"":[89.1,43.031666666666666]}"
"ZUXC","Qingshan","Xichang","China","CHN",27.990000000000002,102.18333333333334,"{""type"":""Point"",""coordinates"":[102.18333333333334,27.990000000000002]}"
"ZULS","Gonggar","Lhasa","China","CHN",29.296666666666667,90.91166666666668,"{""type"":""Point"",""coordinates"":[90.91166666666668,29.296666666666667]}"
"ZSYT","Penglai","Yantai","China","CHN",37.66166666666666,120.97833333333334,"{""type"":""Point"",""coordinates"":[120.97833333333334,37.66166666666666]}"
"ZGDY","Hehua","Zhangjiajie","China","CHN",29.101666666666667,110.44500000000001,"{""type"":""Point"",""coordinates"":[110.44500000000001,29.101666666666667]}"
"ZPPP","Changshui","Kunming","China","CHN",25.105,102.94166666666668,"{""type"":""Point"",""coordinates"":[102.94166666666668,25.105]}"
"ZSYA","Taizhou","Yangzhou","China","CHN",32.56166666666666,119.71833333333333,"{""type"":""Point"",""coordinates"":[119.71833333333333,32.56166666666666]}"
"ZUUU","Shuangliu","Chengdu","China","CHN",30.58,103.94833333333334,"{""type"":""Point"",""coordinates"":[103.94833333333334,30.58]}"
"ZSWZ","Longwan","Wenzhou","China","CHN",27.91,120.85333333333332,"{""type"":""Point"",""coordinates"":[120.85333333333332,27.91]}"
"ZGNN","Wuxu","Nanning","China","CHN",22.610000000000003,108.17333333333333,"{""type"":""Point"",""coordinates"":[108.17333333333333,22.610000000000003]}"
"ZSOF","Xinqiao","Hefei","China","CHN",31.986666666666668,116.97500000000001,"{""type"":""Point"",""coordinates"":[116.97500000000001,31.986666666666668]}"
"ZSWX","Shuofang","Wuxi","China","CHN",31.493333333333336,120.42833333333334,"{""type"":""Point"",""coordinates"":[120.42833333333334,31.493333333333336]}"
"ZW02","Qiuci","Kuqa","China","CHN",41.67666666666666,82.87166666666666,"{""type"":""Point"",""coordinates"":[82.87166666666666,41.67666666666666]}"
"ZSWH","Dashuipo","Weihai","China","CHN",37.18833333333333,122.23,"{""type"":""Point"",""coordinates"":[122.23,37.18833333333333]}"
"ZYMD","Hailang","Mudanjiang","China","CHN",44.52333333333333,129.57,"{""type"":""Point"",""coordinates"":[129.57,44.52333333333333]}"
"ZGHA","Huanghua","Changsha","China","CHN",28.19,113.21833333333333,"{""type"":""Point"",""coordinates"":[113.21833333333333,28.19]}"
"ZSCG","Benniu","Changzhou","China","CHN",31.918333333333333,119.77666666666667,"{""type"":""Point"",""coordinates"":[119.77666666666667,31.918333333333333]}"
"ZSTX","Tunxi","Huangshan","China","CHN",29.735,118.255,"{""type"":""Point"",""coordinates"":[118.255,29.735]}"
"ZYTL","Zhoushuizi","Dalian","China","CHN",38.96666666666667,121.53999999999999,"{""type"":""Point"",""coordinates"":[121.53999999999999,38.96666666666667]}"
"ZUCK","Jiangbei","Chongqing","China","CHN",29.72,106.64,"{""type"":""Point"",""coordinates"":[106.64,29.72]}"
"ZSSS","Hongqiao","Shanghai","China","CHN",31.196666666666665,121.335,"{""type"":""Point"",""coordinates"":[121.335,31.196666666666665]}"
"ZLLL","Zhongchuan","Lanzhou","China","CHN",36.516666666666666,103.62166666666666,"{""type"":""Point"",""coordinates"":[103.62166666666666,36.516666666666666]}"
"ZSQZ","Jinjiang","Quanzhou","China","CHN",24.798333333333336,118.58833333333332,"{""type"":""Point"",""coordinates"":[118.58833333333332,24.798333333333336]}"
"ZSQD","Liuting","Qingdao","China","CHN",36.265,120.37333333333332,"{""type"":""Point"",""coordinates"":[120.37333333333332,36.265]}"
"ZWKC","Qiuci","Kuqa","China","CHN",41.67666666666666,82.87166666666666,"{""type"":""Point"",""coordinates"":[82.87166666666666,41.67666666666666]}"
"ZSNT","Xingdong","Nantong","China","CHN",32.068333333333335,120.98166666666667,"{""type"":""Point"",""coordinates"":[120.98166666666667,32.068333333333335]}"
"ZLDH","Dunhuang","Dunhuang","China","CHN",40.163333333333334,94.81,"{""type"":""Point"",""coordinates"":[94.81,40.163333333333334]}"
"ZSNB","Lishe","Ningbo","China","CHN",29.826666666666668,121.46333333333334,"{""type"":""Point"",""coordinates"":[121.46333333333334,29.826666666666668]}"
"ZUGY","Longdongbao","Guiyang","China","CHN",26.53666666666667,106.8,"{""type"":""Point"",""coordinates"":[106.8,26.53666666666667]}"
"ZSHC","Xiaoshan","Hangzhou","China","CHN",30.22833333333333,120.43333333333334,"{""type"":""Point"",""coordinates"":[120.43333333333334,30.22833333333333]}"
"ZSFZ","Changle","Fuzhou","China","CHN",25.933333333333334,119.665,"{""type"":""Point"",""coordinates"":[119.665,25.933333333333334]}"
"ZSYW","Yiwu","Yiwu","China","CHN",29.343333333333334,120.03333333333333,"{""type"":""Point"",""coordinates"":[120.03333333333333,29.343333333333334]}"
"ZSAM","Gaoqi","Xiamen","China","CHN",24.545,118.12666666666667,"{""type"":""Point"",""coordinates"":[118.12666666666667,24.545]}"
"ZBYN","Wusu","Taiyuan","China","CHN",37.748333333333335,112.63,"{""type"":""Point"",""coordinates"":[112.63,37.748333333333335]}"
"ZPJH","Gasa","Xishuangbanna","China","CHN",21.974999999999998,100.76166666666667,"{""type"":""Point"",""coordinates"":[100.76166666666667,21.974999999999998]}"
"ZYTX","Taoxian","Shenyang","China","CHN",41.641666666666666,123.485,"{""type"":""Point"",""coordinates"":[123.485,41.641666666666666]}"
"ZGGG","Baiyun","Guangzhou","China","CHN",23.393333333333334,113.30833333333334,"{""type"":""Point"",""coordinates"":[113.30833333333334,23.393333333333334]}"
"ZLXN","Caojiapu","Xining","China","CHN",36.526666666666664,102.04166666666667,"{""type"":""Point"",""coordinates"":[102.04166666666667,36.526666666666664]}"
"ZPLJ","Sanyi","Lijiang","China","CHN",26.678333333333335,100.24666666666667,"{""type"":""Point"",""coordinates"":[100.24666666666667,26.678333333333335]}"
"ZLJQ","Jiayuguan","Jiayuguan","China","CHN",39.858333333333334,98.33999999999999,"{""type"":""Point"",""coordinates"":[98.33999999999999,39.858333333333334]}"
"ZL02","Jiayuguan","Jiayuguan","China","CHN",39.858333333333334,98.33999999999999,"{""type"":""Point"",""coordinates"":[98.33999999999999,39.858333333333334]}"
"ZLIC","Hedong","Yinchuan","China","CHN",38.32,106.39333333333335,"{""type"":""Point"",""coordinates"":[106.39333333333335,38.32]}"
"ZYQQ","Sanjiazi","Qiqihar","China","CHN",47.23833333333334,123.91666666666667,"{""type"":""Point"",""coordinates"":[123.91666666666667,47.23833333333334]}"
"ZGKL","Liangjiang","Guilin","China","CHN",25.216666666666665,110.03833333333333,"{""type"":""Point"",""coordinates"":[110.03833333333333,25.216666666666665]}"
"ZBAA","Beijing Capital","Beijing","China","CHN",40.07333333333334,116.59833333333333,"{""type"":""Point"",""coordinates"":[116.59833333333333,40.07333333333334]}"
"ZL03","Batang","Yushu","China","CHN",32.835,97.035,"{""type"":""Point"",""coordinates"":[97.035,32.835]}"
"ZL01","Dunhuang","Dunhuang","China","CHN",40.163333333333334,94.81,"{""type"":""Point"",""coordinates"":[94.81,40.163333333333334]}"
"ZW01","Jiaohe","Tulufan","China","CHN",43.031666666666666,89.1,"{""type"":""Point"",""coordinates"":[89.1,43.031666666666666]}"
"ZSXZ","Guanyin","Xuzhou","China","CHN",34.05833333333333,117.55499999999999,"{""type"":""Point"",""coordinates"":[117.55499999999999,34.05833333333333]}"
"ZBLA","Hailar","Hulunbeier","China","CHN",49.205000000000005,119.82666666666667,"{""type"":""Point"",""coordinates"":[119.82666666666667,49.205000000000005]}"
"ZBSJ","Zhengding","Shijiazhuang","China","CHN",38.281666666666666,114.69833333333334,"{""type"":""Point"",""coordinates"":[114.69833333333334,38.281666666666666]}"
"ZJSY","Phoenix Intl","Sanya","China","CHN",18.301666666666666,109.41333333333334,"{""type"":""Point"",""coordinates"":[109.41333333333334,18.301666666666666]}"
"ZSSH","Huaian","Lianshui","China","CHN",33.79,119.12333333333332,"{""type"":""Point"",""coordinates"":[119.12333333333332,33.79]}"
"ZSCN","Changbei","Nanchang","China","CHN",28.863333333333333,115.9,"{""type"":""Point"",""coordinates"":[115.9,28.863333333333333]}"
"ZLYS","Batang","Yushu","China","CHN",32.835,97.035,"{""type"":""Point"",""coordinates"":[97.035,32.835]}"
"ZLXY","Xianyang","Xi'An","China","CHN",34.44499999999999,108.75,"{""type"":""Point"",""coordinates"":[108.75,34.44499999999999]}"
"ZBTJ","Binhai","Tianjin","China","CHN",39.123333333333335,117.345,"{""type"":""Point"",""coordinates"":[117.345,39.123333333333335]}"
"ZHCC","Xinzheng","Zhengzhou","China","CHN",34.51833333333333,113.83999999999999,"{""type"":""Point"",""coordinates"":[113.83999999999999,34.51833333333333]}"
"ZWTN","Hotan","Hotan","China","CHN",37.04,79.86166666666666,"{""type"":""Point"",""coordinates"":[79.86166666666666,37.04]}"
"ZSNJ","Lukou","Nanjing","China","CHN",31.743333333333336,118.86333333333333,"{""type"":""Point"",""coordinates"":[118.86333333333333,31.743333333333336]}"
"ZHHH","Tianhe","Wuhan","China","CHN",30.785,114.20666666666666,"{""type"":""Point"",""coordinates"":[114.20666666666666,30.785]}"
"ZYCC","Longjia","Changchun","China","CHN",43.998333333333335,125.68833333333333,"{""type"":""Point"",""coordinates"":[125.68833333333333,43.998333333333335]}"
"ZSJN","Yaoqiang","Jinan","China","CHN",36.858333333333334,117.215,"{""type"":""Point"",""coordinates"":[117.215,36.858333333333334]}"
"ZGSZ","Baoan","Shenzhen","China","CHN",22.638333333333332,113.81166666666667,"{""type"":""Point"",""coordinates"":[113.81166666666667,22.638333333333332]}"
"ZBMZ","Xijiao","Manzhouli","China","CHN",49.565,117.33333333333333,"{""type"":""Point"",""coordinates"":[117.33333333333333,49.565]}"
"ZBHH","Baita","Hohhot","China","CHN",40.848333333333336,111.82333333333332,"{""type"":""Point"",""coordinates"":[111.82333333333332,40.848333333333336]}"
"ZJHK","Meilan","Haikou","China","CHN",19.933333333333334,110.46000000000001,"{""type"":""Point"",""coordinates"":[110.46000000000001,19.933333333333334]}"
"ZSPD","Pudong","Shanghai","China","CHN",31.145,121.79333333333334,"{""type"":""Point"",""coordinates"":[121.79333333333334,31.145]}"
"ZSYN","Nanyang","Yancheng","China","CHN",33.425,120.20166666666667,"{""type"":""Point"",""coordinates"":[120.20166666666667,33.425]}"
"ZGOW","Chaoshan","Jieyang","China","CHN",23.553333333333335,116.50166666666667,"{""type"":""Point"",""coordinates"":[116.50166666666667,23.553333333333335]}"