"airportCode","airportName","cityName","countryName","countryCode","latitude","longitude","geometry"
"FZWR","Kisengwa","Kisengwa","Congo, Dr Of","COD",-6.016666666666667,25.883333333333333,"{""type"":""Point"",""coordinates"":[25.883333333333333,-6.016666666666667]}"
"FZRM","Kabalo","Kabalo","Congo, Dr Of","COD",-6.083333333333333,26.916666666666668,"{""type"":""Point"",""coordinates"":[26.916666666666668,-6.083333333333333]}"
"FZUA","Kananga","Kananga","Congo, Dr Of","COD",-5.900080555555556,22.469199999999997,"{""type"":""Point"",""coordinates"":[22.469199999999997,-5.900080555555556]}"
"FZQM","Kolwezi","Kolwezi","Congo, Dr Of","COD",-10.766666666666667,25.5,"{""type"":""Point"",""coordinates"":[25.5,-10.766666666666667]}"
"FZOP","Punia","Punia","Congo, Dr Of","COD",-1.3666666666666667,26.333333333333332,"{""type"":""Point"",""coordinates"":[26.333333333333332,-1.3666666666666667]}"
"FZSB","Kamina","Kamina","Congo, Dr Of","COD",-8.733333333333333,24.983333333333334,"{""type"":""Point"",""coordinates"":[24.983333333333334,-8.733333333333333]}"
"FZNP","Beni Mavivi","Beni Mavivi","Congo, Dr Of","COD",0.5833333333333334,29.466666666666665,"{""type"":""Point"",""coordinates"":[29.466666666666665,0.5833333333333334]}"
"FZOD","Kalima","Kalima","Congo, Dr Of","COD",-2.5833333333333335,26.733333333333334,"{""type"":""Point"",""coordinates"":[26.733333333333334,-2.5833333333333335]}"
"FZNC","Rutshuru","Rutshuru","Congo, Dr Of","COD",-1.1666666666666667,29.416666666666668,"{""type"":""Point"",""coordinates"":[29.416666666666668,-1.1666666666666667]}"
"FZCA","Kikwit","Kikwit","Congo, Dr Of","COD",-5.033333333333333,18.783333333333335,"{""type"":""Point"",""coordinates"":[18.783333333333335,-5.033333333333333]}"
"FZAM","Matadi-Tshimpi","Matadi-Tshimpi","Congo, Dr Of","COD",-5.8,13.433333333333334,"{""type"":""Point"",""coordinates"":[13.433333333333334,-5.8]}"
"FZNA","Goma Intl","Goma","Congo, Dr Of","COD",-1.6708527777777775,29.23840277777778,"{""type"":""Point"",""coordinates"":[29.23840277777778,-1.6708527777777775]}"
"FZKJ","Buta-Zega","Buta-Zega","Congo, Dr Of","COD",2.8166666666666664,24.783333333333335,"{""type"":""Point"",""coordinates"":[24.783333333333335,2.8166666666666664]}"
"FZCF","Kahemba","Kahemba","Congo, Dr Of","COD",-7.333333333333333,19.016666666666666,"{""type"":""Point"",""coordinates"":[19.016666666666666,-7.333333333333333]}"
"FZMW","Shabunda","Shabunda","Congo, Dr Of","COD",-2.6833333333333336,27.333333333333332,"{""type"":""Point"",""coordinates"":[27.333333333333332,-2.6833333333333336]}"
"FZKA","Bunia","Bunia","Congo, Dr Of","COD",1.5657944444444445,30.220641666666666,"{""type"":""Point"",""coordinates"":[30.220641666666666,1.5657944444444445]}"
"FZWA","Mbuji-Mayi","Mbuji-Mayi","Congo, Dr Of","COD",-6.116666666666666,23.566666666666666,"{""type"":""Point"",""coordinates"":[23.566666666666666,-6.116666666666666]}"
"FZSA","Kamina Base","Kamina","Congo, Dr Of","COD",-8.626666666666667,25.248055555555556,"{""type"":""Point"",""coordinates"":[25.248055555555556,-8.626666666666667]}"
"FZIC","Bangoka Intl","Kisangani","Congo, Dr Of","COD",0.48167777777777776,25.337963888888886,"{""type"":""Point"",""coordinates"":[25.337963888888886,0.48167777777777776]}"
"FZJH","Isiro-Matari","Isiro-Matari","Congo, Dr Of","COD",2.826666666666666,27.588055555555556,"{""type"":""Point"",""coordinates"":[27.588055555555556,2.826666666666666]}"
"FZFU","Bumba","Bumba","Congo, Dr Of","COD",2.183333333333333,22.55,"{""type"":""Point"",""coordinates"":[22.55,2.183333333333333]}"
"FZAB","N'Dolo","Kinshasa","Congo, Dr Of","COD",-4.316666666666666,15.316666666666666,"{""type"":""Point"",""coordinates"":[15.316666666666666,-4.316666666666666]}"
"FZFK","Gemena","Gemena","Congo, Dr Of","COD",3.236666666666667,19.774444444444445,"{""type"":""Point"",""coordinates"":[19.774444444444445,3.236666666666667]}"
"FZFE","Abumumbazi","Abumumbazi","Congo, Dr Of","COD",3.6833333333333336,22.15,"{""type"":""Point"",""coordinates"":[22.15,3.6833333333333336]}"
"FZCS","Kenge","Kenge","Congo, Dr Of","COD",-4.833333333333333,17.033333333333335,"{""type"":""Point"",""coordinates"":[17.033333333333335,-4.833333333333333]}"
"FZRA","Manono","Manono","Congo, Dr Of","COD",-7.283333333333333,27.4,"{""type"":""Point"",""coordinates"":[27.4,-7.283333333333333]}"
"FZFA","Libenge","Libenge","Congo, Dr Of","COD",3.6333333333333333,18.633333333333333,"{""type"":""Point"",""coordinates"":[18.633333333333333,3.6333333333333333]}"
"FZBI","Nioki","Nioki","Congo, Dr Of","COD",-2.716666666666667,17.683333333333334,"{""type"":""Point"",""coordinates"":[17.683333333333334,-2.716666666666667]}"
"FZQA","Lubumbashi Intl","Lubumbashi","Congo, Dr Of","COD",-11.591283333333333,27.530897222222222,"{""type"":""Point"",""coordinates"":[27.530897222222222,-11.591283333333333]}"
"FZGN","Boende","Boende","Congo, Dr Of","COD",-0.23333333333333334,20.866666666666667,"{""type"":""Point"",""coordinates"":[20.866666666666667,-0.23333333333333334]}"
"FZQU","Lubudi","Lubudi","Congo, Dr Of","COD",-9.933333333333334,26,"{""type"":""Point"",""coordinates"":[26,-9.933333333333334]}"
"FZFD","Gbadolite","Gbadolite","Congo, Dr Of","COD",4.25,20.966666666666665,"{""type"":""Point"",""coordinates"":[20.966666666666665,4.25]}"
"FZMA","Kavuma","Bukavu","Congo, Dr Of","COD",-2.308983333333333,28.80881666666667,"{""type"":""Point"",""coordinates"":[28.80881666666667,-2.308983333333333]}"
"FZBE","Beno","Beno","Congo, Dr Of","COD",-3.6,17.783333333333335,"{""type"":""Point"",""coordinates"":[17.783333333333335,-3.6]}"
"FZOA","Kindu","Kindu","Congo, Dr Of","COD",-2.9192388888888887,25.915369444444444,"{""type"":""Point"",""coordinates"":[25.915369444444444,-2.9192388888888887]}"
"FZEN","Basankusu","Basankusu","Congo, Dr Of","COD",1.2166666666666668,19.8,"{""type"":""Point"",""coordinates"":[19.8,1.2166666666666668]}"
"FZBA","Inongo","Inongo","Congo, Dr Of","COD",-1.95,18.283333333333335,"{""type"":""Point"",""coordinates"":[18.283333333333335,-1.95]}"
"FZEA","Mbandaka","Mbandaka","Congo, Dr Of","COD",0.02253888888888889,18.288755555555557,"{""type"":""Point"",""coordinates"":[18.288755555555557,0.02253888888888889]}"
"FZVA","Lodja","Lodja","Congo, Dr Of","COD",-3.4166666666666665,23.45,"{""type"":""Point"",""coordinates"":[23.45,-3.4166666666666665]}"
"FZBO","Bandundu","Bandundu","Congo, Dr Of","COD",-3.3,17.383333333333333,"{""type"":""Point"",""coordinates"":[17.383333333333333,-3.3]}"
"FZVI","Lusambo","Lusambo","Congo, Dr Of","COD",-4.966666666666667,23.383333333333333,"{""type"":""Point"",""coordinates"":[23.383333333333333,-4.966666666666667]}"
"FZAJ","Boma","Boma","Congo, Dr Of","COD",-5.866666666666667,13.066666666666666,"{""type"":""Point"",""coordinates"":[13.066666666666666,-5.866666666666667]}"
"FZAG","Muanda","Muanda","Congo, Dr Of","COD",-5.933333333333334,12.35,"{""type"":""Point"",""coordinates"":[12.35,-5.933333333333334]}"
"FZRF","Kalemie","Kalemie","Congo, Dr Of","COD",-5.875527777777778,29.24936388888889,"{""type"":""Point"",""coordinates"":[29.24936388888889,-5.875527777777778]}"
"FZGV","Ikela","Ikela","Congo, Dr Of","COD",-1.2,23.283333333333335,"{""type"":""Point"",""coordinates"":[23.283333333333335,-1.2]}"
"FZAA","N'Djili Intl","Kinshasa","Congo, Dr Of","COD",-4.385586111111111,15.444697222222223,"{""type"":""Point"",""coordinates"":[15.444697222222223,-4.385586111111111]}"