"airportCode","airportName","cityName","countryName","countryCode","latitude","longitude","geometry"
"SKVV","Vanguardia","Villavicencio","Colombia","COL",4.168405555555556,-73.61465833333332,"{""type"":""Point"",""coordinates"":[-73.61465833333332,4.168405555555556]}"
"SKVP","Alfonso Lopez Pumarejo","Valledupar","Colombia","COL",10.435130555555556,-73.24939722222223,"{""type"":""Point"",""coordinates"":[-73.24939722222223,10.435130555555556]}"
"SKUI","El Carano","Quibdo","Colombia","COL",5.690797222222223,-76.64121944444445,"{""type"":""Point"",""coordinates"":[-76.64121944444445,5.690797222222223]}"
"SKUC","Santiago Perez","Arauca","Colombia","COL",7.0689111111111105,-70.73695833333333,"{""type"":""Point"",""coordinates"":[-70.73695833333333,7.0689111111111105]}"
"SKSP","Gustavo Rojas Pinilla","San Andres","Colombia","COL",12.583661111111113,-81.71133888888889,"{""type"":""Point"",""coordinates"":[-81.71133888888889,12.583661111111113]}"
"SKSJ","Jorge E Gonzalez","San Jose Del Guaviare","Colombia","COL",2.5796777777777775,-72.639125,"{""type"":""Point"",""coordinates"":[-72.639125,2.5796777777777775]}"
"SKSO","Alberto Lleras Camargo","Sogamoso","Colombia","COL",5.6765083333333335,-72.96976666666667,"{""type"":""Point"",""coordinates"":[-72.96976666666667,5.6765083333333335]}"
"SKSF","Sta Fe De Antioquia","Sta Fe De Antioquia","Colombia","COL",6.505,-75.83166666666666,"{""type"":""Point"",""coordinates"":[-75.83166666666666,6.505]}"
"SKRH","Almirante Padilla","Riohacha","Colombia","COL",11.526166666666667,-72.92668333333334,"{""type"":""Point"",""coordinates"":[-72.92668333333334,11.526166666666667]}"
"SKLC","Antonio Roldan Betancourt","Carepa","Colombia","COL",7.81175,-76.71644166666667,"{""type"":""Point"",""coordinates"":[-76.71644166666667,7.81175]}"
"SKPV","El Embrujo","Isla Providencia","Colombia","COL",13.357163888888888,-81.357925,"{""type"":""Point"",""coordinates"":[-81.357925,13.357163888888888]}"
"SKPP","Guillermo Leon Valencia","Popayan","Colombia","COL",2.454352777777778,-76.60979722222221,"{""type"":""Point"",""coordinates"":[-76.60979722222221,2.454352777777778]}"
"SKMZ","La Nubia","Manizales","Colombia","COL",5.030047222222223,-75.46545277777778,"{""type"":""Point"",""coordinates"":[-75.46545277777778,5.030047222222223]}"
"SKPI","Contador","Pitalito","Colombia","COL",1.8573000000000002,-76.08563055555555,"{""type"":""Point"",""coordinates"":[-76.08563055555555,1.8573000000000002]}"
"SKYP","El Yopal","El Yopal","Colombia","COL",5.3191444444444445,-72.38422777777778,"{""type"":""Point"",""coordinates"":[-72.38422777777778,5.3191444444444445]}"
"SKSA","Colonizadores","Saravena","Colombia","COL",6.950366666666667,-71.85620277777777,"{""type"":""Point"",""coordinates"":[-71.85620277777777,6.950366666666667]}"
"SKEJ","Yariguies","Barrancabermeja","Colombia","COL",7.024438888888889,-73.8068111111111,"{""type"":""Point"",""coordinates"":[-73.8068111111111,7.024438888888889]}"
"SKPA","Juan Jose Rondon","Paipa","Colombia","COL",5.764411111111111,-73.10571666666667,"{""type"":""Point"",""coordinates"":[-73.10571666666667,5.764411111111111]}"
"SKUR","Urrao","Urrao","Colombia","COL",6.333333333333333,-76.16666666666667,"{""type"":""Point"",""coordinates"":[-76.16666666666667,6.333333333333333]}"
"SKOT","Otu","Remedios","Colombia","COL",7.010555555555555,-74.71555555555555,"{""type"":""Point"",""coordinates"":[-74.71555555555555,7.010555555555555]}"
"SKUL","Farfan","Tulua","Colombia","COL",4.096388888888889,-76.22361111111111,"{""type"":""Point"",""coordinates"":[-76.22361111111111,4.096388888888889]}"
"SKOE","Orocue","Orocue","Colombia","COL",4.792222222222222,-71.35638888888889,"{""type"":""Point"",""coordinates"":[-71.35638888888889,4.792222222222222]}"
"SKNQ","Reyes Murillo","Nuqui","Colombia","COL",5.709508333333334,-77.26271111111112,"{""type"":""Point"",""coordinates"":[-77.26271111111112,5.709508333333334]}"
"SKPZ","Paz De Ariporo","Paz De Ariporo","Colombia","COL",5.876241666666667,-71.88838055555556,"{""type"":""Point"",""coordinates"":[-71.88838055555556,5.876241666666667]}"
"SKPD","Cesar Gaviria Trujillo","Puerto Inirida","Colombia","COL",3.8535500000000003,-67.90628333333333,"{""type"":""Point"",""coordinates"":[-67.90628333333333,3.8535500000000003]}"
"SKTB","Tibu","Tibu","Colombia","COL",8.633333333333333,-72.7,"{""type"":""Point"",""coordinates"":[-72.7,8.633333333333333]}"
"SKNC","Necocli","Necocli","Colombia","COL",8.45,-76.78333333333333,"{""type"":""Point"",""coordinates"":[-76.78333333333333,8.45]}"
"SKVG","Villagarzon","Villagarzon","Colombia","COL",0.9785027777777778,-76.60634999999999,"{""type"":""Point"",""coordinates"":[-76.60634999999999,0.9785027777777778]}"
"SKPS","Antonio Narino","Pasto","Colombia","COL",1.3965055555555554,-77.29107222222223,"{""type"":""Point"",""coordinates"":[-77.29107222222223,1.3965055555555554]}"
"SKMU","Leon Bentley","Mitu","Colombia","COL",1.2535055555555557,-70.23408888888889,"{""type"":""Point"",""coordinates"":[-70.23408888888889,1.2535055555555557]}"
"SKJC","Juanchaco","Buenaventura","Colombia","COL",3.9380555555555556,-77.36138888888888,"{""type"":""Point"",""coordinates"":[-77.36138888888888,3.9380555555555556]}"
"SKMO","Morelia","Puerto Gaitan","Colombia","COL",3.750277777777778,-71.45620555555556,"{""type"":""Point"",""coordinates"":[-71.45620555555556,3.750277777777778]}"
"SKCZ","Las Brujas","Corozal","Colombia","COL",9.332597222222223,-75.28522222222222,"{""type"":""Point"",""coordinates"":[-75.28522222222222,9.332597222222223]}"
"SKPR","Morela","Puerto Berrio","Colombia","COL",6.459936111111111,-74.41064166666668,"{""type"":""Point"",""coordinates"":[-74.41064166666668,6.459936111111111]}"
"SKML","Montelibano","Montelibano","Colombia","COL",7.974166666666667,-75.41888888888889,"{""type"":""Point"",""coordinates"":[-75.41888888888889,7.974166666666667]}"
"SKPE","Matecana","Pereira","Colombia","COL",4.812761111111111,-75.73931944444445,"{""type"":""Point"",""coordinates"":[-75.73931944444445,4.812761111111111]}"
"SKPC","German Olano","Puerto Carreno","Colombia","COL",6.185116666666667,-67.49257222222222,"{""type"":""Point"",""coordinates"":[-67.49257222222222,6.185116666666667]}"
"SKMF","Miraflores","Miraflores","Colombia","COL",1.35,-71.94500000000001,"{""type"":""Point"",""coordinates"":[-71.94500000000001,1.35]}"
"SKMJ","San Jose De Maicao","Maicao","Colombia","COL",11.383333333333333,-72.23333333333333,"{""type"":""Point"",""coordinates"":[-72.23333333333333,11.383333333333333]}"
"SKIB","Perales","Ibague","Colombia","COL",4.421652777777778,-75.13361111111112,"{""type"":""Point"",""coordinates"":[-75.13361111111112,4.421652777777778]}"
"SKTL","Golfo de Morrosquillo","Tolu","Colombia","COL",9.509527777777778,-75.5858611111111,"{""type"":""Point"",""coordinates"":[-75.5858611111111,9.509527777777778]}"
"SKAR","El Eden","Armenia","Colombia","COL",4.451752777777778,-75.76617222222222,"{""type"":""Point"",""coordinates"":[-75.76617222222222,4.451752777777778]}"
"SKLT","Alfredo Vasquez Cobo","Leticia","Colombia","COL",-4.191908333333334,-69.94220277777778,"{""type"":""Point"",""coordinates"":[-69.94220277777778,-4.191908333333334]}"
"SKMG","Baracoa","Magangue","Colombia","COL",9.284880555555555,-74.84645555555555,"{""type"":""Point"",""coordinates"":[-74.84645555555555,9.284880555555555]}"
"SKQU","Jose Celestino Mutis","Mariquita","Colombia","COL",5.212613888888889,-74.88370833333335,"{""type"":""Point"",""coordinates"":[-74.88370833333335,5.212613888888889]}"
"SKMA","Madrid Air Base","Madrid","Colombia","COL",4.7316666666666665,-74.275,"{""type"":""Point"",""coordinates"":[-74.275,4.7316666666666665]}"
"SKLG","Caucaya","Puerto Leguizamo","Colombia","COL",-0.18227777777777776,-74.77077777777778,"{""type"":""Point"",""coordinates"":[-74.77077777777778,-0.18227777777777776]}"
"SKBC","El Banco Apt.","El Banco","Colombia","COL",9.044611111111111,-73.97358333333334,"{""type"":""Point"",""coordinates"":[-73.97358333333334,9.044611111111111]}"
"SKLA","Malaga","Malaga","Colombia","COL",6.705894444444445,-72.73053055555556,"{""type"":""Point"",""coordinates"":[-72.73053055555556,6.705894444444445]}"
"SKBU","Buenaventura","Buenaventura","Colombia","COL",3.819572222222222,-76.98990555555555,"{""type"":""Point"",""coordinates"":[-76.98990555555555,3.819572222222222]}"
"SKMD","Olaya Herrera","Medellin","Colombia","COL",6.220441666666667,-75.59043333333332,"{""type"":""Point"",""coordinates"":[-75.59043333333332,6.220441666666667]}"
"SKFR","Furatena","Quipama","Colombia","COL",5.5275,-74.18694444444445,"{""type"":""Point"",""coordinates"":[-74.18694444444445,5.5275]}"
1370,"Marco Fidel Suarez AB","Cali","Colombia","COL",3.46,-76.5,"{""type"":""Point"",""coordinates"":[-76.5,3.46]}"
"SKIP","San Luis","Ipiales","Colombia","COL",0.8614999999999999,-77.6675,"{""type"":""Point"",""coordinates"":[-77.6675,0.8614999999999999]}"
"SKIG","Chigorodo","Chigorodo","Colombia","COL",7.677191666666667,-76.68296944444445,"{""type"":""Point"",""coordinates"":[-76.68296944444445,7.677191666666667]}"
"SKHC","Hato Corozal","Hato Corozal","Colombia","COL",6.15,-71.75,"{""type"":""Point"",""coordinates"":[-71.75,6.15]}"
"SKCG","Rafael Nunez","Cartagena","Colombia","COL",10.442041666666666,-75.51277777777777,"{""type"":""Point"",""coordinates"":[-75.51277777777777,10.442041666666666]}"
"SKGZ","La Jagua","Garzon","Colombia","COL",2.1666666666666665,-75.66666666666667,"{""type"":""Point"",""coordinates"":[-75.66666666666667,2.1666666666666665]}"
"SKTU","Gonzalo Mejia","Turbo","Colombia","COL",8.074488888888888,-76.74103611111111,"{""type"":""Point"",""coordinates"":[-76.74103611111111,8.074488888888888]}"
"SKMP","San Bernardo","Mompos","Colombia","COL",9.257794444444444,-74.43801666666667,"{""type"":""Point"",""coordinates"":[-74.43801666666667,9.257794444444444]}"
"SKAD","Acandi","Acandi","Colombia","COL",8.498055555555554,-77.27388888888889,"{""type"":""Point"",""coordinates"":[-77.27388888888889,8.498055555555554]}"
"SKGP","Juan Casiano","Guapi","Colombia","COL",2.5700305555555554,-77.89798888888889,"{""type"":""Point"",""coordinates"":[-77.89798888888889,2.5700305555555554]}"
"SKPQ","German Olano AB","Palanquero","Colombia","COL",5.483333333333333,-74.65666666666667,"{""type"":""Point"",""coordinates"":[-74.65666666666667,5.483333333333333]}"
"SKTM","Gustavo Vargas","Tame","Colombia","COL",6.451005555555556,-71.76005,"{""type"":""Point"",""coordinates"":[-71.76005,6.451005555555556]}"
"SKHA","Gen Navas Pardo","Chaparral","Colombia","COL",3.723797222222222,-75.48207777777777,"{""type"":""Point"",""coordinates"":[-75.48207777777777,3.723797222222222]}"
"SKPB","Puerto Bolivar","Portete","Colombia","COL",12.221552777777777,-71.98428888888888,"{""type"":""Point"",""coordinates"":[-71.98428888888888,12.221552777777777]}"
"SKGO","Santa Ana","Cartago","Colombia","COL",4.758405555555556,-75.956075,"{""type"":""Point"",""coordinates"":[-75.956075,4.758405555555556]}"
"SKCL","Alfonso Bonilla Aragon Intl","Cali","Colombia","COL",3.543083333333333,-76.38169444444443,"{""type"":""Point"",""coordinates"":[-76.38169444444443,3.543083333333333]}"
"SKCO","La Florida","Tumaco","Colombia","COL",1.8143916666666666,-78.74904444444445,"{""type"":""Point"",""coordinates"":[-78.74904444444445,1.8143916666666666]}"
"SKGY","Flaminio Suarez Camacho","Guaymaral","Colombia","COL",4.812516666666666,-74.06507777777777,"{""type"":""Point"",""coordinates"":[-74.06507777777777,4.812516666666666]}"
"SKEB","El Bagre","El Bagre","Colombia","COL",7.595080555555556,-74.80894166666667,"{""type"":""Point"",""coordinates"":[-74.80894166666667,7.595080555555556]}"
"SKOC","Aguas Claras","Ocana","Colombia","COL",8.315108333333335,-73.35841944444444,"{""type"":""Point"",""coordinates"":[-73.35841944444444,8.315108333333335]}"
"SKCV","Covenas","Covenas","Colombia","COL",9.401111111111112,-75.69111111111111,"{""type"":""Point"",""coordinates"":[-75.69111111111111,9.401111111111112]}"
"SKFL","Gustavo A Paredes","Florencia","Colombia","COL",1.589188888888889,-75.56423611111111,"{""type"":""Point"",""coordinates"":[-75.56423611111111,1.589188888888889]}"
"SKSM","Simon Bolivar Intl","Santa Marta","Colombia","COL",11.11968888888889,-74.23063888888889,"{""type"":""Point"",""coordinates"":[-74.23063888888889,11.11968888888889]}"
"SKCR","Caruru","Caruru","Colombia","COL",1.0126583333333334,-71.29594722222222,"{""type"":""Point"",""coordinates"":[-71.29594722222222,1.0126583333333334]}"
"SKCU","Caucasia","Caucasia","Colombia","COL",7.971666666666667,-75.20166666666667,"{""type"":""Point"",""coordinates"":[-75.20166666666667,7.971666666666667]}"
"SKAS","3 De Mayo","Puerto Asis","Colombia","COL",0.5057083333333333,-76.50083333333333,"{""type"":""Point"",""coordinates"":[-76.50083333333333,0.5057083333333333]}"
"SKAP","Gomez Nino Apiay","Villavicencio","Colombia","COL",4.08,-73.56166666666667,"{""type"":""Point"",""coordinates"":[-73.56166666666667,4.08]}"
"SKTD","Trinidad","Trinidad","Colombia","COL",5.430486111111112,-71.65835277777778,"{""type"":""Point"",""coordinates"":[-71.65835277777778,5.430486111111112]}"
"SKCM","Cimitarra","Cimitarra","Colombia","COL",6.36736111111111,-73.97061111111111,"{""type"":""Point"",""coordinates"":[-73.97061111111111,6.36736111111111]}"
1114,"Manaure","Manaure","Colombia","COL",11.783333333333333,-72.41666666666667,"{""type"":""Point"",""coordinates"":[-72.41666666666667,11.783333333333333]}"
"SKOR","Orito","Orito","Colombia","COL",0.6694444444444444,-76.88,"{""type"":""Point"",""coordinates"":[-76.88,0.6694444444444444]}"
"SKAG","Hacaritama","Aguachica","Colombia","COL",8.3,-73.63055555555555,"{""type"":""Point"",""coordinates"":[-73.63055555555555,8.3]}"
"SKCN","Cravo Norte","Cravo Norte","Colombia","COL",6.3167583333333335,-70.21089722222223,"{""type"":""Point"",""coordinates"":[-70.21089722222223,6.3167583333333335]}"
"SKCC","Camilo Daza Intl","Cucuta","Colombia","COL",7.927388888888889,-72.51161111111111,"{""type"":""Point"",""coordinates"":[-72.51161111111111,7.927388888888889]}"
"SKSV","Eduardo Falla Solano","San Vicente Del Caguan","Colombia","COL",2.1520166666666665,-74.76617777777778,"{""type"":""Point"",""coordinates"":[-74.76617777777778,2.1520166666666665]}"
"SKRG","Jose Maria Cordova","Rionegro","Colombia","COL",6.164461111111112,-75.423,"{""type"":""Point"",""coordinates"":[-75.423,6.164461111111112]}"
"SKLM","Jorge Isaac","Maicao","Colombia","COL",11.232583333333334,-72.48926388888889,"{""type"":""Point"",""coordinates"":[-72.48926388888889,11.232583333333334]}"
"SKBS","Jose Celestino Mutis","Bahia Solano","Colombia","COL",6.203111111111111,-77.39497222222222,"{""type"":""Point"",""coordinates"":[-77.39497222222222,6.203111111111111]}"
"SKBQ","Ernesto Cortissoz","Barranquilla","Colombia","COL",10.888569444444444,-74.78176666666667,"{""type"":""Point"",""coordinates"":[-74.78176666666667,10.888569444444444]}"
"SKBO","Eldorado Intl","Bogota","Colombia","COL",4.701602777777778,-74.14695555555556,"{""type"":""Point"",""coordinates"":[-74.14695555555556,4.701602777777778]}"
"SKGI","Santiago Vila","Girardot","Colombia","COL",4.275347222222222,-74.79608888888889,"{""type"":""Point"",""coordinates"":[-74.79608888888889,4.275347222222222]}"
"SKMR","Los Garzones","Monteria","Colombia","COL",8.822855555555556,-75.82516944444444,"{""type"":""Point"",""coordinates"":[-75.82516944444444,8.822855555555556]}"
"SKMN","Mani","Mani","Colombia","COL",4.833333333333333,-72.26666666666667,"{""type"":""Point"",""coordinates"":[-72.26666666666667,4.833333333333333]}"
"SKCD","Mandinga","Condoto","Colombia","COL",5.0719611111111105,-76.676625,"{""type"":""Point"",""coordinates"":[-76.676625,5.0719611111111105]}"
"SKBG","Palonegro","Bucaramanga","Colombia","COL",7.126619444444444,-73.18476111111111,"{""type"":""Point"",""coordinates"":[-73.18476111111111,7.126619444444444]}"
"SKNV","Benito Salas","Neiva","Colombia","COL",2.9501972222222226,-75.29398888888889,"{""type"":""Point"",""coordinates"":[-75.29398888888889,2.9501972222222226]}"
1805,"Barranca De Upia","Barranca De Upia","Colombia","COL",4.566666666666666,-72.96666666666667,"{""type"":""Point"",""coordinates"":[-72.96666666666667,4.566666666666666]}"
"SKCB","Carmen De Bolivar","Carmen De Bolivar","Colombia","COL",9.684166666666666,-75.1261111111111,"{""type"":""Point"",""coordinates"":[-75.1261111111111,9.684166666666666]}"