"airportCode","airportName","cityName","countryName","countryCode","latitude","longitude","geometry"
"LKZN","Znojmo","Znojmo","Czech","CZE",48.81777777777778,16.065833333333334,"{""type"":""Point"",""coordinates"":[16.065833333333334,48.81777777777778]}"
"LKZM","Zamberk","Zamberk","Czech","CZE",50.08388888888889,16.44388888888889,"{""type"":""Point"",""coordinates"":[16.44388888888889,50.08388888888889]}"
"LKZL","Zlin","Zlin","Czech","CZE",49.19833333333333,17.517777777777777,"{""type"":""Point"",""coordinates"":[17.517777777777777,49.19833333333333]}"
"LKZD","Macerka","Zatec","Czech","CZE",50.3175,13.512777777777778,"{""type"":""Point"",""coordinates"":[13.512777777777778,50.3175]}"
"LKZB","Zbraslavice","Zbraslavice","Czech","CZE",49.814166666666665,15.201666666666666,"{""type"":""Point"",""coordinates"":[15.201666666666666,49.814166666666665]}"
"LKVY","Vyskov","Vyskov","Czech","CZE",49.30027777777777,17.025277777777777,"{""type"":""Point"",""coordinates"":[17.025277777777777,49.30027777777777]}"
"LKVO","Vodochody","Prague","Czech","CZE",50.21666666666667,14.395555555555555,"{""type"":""Point"",""coordinates"":[14.395555555555555,50.21666666666667]}"
"LKVM","Vysoke Myto","Vysoke Myto","Czech","CZE",49.926944444444445,16.185833333333335,"{""type"":""Point"",""coordinates"":[16.185833333333335,49.926944444444445]}"
"LKTB","Turany","Brno","Czech","CZE",49.15138888888889,16.69388888888889,"{""type"":""Point"",""coordinates"":[16.69388888888889,49.15138888888889]}"
"LKSN","Slany","Slany","Czech","CZE",50.21666666666667,14.088611111111112,"{""type"":""Point"",""coordinates"":[14.088611111111112,50.21666666666667]}"
"LKPN","Podhorany","Podhorany","Czech","CZE",49.939166666666665,15.549722222222222,"{""type"":""Point"",""coordinates"":[15.549722222222222,49.939166666666665]}"
"LKSK","Skutec","Skutec","Czech","CZE",49.82777777777778,16.00583333333333,"{""type"":""Point"",""coordinates"":[16.00583333333333,49.82777777777778]}"
"LKNA","Namest","Namest","Czech","CZE",49.16620833333333,16.124383333333334,"{""type"":""Point"",""coordinates"":[16.124383333333334,49.16620833333333]}"
"LKSB","Stichovice","Stichovice","Czech","CZE",49.486111111111114,17.055555555555557,"{""type"":""Point"",""coordinates"":[17.055555555555557,49.486111111111114]}"
"LKKA","Krizanov","Krizanov","Czech","CZE",49.36833333333333,16.116111111111113,"{""type"":""Point"",""coordinates"":[16.116111111111113,49.36833333333333]}"
"LKRY","Rokycany","Rokycany","Czech","CZE",49.75194444444445,13.589722222222223,"{""type"":""Point"",""coordinates"":[13.589722222222223,49.75194444444445]}"
"LKRO","Roudnice","Roudnice","Czech","CZE",50.410555555555554,14.226111111111111,"{""type"":""Point"",""coordinates"":[14.226111111111111,50.410555555555554]}"
"LKBE","Benesov","Benesov","Czech","CZE",49.740833333333335,14.64472222222222,"{""type"":""Point"",""coordinates"":[14.64472222222222,49.740833333333335]}"
"LKRK","Rakovnik","Rakovnik","Czech","CZE",50.094166666666666,13.68888888888889,"{""type"":""Point"",""coordinates"":[13.68888888888889,50.094166666666666]}"
"LKSO","Sobeslav","Sobeslav","Czech","CZE",49.24666666666667,14.71361111111111,"{""type"":""Point"",""coordinates"":[14.71361111111111,49.24666666666667]}"
"LKPS","Plasy","Plasy","Czech","CZE",49.92027777777778,13.376944444444446,"{""type"":""Point"",""coordinates"":[13.376944444444446,49.92027777777778]}"
"LKPR","Ruzyne","Prague","Czech","CZE",50.100833333333334,14.26,"{""type"":""Point"",""coordinates"":[14.26,50.100833333333334]}"
"LKKO","Kolin","Kolin","Czech","CZE",50.00194444444445,15.173333333333332,"{""type"":""Point"",""coordinates"":[15.173333333333332,50.00194444444445]}"
"LKPM","Pribram","Pribram","Czech","CZE",49.72,14.100277777777777,"{""type"":""Point"",""coordinates"":[14.100277777777777,49.72]}"
"LKPJ","Prostejov","Prostejov","Czech","CZE",49.44777777777777,17.133888888888887,"{""type"":""Point"",""coordinates"":[17.133888888888887,49.44777777777777]}"
"LKPI","Pribyslav","Pribyslav","Czech","CZE",49.58083333333334,15.762777777777778,"{""type"":""Point"",""coordinates"":[15.762777777777778,49.58083333333334]}"
"LKUO","Usti Nad Orlici","Usti Nad Orlici","Czech","CZE",49.978611111111114,16.42638888888889,"{""type"":""Point"",""coordinates"":[16.42638888888889,49.978611111111114]}"
"LKPC","Panensky Tynec","Panensky Tynec","Czech","CZE",50.30638888888888,13.935,"{""type"":""Point"",""coordinates"":[13.935,50.30638888888888]}"
"LKER","Erpuzice","Erpuzice","Czech","CZE",49.80277777777778,13.038055555555555,"{""type"":""Point"",""coordinates"":[13.038055555555555,49.80277777777778]}"
"LKNM","Nove Mesto","Nove Mesto","Czech","CZE",50.36416666666667,16.113611111111112,"{""type"":""Point"",""coordinates"":[16.113611111111112,50.36416666666667]}"
"LKMR","Marianske Lazne","Marianske Lazne","Czech","CZE",49.922777777777775,12.724722222222223,"{""type"":""Point"",""coordinates"":[12.724722222222223,49.922777777777775]}"
"LKTD","Tachov","Tachov","Czech","CZE",49.797777777777775,12.706944444444444,"{""type"":""Point"",""coordinates"":[12.706944444444444,49.797777777777775]}"
"LKMO","Most","Most","Czech","CZE",50.525,13.683055555555555,"{""type"":""Point"",""coordinates"":[13.683055555555555,50.525]}"
"LKCV","Caslav","Caslav","Czech","CZE",49.939563888888884,15.381933333333334,"{""type"":""Point"",""coordinates"":[15.381933333333334,49.939563888888884]}"
"LKSR","Strunkovice","Strunkovice","Czech","CZE",49.0825,14.075833333333334,"{""type"":""Point"",""coordinates"":[14.075833333333334,49.0825]}"
"LKPO","Prerov","Prerov","Czech","CZE",49.42583333333333,17.404722222222222,"{""type"":""Point"",""coordinates"":[17.404722222222222,49.42583333333333]}"
"LKMI","Mikulovice","Mikulovice","Czech","CZE",50.30166666666666,17.297500000000003,"{""type"":""Point"",""coordinates"":[17.297500000000003,50.30166666666666]}"
"LKOL","Olomouc","Olomouc","Czech","CZE",49.58722222222222,17.21,"{""type"":""Point"",""coordinates"":[17.21,49.58722222222222]}"
"LKLN","Line","Plzen","Czech","CZE",49.67527777777777,13.274444444444445,"{""type"":""Point"",""coordinates"":[13.274444444444445,49.67527777777777]}"
"LKMH","Mnichovo Hradiste","Mnichovo Hradiste","Czech","CZE",50.54,15.006666666666666,"{""type"":""Point"",""coordinates"":[15.006666666666666,50.54]}"
"LKPL","Letkov","Letkov","Czech","CZE",49.723055555555554,13.452222222222222,"{""type"":""Point"",""coordinates"":[13.452222222222222,49.723055555555554]}"
"LKPD","Pardubice","Pardubice","Czech","CZE",50.01345833333333,15.73857222222222,"{""type"":""Point"",""coordinates"":[15.73857222222222,50.01345833333333]}"
"LKZA","Zabreh","Zabreh","Czech","CZE",49.92833333333333,18.078333333333333,"{""type"":""Point"",""coordinates"":[18.078333333333333,49.92833333333333]}"
"LKKR","Krnov","Krnov","Czech","CZE",50.075,17.68888888888889,"{""type"":""Point"",""coordinates"":[17.68888888888889,50.075]}"
"LKMB","Mlada Boleslav","Mlada Boleslav","Czech","CZE",50.39833333333333,14.898333333333333,"{""type"":""Point"",""coordinates"":[14.898333333333333,50.39833333333333]}"
"LKKB","Kbely","Kbely","Czech","CZE",50.12136666666667,14.543641666666666,"{""type"":""Point"",""coordinates"":[14.543641666666666,50.12136666666667]}"
"LKSZ","Sazena","Sazena","Czech","CZE",50.32472222222223,14.258888888888889,"{""type"":""Point"",""coordinates"":[14.258888888888889,50.32472222222223]}"
"LKJA","Jaromer","Jaromer","Czech","CZE",50.331388888888895,15.953888888888889,"{""type"":""Point"",""coordinates"":[15.953888888888889,50.331388888888895]}"
"LKJH","Jindrichuv Hradec","Jindrichuv Hradec","Czech","CZE",49.15083333333333,14.971666666666668,"{""type"":""Point"",""coordinates"":[14.971666666666668,49.15083333333333]}"
"LKKU","Kunovice","Kunovice","Czech","CZE",49.029444444444444,17.439722222222223,"{""type"":""Point"",""coordinates"":[17.439722222222223,49.029444444444444]}"
"LKUL","Usti nad Labem","Usti nad Labem","Czech","CZE",50.69972222222222,13.969722222222222,"{""type"":""Point"",""coordinates"":[13.969722222222222,50.69972222222222]}"
"LKSU","Sumperk","Sumperk","Czech","CZE",49.96055555555556,17.017777777777777,"{""type"":""Point"",""coordinates"":[17.017777777777777,49.96055555555556]}"
"LKKM","Kromeriz","Kromeriz","Czech","CZE",49.285555555555554,17.41583333333333,"{""type"":""Point"",""coordinates"":[17.41583333333333,49.285555555555554]}"
"LKTC","Tocna","Tocna","Czech","CZE",49.98527777777778,14.425555555555555,"{""type"":""Point"",""coordinates"":[14.425555555555555,49.98527777777778]}"
"LKMK","Moravska Trebova","Moravska Trebova","Czech","CZE",49.79833333333333,16.68777777777778,"{""type"":""Point"",""coordinates"":[16.68777777777778,49.79833333333333]}"
"LKBO","Bohunovice","Bohunovice","Czech","CZE",49.67055555555555,17.295,"{""type"":""Point"",""coordinates"":[17.295,49.67055555555555]}"
"LKHD","Hodkovice","Hodkovice","Czech","CZE",50.657222222222224,15.077777777777778,"{""type"":""Point"",""coordinates"":[15.077777777777778,50.657222222222224]}"
"LKKL","Kladno","Kladno","Czech","CZE",50.11277777777778,14.089722222222223,"{""type"":""Point"",""coordinates"":[14.089722222222223,50.11277777777778]}"
"LKPA","Policka","Policka","Czech","CZE",49.739444444444445,16.25888888888889,"{""type"":""Point"",""coordinates"":[16.25888888888889,49.739444444444445]}"
"LKRA","Rana","Rana","Czech","CZE",50.403888888888886,13.751944444444444,"{""type"":""Point"",""coordinates"":[13.751944444444444,50.403888888888886]}"
"LKKV","Karlovy Vary","Karlovy Vary","Czech","CZE",50.20305555555556,12.915000000000001,"{""type"":""Point"",""coordinates"":[12.915000000000001,50.20305555555556]}"
"LKCB","Cheb","Cheb","Czech","CZE",50.06638888888889,12.412777777777778,"{""type"":""Point"",""coordinates"":[12.412777777777778,50.06638888888889]}"
"LKVR","Vrchlabi","Vrchlabi","Czech","CZE",50.62416666666667,15.646388888888888,"{""type"":""Point"",""coordinates"":[15.646388888888888,50.62416666666667]}"
"LKVP","Velke Porici","Velke Porici","Czech","CZE",50.467777777777776,16.205555555555556,"{""type"":""Point"",""coordinates"":[16.205555555555556,50.467777777777776]}"
"LKCH","Chomutov","Chomutov","Czech","CZE",50.46888888888889,13.468055555555555,"{""type"":""Point"",""coordinates"":[13.468055555555555,50.46888888888889]}"
"LKKC","Krizenec","Krizenec","Czech","CZE",49.870555555555555,12.7725,"{""type"":""Point"",""coordinates"":[12.7725,49.870555555555555]}"
"LKLB","Liberec","Liberec","Czech","CZE",50.76833333333333,15.025,"{""type"":""Point"",""coordinates"":[15.025,50.76833333333333]}"
"LKLT","Letnany","Letnany","Czech","CZE",50.13138888888889,14.525555555555556,"{""type"":""Point"",""coordinates"":[14.525555555555556,50.13138888888889]}"
"LKCS","Ceske Budejovice","Ceske Budejovice","Czech","CZE",48.94638888888888,14.4275,"{""type"":""Point"",""coordinates"":[14.4275,48.94638888888888]}"
"LKBR","Broumov","Broumov","Czech","CZE",50.56194444444444,16.342777777777776,"{""type"":""Point"",""coordinates"":[16.342777777777776,50.56194444444444]}"
"LKCR","Chrudim","Chrudim","Czech","CZE",49.936388888888885,15.780555555555557,"{""type"":""Point"",""coordinates"":[15.780555555555557,49.936388888888885]}"
"LKJI","Jihlava","Jihlava","Czech","CZE",49.41972222222222,15.635555555555555,"{""type"":""Point"",""coordinates"":[15.635555555555555,49.41972222222222]}"
"LKBU","Bubovice","Bubovice","Czech","CZE",49.974444444444444,14.178055555555554,"{""type"":""Point"",""coordinates"":[14.178055555555554,49.974444444444444]}"
"LKHB","Havlickuv Brod","Havlickuv Brod","Czech","CZE",49.59722222222222,15.549166666666666,"{""type"":""Point"",""coordinates"":[15.549166666666666,49.59722222222222]}"
"LKKY","Kyjov","Kyjov","Czech","CZE",48.980000000000004,17.12472222222222,"{""type"":""Point"",""coordinates"":[17.12472222222222,48.980000000000004]}"
"LKFR","Frydlant","Frydlant","Czech","CZE",49.589444444444446,18.379166666666666,"{""type"":""Point"",""coordinates"":[18.379166666666666,49.589444444444446]}"
"LKHV","Horovice","Horovice","Czech","CZE",49.844722222222224,13.885833333333332,"{""type"":""Point"",""coordinates"":[13.885833333333332,49.844722222222224]}"
"LKHC","Horice","Horice","Czech","CZE",50.35666666666667,15.577222222222222,"{""type"":""Point"",""coordinates"":[15.577222222222222,50.35666666666667]}"
"LKJC","Jicin","Jicin","Czech","CZE",50.43,15.333055555555555,"{""type"":""Point"",""coordinates"":[15.333055555555555,50.43]}"
"LKHN","Hranice","Hranice","Czech","CZE",49.54611111111111,17.704444444444444,"{""type"":""Point"",""coordinates"":[17.704444444444444,49.54611111111111]}"
"LKST","Strakonice","Strakonice","Czech","CZE",49.251666666666665,13.892777777777777,"{""type"":""Point"",""coordinates"":[13.892777777777777,49.251666666666665]}"
"LKHS","Hosin","Hosin","Czech","CZE",49.04,14.495,"{""type"":""Point"",""coordinates"":[14.495,49.04]}"
"LKCT","Chotebor","Chotebor","Czech","CZE",49.68583333333333,15.67611111111111,"{""type"":""Point"",""coordinates"":[15.67611111111111,49.68583333333333]}"
"LKTA","Tabor","Tabor","Czech","CZE",49.39111111111111,14.708333333333332,"{""type"":""Point"",""coordinates"":[14.708333333333332,49.39111111111111]}"
"LKBA","Breclav","Breclav","Czech","CZE",48.79083333333333,16.8925,"{""type"":""Point"",""coordinates"":[16.8925,48.79083333333333]}"
"LKKT","Klatovy","Klatovy","Czech","CZE",49.41833333333333,13.321944444444444,"{""type"":""Point"",""coordinates"":[13.321944444444444,49.41833333333333]}"
"LKVL","Vlasim","Vlasim","Czech","CZE",49.72888888888889,14.87888888888889,"{""type"":""Point"",""coordinates"":[14.87888888888889,49.72888888888889]}"
"LKMT","Mosnov","Ostrava","Czech","CZE",49.69611111111111,18.110833333333336,"{""type"":""Point"",""coordinates"":[18.110833333333336,49.69611111111111]}"
"LKCM","Medlanky","Medlanky","Czech","CZE",49.23694444444445,16.55527777777778,"{""type"":""Point"",""coordinates"":[16.55527777777778,49.23694444444445]}"
"LKDK","Dvur Kralove","Dvur Kralove","Czech","CZE",50.41416666666667,15.836944444444445,"{""type"":""Point"",""coordinates"":[15.836944444444445,50.41416666666667]}"
"LKHK","Hradec Kralove","Hradec Kralove","Czech","CZE",50.25333333333333,15.845277777777778,"{""type"":""Point"",""coordinates"":[15.845277777777778,50.25333333333333]}"
"LKTO","Touzim","Touzim","Czech","CZE",50.08638888888889,12.952777777777778,"{""type"":""Point"",""coordinates"":[12.952777777777778,50.08638888888889]}"
"LKSA","Stankov","Stankov","Czech","CZE",49.56666666666667,13.04861111111111,"{""type"":""Point"",""coordinates"":[13.04861111111111,49.56666666666667]}"
"LKCE","Ceska Lipa","Ceska Lipa","Czech","CZE",50.70944444444445,14.566666666666666,"{""type"":""Point"",""coordinates"":[14.566666666666666,50.70944444444445]}"