"airportCode","airportName","cityName","countryName","countryCode","latitude","longitude","geometry"
"ETWM","Meppen","Meppen","Germany","DEU",52.72316666666667,7.326333333333333,"{""type"":""Point"",""coordinates"":[7.326333333333333,52.72316666666667]}"
"ETSN","Neuburg","Neuburg","Germany","DEU",48.711000000000006,11.2115,"{""type"":""Point"",""coordinates"":[11.2115,48.711000000000006]}"
"ETSH","Holzdorf","Holzdorf","Germany","DEU",51.767833333333336,13.167666666666666,"{""type"":""Point"",""coordinates"":[13.167666666666666,51.767833333333336]}"
"ETSB","Buchel","Buchel","Germany","DEU",50.173833333333334,7.0633333333333335,"{""type"":""Point"",""coordinates"":[7.0633333333333335,50.173833333333334]}"
"ETOU","Wiesbaden AAF","Wiesbaden","Germany","DEU",50.04982777777778,8.325436111111111,"{""type"":""Point"",""coordinates"":[8.325436111111111,50.04982777777778]}"
"ETOI","Vilseck AAF","Vilseck","Germany","DEU",49.63366666666666,11.767166666666668,"{""type"":""Point"",""coordinates"":[11.767166666666668,49.63366666666666]}"
"ETNW","Wunstorf","Wunstorf","Germany","DEU",52.45733333333334,9.427166666666666,"{""type"":""Point"",""coordinates"":[9.427166666666666,52.45733333333334]}"
"ETNT","Wittmundhafen","Wittmundhafen","Germany","DEU",53.54791111111111,7.667397222222222,"{""type"":""Point"",""coordinates"":[7.667397222222222,53.54791111111111]}"
"ETNN","Norvenich","Norvenich","Germany","DEU",50.83116666666667,6.658166666666667,"{""type"":""Point"",""coordinates"":[6.658166666666667,50.83116666666667]}"
"ETND","Diepholz","Diepholz","Germany","DEU",52.5855,8.340666666666667,"{""type"":""Point"",""coordinates"":[8.340666666666667,52.5855]}"
"ETIC","Grafenwohr AAF","Grafenwohr","Germany","DEU",49.69868611111111,11.940175,"{""type"":""Point"",""coordinates"":[11.940175,49.69868611111111]}"
"ETHN","Niederstetten","Niederstetten","Germany","DEU",49.39183333333333,9.958166666666665,"{""type"":""Point"",""coordinates"":[9.958166666666665,49.39183333333333]}"
"ETHE","Bentlage","Rheine","Germany","DEU",52.29116666666666,7.3870000000000005,"{""type"":""Point"",""coordinates"":[7.3870000000000005,52.29116666666666]}"
"ETHC","Celle","Celle","Germany","DEU",52.591166666666666,10.022166666666667,"{""type"":""Point"",""coordinates"":[10.022166666666667,52.591166666666666]}"
"ETHB","Buckeburg","Buckeburg","Germany","DEU",52.2785,9.082166666666666,"{""type"":""Point"",""coordinates"":[9.082166666666666,52.2785]}"
"ETEK","Baumholder AAF","Baumholder","Germany","DEU",49.6515,7.307166666666666,"{""type"":""Point"",""coordinates"":[7.307166666666666,49.6515]}"
"ETEB","Ansbach AHP","Ansbach","Germany","DEU",49.308166666666665,10.638666666666666,"{""type"":""Point"",""coordinates"":[10.638666666666666,49.308166666666665]}"
"ETAR","Ramstein AB","Ramstein","Germany","DEU",49.43690833333333,7.600311111111111,"{""type"":""Point"",""coordinates"":[7.600311111111111,49.43690833333333]}"
"EDXZ","Bederkesa","Kuhrstedt","Germany","DEU",53.56805555555556,8.789444444444444,"{""type"":""Point"",""coordinates"":[8.789444444444444,53.56805555555556]}"
"EDXU","Huttenbusch","Huttenbusch","Germany","DEU",53.28633333333333,8.947333333333333,"{""type"":""Point"",""coordinates"":[8.947333333333333,53.28633333333333]}"
"EDXT","Hof Altona","Sierksdorf","Germany","DEU",54.06783333333334,10.743166666666665,"{""type"":""Point"",""coordinates"":[10.743166666666665,54.06783333333334]}"
"EDXS","Seedorf","Seedorf","Germany","DEU",53.33555555555556,9.259444444444444,"{""type"":""Point"",""coordinates"":[9.259444444444444,53.33555555555556]}"
"EDXO","St Peter-Ording","St Peter-Ording","Germany","DEU",54.309,8.686833333333334,"{""type"":""Point"",""coordinates"":[8.686833333333334,54.309]}"
"ETAD","Spangdahlem AB","Spangdahlem","Germany","DEU",49.97654166666667,6.698508333333334,"{""type"":""Point"",""coordinates"":[6.698508333333334,49.97654166666667]}"
"EDXN","Nordholz-Spieka","Nordholz-Spieka","Germany","DEU",53.76694444444444,8.643611111111111,"{""type"":""Point"",""coordinates"":[8.643611111111111,53.76694444444444]}"
"EDXJ","Schwesing","Husum","Germany","DEU",54.51,9.138333333333334,"{""type"":""Point"",""coordinates"":[9.138333333333334,54.51]}"
"EDXF","Schaferhaus","Flensburg","Germany","DEU",54.77333333333333,9.378833333333334,"{""type"":""Point"",""coordinates"":[9.378833333333334,54.77333333333333]}"
"EDXD","Bad Essen","Bohmte","Germany","DEU",52.35138888888889,8.32611111111111,"{""type"":""Point"",""coordinates"":[8.32611111111111,52.35138888888889]}"
"EDXB","Busum","Heide","Germany","DEU",54.15333333333333,8.901666666666667,"{""type"":""Point"",""coordinates"":[8.901666666666667,54.15333333333333]}"
"EDWZ","Baltrum","Baltrum","Germany","DEU",53.72527777777778,7.372222222222222,"{""type"":""Point"",""coordinates"":[7.372222222222222,53.72527777777778]}"
"EDWX","Felde","Westerstede","Germany","DEU",53.28883333333333,7.931333333333334,"{""type"":""Point"",""coordinates"":[7.931333333333334,53.28883333333333]}"
"EDXG","Melle-Gronegau","Melle-Gronegau","Germany","DEU",52.200833333333335,8.377666666666666,"{""type"":""Point"",""coordinates"":[8.377666666666666,52.200833333333335]}"
"EDWV","Scharnhorst","Verden","Germany","DEU",52.96516666666667,9.284166666666666,"{""type"":""Point"",""coordinates"":[9.284166666666666,52.96516666666667]}"
"EDWT","Blexen","Blexen","Germany","DEU",53.538333333333334,8.538333333333334,"{""type"":""Point"",""coordinates"":[8.538333333333334,53.538333333333334]}"
"EDWS","Norden-Norddeich","Norden-Norddeich","Germany","DEU",53.63305555555556,7.189444444444445,"{""type"":""Point"",""coordinates"":[7.189444444444445,53.63305555555556]}"
"EDWR","Borkum","Borkum","Germany","DEU",53.595555555555556,6.7091666666666665,"{""type"":""Point"",""coordinates"":[6.7091666666666665,53.595555555555556]}"
"EDWQ","Atlas Airfield","Ganderkesee","Germany","DEU",53.036,8.505166666666666,"{""type"":""Point"",""coordinates"":[8.505166666666666,53.036]}"
"EDWO","Atterheide","Osnabruck","Germany","DEU",52.28633333333333,7.973333333333334,"{""type"":""Point"",""coordinates"":[7.973333333333334,52.28633333333333]}"
"EDWN","Lingen","Nordhorn","Germany","DEU",52.4575,7.182666666666667,"{""type"":""Point"",""coordinates"":[7.182666666666667,52.4575]}"
"EDWJ","Juist","Juist","Germany","DEU",53.68066666666667,7.057833333333333,"{""type"":""Point"",""coordinates"":[7.057833333333333,53.68066666666667]}"
"EDWI","Jadeweser Airport","Wilhelmshaven","Germany","DEU",53.503008333333334,8.052827777777779,"{""type"":""Point"",""coordinates"":[8.052827777777779,53.503008333333334]}"
"EDWH","Hatten","Oldenburg","Germany","DEU",53.069,8.313500000000001,"{""type"":""Point"",""coordinates"":[8.313500000000001,53.069]}"
"EDWK","Karlshofen","Karlshofen","Germany","DEU",53.33277777777778,9.027777777777779,"{""type"":""Point"",""coordinates"":[9.027777777777779,53.33277777777778]}"
"EDWG","Wangerooge","Wangerooge","Germany","DEU",53.78638888888889,7.912222222222223,"{""type"":""Point"",""coordinates"":[7.912222222222223,53.78638888888889]}"
"EDWE","Emden","Emden","Germany","DEU",53.390975,7.2255972222222224,"{""type"":""Point"",""coordinates"":[7.2255972222222224,53.390975]}"
"EDWB","Bremerhaven","Bremerhaven","Germany","DEU",53.507080555555554,8.572877777777778,"{""type"":""Point"",""coordinates"":[8.572877777777778,53.507080555555554]}"
"EDVU","Uelzen","Uelzen","Germany","DEU",52.98316666666667,10.465333333333332,"{""type"":""Point"",""coordinates"":[10.465333333333332,52.98316666666667]}"
"EDVT","Ithwiesen","Ithwiesen","Germany","DEU",51.95133333333334,9.662166666666668,"{""type"":""Point"",""coordinates"":[9.662166666666668,51.95133333333334]}"
"EDSO","Nortel","Gruibingen","Germany","DEU",48.62116666666667,9.655833333333334,"{""type"":""Point"",""coordinates"":[9.655833333333334,48.62116666666667]}"
"EDVS","Drutte","Salzgitter","Germany","DEU",52.15416666666667,10.426499999999999,"{""type"":""Point"",""coordinates"":[10.426499999999999,52.15416666666667]}"
"EDVR","Rinteln","Rinteln","Germany","DEU",52.17527777777777,9.053333333333335,"{""type"":""Point"",""coordinates"":[9.053333333333335,52.17527777777777]}"
"EDVL","Holleberg","Holleberg","Germany","DEU",51.611111111111114,9.397499999999999,"{""type"":""Point"",""coordinates"":[9.397499999999999,51.611111111111114]}"
"EDVK","Kassel-Calden","Kassel-Calden","Germany","DEU",51.420791666666666,9.392158333333333,"{""type"":""Point"",""coordinates"":[9.392158333333333,51.420791666666666]}"
"EDVJ","Schaferstuhl","Salzgitter","Germany","DEU",52.02861111111111,10.368333333333334,"{""type"":""Point"",""coordinates"":[10.368333333333334,52.02861111111111]}"
"EDDG","Munster/Osnabruck","Munster/Osnabruck","Germany","DEU",52.13464166666667,7.684830555555556,"{""type"":""Point"",""coordinates"":[7.684830555555556,52.13464166666667]}"
"EDVE","Braunschweig-Wolfsburg","Braunschweig-Wolfsburg","Germany","DEU",52.319361111111114,10.55888888888889,"{""type"":""Point"",""coordinates"":[10.55888888888889,52.319361111111114]}"
"EDUZ","Zerbst","Zerbst","Germany","DEU",52.00083333333333,12.149166666666666,"{""type"":""Point"",""coordinates"":[12.149166666666666,52.00083333333333]}"
"EDCW","Wismar","Wismar","Germany","DEU",53.91444444444444,11.499444444444444,"{""type"":""Point"",""coordinates"":[11.499444444444444,53.91444444444444]}"
"EDLI","Bielefeld","Bielefeld","Germany","DEU",51.96472222222223,8.544722222222221,"{""type"":""Point"",""coordinates"":[8.544722222222221,51.96472222222223]}"
"EDUS","Schacksdorf","Finsterwalde","Germany","DEU",51.6075,13.738055555555555,"{""type"":""Point"",""coordinates"":[13.738055555555555,51.6075]}"
"EDUO","Oberrissdorf","Oberrissdorf","Germany","DEU",51.5425,11.595833333333333,"{""type"":""Point"",""coordinates"":[11.595833333333333,51.5425]}"
"EDTR","Rheinfelden","Herten","Germany","DEU",47.559999999999995,7.748333333333333,"{""type"":""Point"",""coordinates"":[7.748333333333333,47.559999999999995]}"
"EDTP","Pfullendorf","Pfullendorf","Germany","DEU",47.9085,9.251666666666667,"{""type"":""Point"",""coordinates"":[9.251666666666667,47.9085]}"
"EDTM","Hohentengen","Mengen","Germany","DEU",48.053888888888885,9.372777777777777,"{""type"":""Point"",""coordinates"":[9.372777777777777,48.053888888888885]}"
"EDTL","Lahr","Lahr","Germany","DEU",48.36925,7.827722222222222,"{""type"":""Point"",""coordinates"":[7.827722222222222,48.36925]}"
"EDVF","Borkhausen","Blomberg","Germany","DEU",51.918,9.113333333333333,"{""type"":""Point"",""coordinates"":[9.113333333333333,51.918]}"
"EDTG","Bremgarten","Bremgarten","Germany","DEU",47.903166666666664,7.6178333333333335,"{""type"":""Point"",""coordinates"":[7.6178333333333335,47.903166666666664]}"
"EDTD","Villingen","Donaueschingen","Germany","DEU",47.97351944444445,8.522111111111112,"{""type"":""Point"",""coordinates"":[8.522111111111112,47.97351944444445]}"
"EDTC","Bruchsal","Bruchsal","Germany","DEU",49.135,8.563611111111111,"{""type"":""Point"",""coordinates"":[8.563611111111111,49.135]}"
"EDSV","Wachtersberg","Wachtersberg","Germany","DEU",48.61516666666667,8.755666666666666,"{""type"":""Point"",""coordinates"":[8.755666666666666,48.61516666666667]}"
"EDRV","Wershofen/Eifel","Wershofen/Eifel","Germany","DEU",50.45183333333333,6.786,"{""type"":""Point"",""coordinates"":[6.786,50.45183333333333]}"
"EDSW","Altdorf-Wallburg","Altdorf-Wallburg","Germany","DEU",48.26983333333333,7.8421666666666665,"{""type"":""Point"",""coordinates"":[7.8421666666666665,48.26983333333333]}"
"EDSN","Neuhausen Ob Eck","Neuhausen Ob Eck","Germany","DEU",47.97694444444445,8.905166666666666,"{""type"":""Point"",""coordinates"":[8.905166666666666,47.97694444444445]}"
"EDSK","Sundheim","Kehl","Germany","DEU",48.56166666666666,7.8438888888888885,"{""type"":""Point"",""coordinates"":[7.8438888888888885,48.56166666666666]}"
"EDXM","St Michaelisdonn","St Michaelisdonn","Germany","DEU",53.97833333333333,9.143333333333333,"{""type"":""Point"",""coordinates"":[9.143333333333333,53.97833333333333]}"
"EDHB","Grube","Grube","Germany","DEU",54.24527777777778,11.024722222222223,"{""type"":""Point"",""coordinates"":[11.024722222222223,54.24527777777778]}"
"EDRW","Wienau","Dierdorf","Germany","DEU",50.56638888888889,7.653888888888889,"{""type"":""Point"",""coordinates"":[7.653888888888889,50.56638888888889]}"
"EDRP","Pirmasens","Pirmasens","Germany","DEU",49.26555555555556,7.490833333333334,"{""type"":""Point"",""coordinates"":[7.490833333333334,49.26555555555556]}"
"EDRM","Mont Royal","Traben-Trarbach","Germany","DEU",49.96783333333334,7.111666666666666,"{""type"":""Point"",""coordinates"":[7.111666666666666,49.96783333333334]}"
"EDRL","Lachen-Speyerdorf","Lachen-Speyerdorf","Germany","DEU",49.33083333333334,8.205166666666665,"{""type"":""Point"",""coordinates"":[8.205166666666665,49.33083333333334]}"
"EDRK","Winningen","Koblenz","Germany","DEU",50.32555555555556,7.528611111111111,"{""type"":""Point"",""coordinates"":[7.528611111111111,50.32555555555556]}"
"EDLD","Schwarze Heide","Dinslaken","Germany","DEU",51.61611111111111,6.861111111111111,"{""type"":""Point"",""coordinates"":[6.861111111111111,51.61611111111111]}"
"EDRI","Linkenheim","Linkenheim","Germany","DEU",49.14111111111111,8.39472222222222,"{""type"":""Point"",""coordinates"":[8.39472222222222,49.14111111111111]}"
"ETIH","Hohenfels AAF","Hohenfels","Germany","DEU",49.2165,11.836166666666667,"{""type"":""Point"",""coordinates"":[11.836166666666667,49.2165]}"
"EDRH","Hoppstadten-Weiersbach","Hoppstadten-Weiersbach","Germany","DEU",49.611333333333334,7.1850000000000005,"{""type"":""Point"",""coordinates"":[7.1850000000000005,49.611333333333334]}"
"EDLS","Vreden","Stadtlohn","Germany","DEU",51.99583333333334,6.8405555555555555,"{""type"":""Point"",""coordinates"":[6.8405555555555555,51.99583333333334]}"
"EDRE","Mendig","Mendig","Germany","DEU",50.366,7.315333333333333,"{""type"":""Point"",""coordinates"":[7.315333333333333,50.366]}"
"EDRD","Neumagen-Dhron","Neumagen-Dhron","Germany","DEU",49.842666666666666,6.916166666666667,"{""type"":""Point"",""coordinates"":[6.916166666666667,49.842666666666666]}"
"EDPB","Bad Ditzenbach","Bad Ditzenbach","Germany","DEU",48.562777777777775,9.729166666666666,"{""type"":""Point"",""coordinates"":[9.729166666666666,48.562777777777775]}"
"EDST","Hahnweide","Hahnweide","Germany","DEU",48.63183333333333,9.429499999999999,"{""type"":""Point"",""coordinates"":[9.429499999999999,48.63183333333333]}"
"EDRA","Bad Neuenahr-Ahrweiler","Bad Neuenahr-Ahrweiler","Germany","DEU",50.55777777777777,7.137222222222222,"{""type"":""Point"",""coordinates"":[7.137222222222222,50.55777777777777]}"
"EDWL","Langeoog","Langeoog","Germany","DEU",53.74283333333334,7.498666666666667,"{""type"":""Point"",""coordinates"":[7.498666666666667,53.74283333333334]}"
"EDLR","Haxterberg","Paderborn","Germany","DEU",51.68833333333333,8.774833333333333,"{""type"":""Point"",""coordinates"":[8.774833333333333,51.68833333333333]}"
"EDRS","Domberg","Bad Sobernheim","Germany","DEU",49.79083333333333,7.6658333333333335,"{""type"":""Point"",""coordinates"":[7.6658333333333335,49.79083333333333]}"
"ETSA","Landsberg","Landsberg","Germany","DEU",48.0705,10.906,"{""type"":""Point"",""coordinates"":[10.906,48.0705]}"
"EDCK","Kothen","Kothen","Germany","DEU",51.722500000000004,11.947166666666666,"{""type"":""Point"",""coordinates"":[11.947166666666666,51.722500000000004]}"
"EDBP","Pinnow","Pinnow","Germany","DEU",53.61516666666667,11.561,"{""type"":""Point"",""coordinates"":[11.561,53.61516666666667]}"
"EDOX","Renneritz","Renneritz","Germany","DEU",51.59305555555556,12.237222222222222,"{""type"":""Point"",""coordinates"":[12.237222222222222,51.59305555555556]}"
"EDQZ","Zipser Berg","Pegnitz","Germany","DEU",49.762166666666666,11.574666666666666,"{""type"":""Point"",""coordinates"":[11.574666666666666,49.762166666666666]}"
"EDQR","Sendelbach","Ebern","Germany","DEU",50.03972222222222,10.822777777777777,"{""type"":""Point"",""coordinates"":[10.822777777777777,50.03972222222222]}"
"EDQP","Plossen","Rosenthal-Field","Germany","DEU",49.863,11.787666666666667,"{""type"":""Point"",""coordinates"":[11.787666666666667,49.863]}"
"EDQL","Lichtenfels","Lichtenfels","Germany","DEU",50.14833333333333,11.047333333333333,"{""type"":""Point"",""coordinates"":[11.047333333333333,50.14833333333333]}"
"EDNF","Elsenthal-Grafenau","Elsenthal-Grafenau","Germany","DEU",48.82233333333334,13.3675,"{""type"":""Point"",""coordinates"":[13.3675,48.82233333333334]}"
"EDQI","Lauf-Lillinghof","Lauf-Lillinghof","Germany","DEU",49.60466666666667,11.283833333333334,"{""type"":""Point"",""coordinates"":[11.283833333333334,49.60466666666667]}"
"EDVY","Porta Westfalica","Porta Westfalica","Germany","DEU",52.222166666666666,8.862833333333333,"{""type"":""Point"",""coordinates"":[8.862833333333333,52.222166666666666]}"
"EDQG","Giebelstadt","Giebelstadt","Germany","DEU",49.648130555555554,9.966483333333333,"{""type"":""Point"",""coordinates"":[9.966483333333333,49.648130555555554]}"
"EDQC","Brandensteinsebene","Coburg","Germany","DEU",50.26327777777778,10.995049999999999,"{""type"":""Point"",""coordinates"":[10.995049999999999,50.26327777777778]}"
"EDTS","Schwenningen Am Neckar","Schwenningen Am Neckar","Germany","DEU",48.065666666666665,8.571333333333333,"{""type"":""Point"",""coordinates"":[8.571333333333333,48.065666666666665]}"
"EDNY","Friedrichshafen","Friedrichshafen","Germany","DEU",47.67131666666666,9.511486111111111,"{""type"":""Point"",""coordinates"":[9.511486111111111,47.67131666666666]}"
"EDPY","Ellwangen","Ellwangen","Germany","DEU",48.961111111111116,10.236388888888888,"{""type"":""Point"",""coordinates"":[10.236388888888888,48.961111111111116]}"
"ETNG","Geilenkirchen","Geilenkirchen","Germany","DEU",50.960825,6.0417749999999995,"{""type"":""Point"",""coordinates"":[6.0417749999999995,50.960825]}"
"EDTX","Weckrieden","Schwabisch Hall","Germany","DEU",49.12416666666667,9.781166666666667,"{""type"":""Point"",""coordinates"":[9.781166666666667,49.12416666666667]}"
"EDPW","Thalmassing-Waizenhofen","Thalmassing-Waizenhofen","Germany","DEU",49.06433333333333,11.209499999999998,"{""type"":""Point"",""coordinates"":[11.209499999999998,49.06433333333333]}"
"EDPU","Amalienhof","Bartholoma","Germany","DEU",48.74666666666667,10.005,"{""type"":""Point"",""coordinates"":[10.005,48.74666666666667]}"
"EDQO","Ottengruner Heide","Ottengruner Heide","Germany","DEU",50.225833333333334,11.7325,"{""type"":""Point"",""coordinates"":[11.7325,50.225833333333334]}"
"EDPS","Sonnen","Sonnen","Germany","DEU",48.68277777777777,13.695833333333333,"{""type"":""Point"",""coordinates"":[13.695833333333333,48.68277777777777]}"
"EDXA","Achmer","Achmer","Germany","DEU",52.3775,7.913611111111112,"{""type"":""Point"",""coordinates"":[7.913611111111112,52.3775]}"
"EDOT","Obergrochlitz","Greiz","Germany","DEU",50.64416666666666,12.174833333333332,"{""type"":""Point"",""coordinates"":[12.174833333333332,50.64416666666666]}"
"EDSE","Bezgenriet","Goppingen","Germany","DEU",48.65833333333333,9.625,"{""type"":""Point"",""coordinates"":[9.625,48.65833333333333]}"
"EDMF","Furstenzell","Furstenzell","Germany","DEU",48.518,13.346,"{""type"":""Point"",""coordinates"":[13.346,48.518]}"
"EDQS","Goldlauter","Suhl","Germany","DEU",50.63216666666667,10.726,"{""type"":""Point"",""coordinates"":[10.726,50.63216666666667]}"
"ETHL","Laupheim","Laupheim","Germany","DEU",48.22016666666667,9.910166666666667,"{""type"":""Point"",""coordinates"":[9.910166666666667,48.22016666666667]}"
"EDPR","Donauworth","Donauworth","Germany","DEU",48.707486111111116,10.769258333333335,"{""type"":""Point"",""coordinates"":[10.769258333333335,48.707486111111116]}"
"EDVH","Hodenhagen","Hodenhagen","Germany","DEU",52.7625,9.608333333333333,"{""type"":""Point"",""coordinates"":[9.608333333333333,52.7625]}"
"EDPQ","Schmidgaden","Schmidgaden","Germany","DEU",49.42972222222222,12.096944444444444,"{""type"":""Point"",""coordinates"":[12.096944444444444,49.42972222222222]}"
"EDPJ","Laichingen","Laichingen","Germany","DEU",48.49638888888889,9.639166666666666,"{""type"":""Point"",""coordinates"":[9.639166666666666,48.49638888888889]}"
"EDPI","Moosburg auf der Kippe","Moosburg auf der Kippe","Germany","DEU",48.4575,11.942833333333333,"{""type"":""Point"",""coordinates"":[11.942833333333333,48.4575]}"
"EDPG","Griesau","Griesau","Germany","DEU",48.95366666666667,12.421333333333333,"{""type"":""Point"",""coordinates"":[12.421333333333333,48.95366666666667]}"
"EDPF","Schwandorf","Schwandorf","Germany","DEU",49.34055555555556,12.184722222222222,"{""type"":""Point"",""coordinates"":[12.184722222222222,49.34055555555556]}"
"EDVC","Arloh","Celle","Germany","DEU",52.68783333333333,10.112333333333334,"{""type"":""Point"",""coordinates"":[10.112333333333334,52.68783333333333]}"
"EDQW","Weiden/Opf.","Weiden/Opf.","Germany","DEU",49.67883333333333,12.1165,"{""type"":""Point"",""coordinates"":[12.1165,49.67883333333333]}"
"EDAD","Dessau","Dessau","Germany","DEU",51.83222222222223,12.185833333333333,"{""type"":""Point"",""coordinates"":[12.185833333333333,51.83222222222223]}"
"EDPE","Eichstatt","Eichstatt","Germany","DEU",48.87694444444445,11.182222222222222,"{""type"":""Point"",""coordinates"":[11.182222222222222,48.87694444444445]}"
"EDCB","Ballenstedt","Ballenstedt","Germany","DEU",51.74633333333333,11.231,"{""type"":""Point"",""coordinates"":[11.231,51.74633333333333]}"
"EDQE","Burg Feuerstein","Burg Feuerstein","Germany","DEU",49.79383333333333,11.133166666666668,"{""type"":""Point"",""coordinates"":[11.133166666666668,49.79383333333333]}"
"EDPD","Dingolfing","Dingolfing","Germany","DEU",48.657777777777774,12.500555555555556,"{""type"":""Point"",""coordinates"":[12.500555555555556,48.657777777777774]}"
"EDNB","Arnbruck","Arnbruck","Germany","DEU",49.125166666666665,12.985,"{""type"":""Point"",""coordinates"":[12.985,49.125166666666665]}"
"EDVN","Northeim","Northeim","Germany","DEU",51.70666666666667,10.0395,"{""type"":""Point"",""coordinates"":[10.0395,51.70666666666667]}"
"EDDB","Schonefeld","Berlin","Germany","DEU",52.36224722222222,13.500672222222223,"{""type"":""Point"",""coordinates"":[13.500672222222223,52.36224722222222]}"
"EDOA","Auerbach","Auerbach","Germany","DEU",50.49722222222222,12.378055555555555,"{""type"":""Point"",""coordinates"":[12.378055555555555,50.49722222222222]}"
"EDPA","Elchingen","Aalen-Heidenheim","Germany","DEU",48.777833333333334,10.264666666666667,"{""type"":""Point"",""coordinates"":[10.264666666666667,48.777833333333334]}"
"EDOZ","Zackmunde","Schonebeck","Germany","DEU",51.99633333333333,11.792166666666667,"{""type"":""Point"",""coordinates"":[11.792166666666667,51.99633333333333]}"
"EDVQ","Wilsche","Wilsche","Germany","DEU",52.524499999999996,10.462833333333332,"{""type"":""Point"",""coordinates"":[10.462833333333332,52.524499999999996]}"
"EDOS","Pennewitz","Pennewitz","Germany","DEU",50.6695,11.050666666666668,"{""type"":""Point"",""coordinates"":[11.050666666666668,50.6695]}"
"EDDR","Saarbrucken","Saarbrucken","Germany","DEU",49.21455277777778,7.109508333333333,"{""type"":""Point"",""coordinates"":[7.109508333333333,49.21455277777778]}"
"EDOR","Stolln/Rhinow","Stolln/Rhinow","Germany","DEU",52.74111111111111,12.389999999999999,"{""type"":""Point"",""coordinates"":[12.389999999999999,52.74111111111111]}"
"EDDH","Hamburg","Hamburg","Germany","DEU",53.63038888888889,9.988227777777777,"{""type"":""Point"",""coordinates"":[9.988227777777777,53.63038888888889]}"
"EDOP","Schwerin-Parchim","Schwerin-Parchim","Germany","DEU",53.42699722222222,11.783436111111111,"{""type"":""Point"",""coordinates"":[11.783436111111111,53.42699722222222]}"
"EDON","Neuhardenberg","Neuhardenberg","Germany","DEU",52.613055555555555,14.242777777777777,"{""type"":""Point"",""coordinates"":[14.242777777777777,52.613055555555555]}"
"EDAH","Heringsdorf","Heringsdorf","Germany","DEU",53.878705555555555,14.152347222222222,"{""type"":""Point"",""coordinates"":[14.152347222222222,53.878705555555555]}"
"EDFZ","Finthen","Mainz","Germany","DEU",49.9685,8.148,"{""type"":""Point"",""coordinates"":[8.148,49.9685]}"
"EDOJ","Lusse","Lusse","Germany","DEU",52.14416666666666,12.669666666666666,"{""type"":""Point"",""coordinates"":[12.669666666666666,52.14416666666666]}"
"EDXQ","Rotenburg/Wumme","Rotenburg/Wumme","Germany","DEU",53.12833333333333,9.348666666666666,"{""type"":""Point"",""coordinates"":[9.348666666666666,53.12833333333333]}"
"EDNE","Erbach","Erbach","Germany","DEU",48.341944444444444,9.916666666666666,"{""type"":""Point"",""coordinates"":[9.916666666666666,48.341944444444444]}"
"EDOI","Bienenfarm","Bienenfarm","Germany","DEU",52.66,12.745833333333332,"{""type"":""Point"",""coordinates"":[12.745833333333332,52.66]}"
"EDMN","Mattsies","Mindelheim","Germany","DEU",48.10883333333334,10.524333333333335,"{""type"":""Point"",""coordinates"":[10.524333333333335,48.10883333333334]}"
"EDOF","Bad Frankenhausen","Bad Frankenhausen","Germany","DEU",51.37316666666667,11.141333333333332,"{""type"":""Point"",""coordinates"":[11.141333333333332,51.37316666666667]}"
"EDOE","Bohlen","Bohlen","Germany","DEU",51.21527777777778,12.367777777777778,"{""type"":""Point"",""coordinates"":[12.367777777777778,51.21527777777778]}"
"EDBI","Zwickau","Zwickau","Germany","DEU",50.703,12.459499999999998,"{""type"":""Point"",""coordinates"":[12.459499999999998,50.703]}"
"EDXC","Kropp","Schleswig","Germany","DEU",54.4255,9.5405,"{""type"":""Point"",""coordinates"":[9.5405,54.4255]}"
"EDHI","Finkenwerder","Hamburg","Germany","DEU",53.53379722222222,9.832286111111111,"{""type"":""Point"",""coordinates"":[9.832286111111111,53.53379722222222]}"
"EDNC","Beilngries","Beilngries","Germany","DEU",49.021388888888886,11.48472222222222,"{""type"":""Point"",""coordinates"":[11.48472222222222,49.021388888888886]}"
"EDOD","Reinsdorf","Reinsdorf","Germany","DEU",51.901111111111106,13.194444444444445,"{""type"":""Point"",""coordinates"":[13.194444444444445,51.901111111111106]}"
"EDXK","Leck","Leck","Germany","DEU",54.79,8.9615,"{""type"":""Point"",""coordinates"":[8.9615,54.79]}"
"EDOC","Gardelegen","Gardelegen","Germany","DEU",52.52777777777778,11.354166666666666,"{""type"":""Point"",""coordinates"":[11.354166666666666,52.52777777777778]}"
"EDOB","Bad Berka","Bad Berka","Germany","DEU",50.904444444444444,11.256944444444445,"{""type"":""Point"",""coordinates"":[11.256944444444445,50.904444444444444]}"
"EDXL","Barssel","Barssel","Germany","DEU",53.1635,7.792666666666666,"{""type"":""Point"",""coordinates"":[7.792666666666666,53.1635]}"
"EDFR","Rothenburg O.D. Tauber","Rothenburg O.D. Tauber","Germany","DEU",49.39066666666667,10.218833333333334,"{""type"":""Point"",""coordinates"":[10.218833333333334,49.39066666666667]}"
"EDMS","Straubing","Straubing","Germany","DEU",48.90095,12.518186111111111,"{""type"":""Point"",""coordinates"":[12.518186111111111,48.90095]}"
"EDNZ","Haidberg","Zell","Germany","DEU",50.13666666666666,11.7945,"{""type"":""Point"",""coordinates"":[11.7945,50.13666666666666]}"
"EDAY","Strausberg","Strausberg","Germany","DEU",52.58027777777778,13.915000000000001,"{""type"":""Point"",""coordinates"":[13.915000000000001,52.58027777777778]}"
"EDQH","Herzogenaurach","Herzogenaurach","Germany","DEU",49.58277777777778,10.878055555555555,"{""type"":""Point"",""coordinates"":[10.878055555555555,49.58277777777778]}"
"EDNX","Oberschleissheim","Oberschleissheim","Germany","DEU",48.23888888888889,11.559166666666668,"{""type"":""Point"",""coordinates"":[11.559166666666668,48.23888888888889]}"
"EDBZ","Schwarzheide/Schipkau","Schwarzheide/Schipkau","Germany","DEU",51.48983333333334,13.879333333333333,"{""type"":""Point"",""coordinates"":[13.879333333333333,51.48983333333334]}"
"EDBY","Schmoldow","Schmoldow","Germany","DEU",53.970666666666666,13.344000000000001,"{""type"":""Point"",""coordinates"":[13.344000000000001,53.970666666666666]}"
"ETNS","Schleswig","Schleswig","Germany","DEU",54.45933333333333,9.516333333333334,"{""type"":""Point"",""coordinates"":[9.516333333333334,54.45933333333333]}"
"EDFY","Elz","Elz","Germany","DEU",50.426944444444445,8.011111111111111,"{""type"":""Point"",""coordinates"":[8.011111111111111,50.426944444444445]}"
"EDNW","Weissenhorn","Weissenhorn","Germany","DEU",48.28944444444444,10.140277777777778,"{""type"":""Point"",""coordinates"":[10.140277777777778,48.28944444444444]}"
"EDDC","Dresden","Dresden","Germany","DEU",51.134344444444444,13.768,"{""type"":""Point"",""coordinates"":[13.768,51.134344444444444]}"
"EDMH","Reutberg","Gunzenhausen","Germany","DEU",49.11194444444445,10.781944444444445,"{""type"":""Point"",""coordinates"":[10.781944444444445,49.11194444444445]}"
"EDNU","Thannhausen","Thannhausen","Germany","DEU",48.290277777777774,10.441944444444445,"{""type"":""Point"",""coordinates"":[10.441944444444445,48.290277777777774]}"
"EDTW","Schramberg","Winzeln","Germany","DEU",48.27916666666667,8.428333333333333,"{""type"":""Point"",""coordinates"":[8.428333333333333,48.27916666666667]}"
"EDNR","Oberhub","Regensburg","Germany","DEU",49.142,12.081833333333334,"{""type"":""Point"",""coordinates"":[12.081833333333334,49.142]}"
"EDFP","Ober-Morlen","Ober-Morlen","Germany","DEU",50.36194444444445,8.710555555555555,"{""type"":""Point"",""coordinates"":[8.710555555555555,50.36194444444445]}"
"EDWU","Varrelbusch","Varrelbusch","Germany","DEU",52.90861111111111,8.042777777777777,"{""type"":""Point"",""coordinates"":[8.042777777777777,52.90861111111111]}"
"EDLK","Egelsberg","Krefeld","Germany","DEU",51.385,6.5874999999999995,"{""type"":""Point"",""coordinates"":[6.5874999999999995,51.385]}"
"EDMY","Muhldorf","Muhldorf","Germany","DEU",48.28,12.501944444444444,"{""type"":""Point"",""coordinates"":[12.501944444444444,48.28]}"
"EDNQ","Bopfingen","Bopfingen","Germany","DEU",48.8485,10.333833333333335,"{""type"":""Point"",""coordinates"":[10.333833333333335,48.8485]}"
"EDRZ","Zweibrucken","Zweibrucken","Germany","DEU",49.209525,7.400647222222222,"{""type"":""Point"",""coordinates"":[7.400647222222222,49.209525]}"
"EDLM","Loemuhle","Marl","Germany","DEU",51.647,7.163666666666667,"{""type"":""Point"",""coordinates"":[7.163666666666667,51.647]}"
"EDKD","Hegenscheid","Altena","Germany","DEU",51.31305555555555,7.703611111111111,"{""type"":""Point"",""coordinates"":[7.703611111111111,51.31305555555555]}"
"EDNP","Pfarrkirchen","Pfarrkirchen","Germany","DEU",48.42016666666667,12.864833333333333,"{""type"":""Point"",""coordinates"":[12.864833333333333,48.42016666666667]}"
"EDBA","Alkersleben","Arnstadt","Germany","DEU",50.841944444444444,11.07,"{""type"":""Point"",""coordinates"":[11.07,50.841944444444444]}"
"EDHN","Neumunster","Neumunster","Germany","DEU",54.078611111111115,9.940555555555555,"{""type"":""Point"",""coordinates"":[9.940555555555555,54.078611111111115]}"
"EDNK","Kirchdorf/Inn","Kirchdorf/Inn","Germany","DEU",48.2385,12.976833333333333,"{""type"":""Point"",""coordinates"":[12.976833333333333,48.2385]}"
"EDGU","Unterschupf","Unterschupf","Germany","DEU",49.5155,9.668333333333333,"{""type"":""Point"",""coordinates"":[9.668333333333333,49.5155]}"
"EDNJ","Egweil","Neuburg","Germany","DEU",48.782222222222224,11.215277777777777,"{""type"":""Point"",""coordinates"":[11.215277777777777,48.782222222222224]}"
"EDNH","Bad Worishofen-Nord","Bad Worishofen","Germany","DEU",48.016333333333336,10.616,"{""type"":""Point"",""coordinates"":[10.616,48.016333333333336]}"
"EDLW","Dortmund","Dortmund","Germany","DEU",51.51831388888889,7.612241666666666,"{""type"":""Point"",""coordinates"":[7.612241666666666,51.51831388888889]}"
"EDNG","Giengen/Brenz","Giengen/Brenz","Germany","DEU",48.63516666666666,10.215499999999999,"{""type"":""Point"",""coordinates"":[10.215499999999999,48.63516666666666]}"
"EDBX","Gorlitz","Gorlitz","Germany","DEU",51.15888888888889,14.950277777777776,"{""type"":""Point"",""coordinates"":[14.950277777777776,51.15888888888889]}"
"EDNA","Waldkraiburg","Ampfing","Germany","DEU",48.26433333333333,12.414,"{""type"":""Point"",""coordinates"":[12.414,48.26433333333333]}"
"EDGA","Ailertchen","Ailertchen","Germany","DEU",50.5925,7.944444444444445,"{""type"":""Point"",""coordinates"":[7.944444444444445,50.5925]}"
"EDOU","Umpferstedt","Weimar","Germany","DEU",50.96472222222223,11.400277777777777,"{""type"":""Point"",""coordinates"":[11.400277777777777,50.96472222222223]}"
"EDOL","Oschersleben","Oschersleben","Germany","DEU",52.038,11.205666666666666,"{""type"":""Point"",""coordinates"":[11.205666666666666,52.038]}"
"EDLA","Menden","Arnsberg","Germany","DEU",51.483333333333334,7.899444444444444,"{""type"":""Point"",""coordinates"":[7.899444444444444,51.483333333333334]}"
"EDMW","Deggendorf","Deggendorf","Germany","DEU",48.83027777777778,12.879722222222222,"{""type"":""Point"",""coordinates"":[12.879722222222222,48.83027777777778]}"
"EDMU","Gundelfingen","Gundelfingen","Germany","DEU",48.56944444444445,10.358888888888888,"{""type"":""Point"",""coordinates"":[10.358888888888888,48.56944444444445]}"
"EDEG","Gotha-Ost","Gotha-Ost","Germany","DEU",50.970555555555556,10.728055555555555,"{""type"":""Point"",""coordinates"":[10.728055555555555,50.970555555555556]}"
"EDMT","Tannheim","Tannheim","Germany","DEU",48.01083333333333,10.100833333333332,"{""type"":""Point"",""coordinates"":[10.100833333333332,48.01083333333333]}"
"EDNS","Schwabmunchen","Schwabmunchen","Germany","DEU",48.17933333333333,10.702833333333333,"{""type"":""Point"",""coordinates"":[10.702833333333333,48.17933333333333]}"
"EDAM","Merseburg","Merseburg","Germany","DEU",51.363055555555555,11.940833333333334,"{""type"":""Point"",""coordinates"":[11.940833333333334,51.363055555555555]}"
"EDML","Landshut","Landshut","Germany","DEU",48.51166666666666,12.033333333333333,"{""type"":""Point"",""coordinates"":[12.033333333333333,48.51166666666666]}"
"EDXW","Sylt","Sylt","Germany","DEU",54.91163611111111,8.34238611111111,"{""type"":""Point"",""coordinates"":[8.34238611111111,54.91163611111111]}"
"EDTY","Schwabisch Hall","Schwabisch Hall","Germany","DEU",49.118316666666665,9.783955555555556,"{""type"":""Point"",""coordinates"":[9.783955555555556,49.118316666666665]}"
"EDMK","Durach","Kempten","Germany","DEU",47.69277777777778,10.338333333333335,"{""type"":""Point"",""coordinates"":[10.338333333333335,47.69277777777778]}"
"EDXH","Dune","Helgoland","Germany","DEU",54.18527777777778,7.9158333333333335,"{""type"":""Point"",""coordinates"":[7.9158333333333335,54.18527777777778]}"
"EDMP","Vilsbiburg","Vilsbiburg","Germany","DEU",48.4265,12.345500000000001,"{""type"":""Point"",""coordinates"":[12.345500000000001,48.4265]}"
"EDCA","Anklam","Anklam","Germany","DEU",53.831833333333336,13.673166666666667,"{""type"":""Point"",""coordinates"":[13.673166666666667,53.831833333333336]}"
"EDMG","Donauried","Gunzburg","Germany","DEU",48.48722222222222,10.283333333333333,"{""type"":""Point"",""coordinates"":[10.283333333333333,48.48722222222222]}"
"EDQK","Kulmbach","Kulmbach","Germany","DEU",50.135,11.45861111111111,"{""type"":""Point"",""coordinates"":[11.45861111111111,50.135]}"
"EDMD","Grobenried","Dachau","Germany","DEU",48.228500000000004,11.423166666666667,"{""type"":""Point"",""coordinates"":[11.423166666666667,48.228500000000004]}"
"EDAU","Gohlis","Riesa","Germany","DEU",51.293166666666664,13.357166666666666,"{""type"":""Point"",""coordinates"":[13.357166666666666,51.293166666666664]}"
"EDAT","Nardt","Nardt","Germany","DEU",51.45166666666667,14.202499999999999,"{""type"":""Point"",""coordinates"":[14.202499999999999,51.45166666666667]}"
"EDFS","Schweinfurt Sud","Schweinfurt","Germany","DEU",50.0105,10.251333333333333,"{""type"":""Point"",""coordinates"":[10.251333333333333,50.0105]}"
"EDMB","Biberach An Der Riss","Biberach An Der Riss","Germany","DEU",48.111000000000004,9.762833333333333,"{""type"":""Point"",""coordinates"":[9.762833333333333,48.111000000000004]}"
"EDKL","Leverkusen","Leverkusen","Germany","DEU",51.015277777777776,7.006111111111111,"{""type"":""Point"",""coordinates"":[7.006111111111111,51.015277777777776]}"
"EDND","Sinbronn","Dinkelsbuhl","Germany","DEU",49.065,10.401,"{""type"":""Point"",""coordinates"":[10.401,49.065]}"
"EDFL","Lutzellinden","Giessen","Germany","DEU",50.54388888888889,8.590277777777779,"{""type"":""Point"",""coordinates"":[8.590277777777779,50.54388888888889]}"
"EDLX","Romerwardt","Wesel","Germany","DEU",51.66283333333333,6.595666666666666,"{""type"":""Point"",""coordinates"":[6.595666666666666,51.66283333333333]}"
"EDXE","Eschendorf","Rheine","Germany","DEU",52.27583333333333,7.491333333333333,"{""type"":""Point"",""coordinates"":[7.491333333333333,52.27583333333333]}"
"EDNO","Nordlingen","Nordlingen","Germany","DEU",48.871,10.505833333333333,"{""type"":""Point"",""coordinates"":[10.505833333333333,48.871]}"
"EDPK","Schonberg","Schonberg","Germany","DEU",48.047777777777775,12.500555555555556,"{""type"":""Point"",""coordinates"":[12.500555555555556,48.047777777777775]}"
"EDRF","Bad Durkheim","Bad Durkheim","Germany","DEU",49.473,8.196333333333333,"{""type"":""Point"",""coordinates"":[8.196333333333333,49.473]}"
"ETSI","Manching","Ingolstadt","Germany","DEU",48.71566666666667,11.533666666666667,"{""type"":""Point"",""coordinates"":[11.533666666666667,48.71566666666667]}"
"EDKI","Betzdorf-Kirchen","Betzdorf-Kirchen","Germany","DEU",50.81722222222223,7.830555555555556,"{""type"":""Point"",""coordinates"":[7.830555555555556,50.81722222222223]}"
"EDLV","Niederrhein","Niederrhein","Germany","DEU",51.60241388888889,6.142172222222222,"{""type"":""Point"",""coordinates"":[6.142172222222222,51.60241388888889]}"
"EDDT","Tegel","Berlin","Germany","DEU",52.559686111111105,13.287711111111111,"{""type"":""Point"",""coordinates"":[13.287711111111111,52.559686111111105]}"
"EDEN","Bad Hersfeld","Bad Hersfeld","Germany","DEU",50.84444444444445,9.70722222222222,"{""type"":""Point"",""coordinates"":[9.70722222222222,50.84444444444445]}"
"EDLT","Telgte","Munster","Germany","DEU",51.94472222222222,7.772777777777778,"{""type"":""Point"",""coordinates"":[7.772777777777778,51.94472222222222]}"
"EDLC","Kamp-Lintfort","Kamp-Lintfort","Germany","DEU",51.528888888888886,6.536111111111111,"{""type"":""Point"",""coordinates"":[6.536111111111111,51.528888888888886]}"
"EDAG","Grossruckerswalde","Grossruckerswalde","Germany","DEU",50.64388888888889,13.12638888888889,"{""type"":""Point"",""coordinates"":[13.12638888888889,50.64388888888889]}"
"EDBV","Stralsund","Stralsund","Germany","DEU",54.33866666666667,13.046833333333334,"{""type"":""Point"",""coordinates"":[13.046833333333334,54.33866666666667]}"
"EDLP","Paderborn/Lippstadt","Paderborn/Lippstadt","Germany","DEU",51.614088888888894,8.616316666666666,"{""type"":""Point"",""coordinates"":[8.616316666666666,51.614088888888894]}"
"EDKO","Brilon/Hochsauerland","Brilon/Hochsauerland","Germany","DEU",51.402499999999996,8.641944444444444,"{""type"":""Point"",""coordinates"":[8.641944444444444,51.402499999999996]}"
"EDLO","Oerlinghausen","Oerlinghausen","Germany","DEU",51.9325,8.662,"{""type"":""Point"",""coordinates"":[8.662,51.9325]}"
"EDHF","Hungriger Wolf","Itzehoe","Germany","DEU",53.99444444444445,9.57861111111111,"{""type"":""Point"",""coordinates"":[9.57861111111111,53.99444444444445]}"
"EDSL","Blumberg","Blumberg","Germany","DEU",47.845,8.565666666666667,"{""type"":""Point"",""coordinates"":[8.565666666666667,47.845]}"
"EDMI","Illertissen","Illertissen","Germany","DEU",48.23527777777778,10.137777777777778,"{""type"":""Point"",""coordinates"":[10.137777777777778,48.23527777777778]}"
"EDVW","Hameln-Pyrmont","Bad Pyrmont","Germany","DEU",51.9675,9.293055555555556,"{""type"":""Point"",""coordinates"":[9.293055555555556,51.9675]}"
"EDMA","Augsburg","Augsburg","Germany","DEU",48.42515833333333,10.931763888888888,"{""type"":""Point"",""coordinates"":[10.931763888888888,48.42515833333333]}"
"EDLN","Monchengladbach","Monchengladbach","Germany","DEU",51.23027777777778,6.504444444444444,"{""type"":""Point"",""coordinates"":[6.504444444444444,51.23027777777778]}"
"EDSA","Degerfeld","Albstadt","Germany","DEU",48.249722222222225,9.06027777777778,"{""type"":""Point"",""coordinates"":[9.06027777777778,48.249722222222225]}"
"EDNI","Berching","Berching","Germany","DEU",49.13055555555555,11.444166666666668,"{""type"":""Point"",""coordinates"":[11.444166666666668,49.13055555555555]}"
"EDUA","Ferchesar","Stechow","Germany","DEU",52.650555555555556,12.487777777777778,"{""type"":""Point"",""coordinates"":[12.487777777777778,52.650555555555556]}"
"EDMC","Blaubeuren","Blaubeuren","Germany","DEU",48.41972222222222,9.79888888888889,"{""type"":""Point"",""coordinates"":[9.79888888888889,48.41972222222222]}"
"EDOM","Klein Muhlingen","Klein Muhlingen","Germany","DEU",51.9475,11.769722222222223,"{""type"":""Point"",""coordinates"":[11.769722222222223,51.9475]}"
"ETSL","Lechfeld","Lechfeld","Germany","DEU",48.1855,10.861166666666666,"{""type"":""Point"",""coordinates"":[10.861166666666666,48.1855]}"
"EDMV","Vilshofen","Vilshofen","Germany","DEU",48.63516666666666,13.195666666666668,"{""type"":""Point"",""coordinates"":[13.195666666666668,48.63516666666666]}"
"EDLZ","Bad Sassendorf","Soest","Germany","DEU",51.57805555555556,8.214722222222221,"{""type"":""Point"",""coordinates"":[8.214722222222221,51.57805555555556]}"
"EDKN","Neye","Wipperfurth","Germany","DEU",51.123666666666665,7.3741666666666665,"{""type"":""Point"",""coordinates"":[7.3741666666666665,51.123666666666665]}"
"ETNH","Hohn","Hohn","Germany","DEU",54.31216666666666,9.538166666666667,"{""type"":""Point"",""coordinates"":[9.538166666666667,54.31216666666666]}"
"EDTK","Sinsheim","Sinsheim","Germany","DEU",49.248333333333335,8.894666666666666,"{""type"":""Point"",""coordinates"":[8.894666666666666,49.248333333333335]}"
"EDCR","Rerik-Zweedorf","Rerik-Zweedorf","Germany","DEU",54.08222222222223,11.655000000000001,"{""type"":""Point"",""coordinates"":[11.655000000000001,54.08222222222223]}"
"EDDM","Munich","Munich","Germany","DEU",48.35378333333333,11.78608611111111,"{""type"":""Point"",""coordinates"":[11.78608611111111,48.35378333333333]}"
"EDRB","Bitburg","Bitburg","Germany","DEU",49.945277777777775,6.5649999999999995,"{""type"":""Point"",""coordinates"":[6.5649999999999995,49.945277777777775]}"
"EDBW","Werneuchen","Werneuchen","Germany","DEU",52.63305555555556,13.766944444444444,"{""type"":""Point"",""coordinates"":[13.766944444444444,52.63305555555556]}"
"EDKF","Auf Dem Dumpel","Bergneustadt","Germany","DEU",51.051944444444445,7.706388888888889,"{""type"":""Point"",""coordinates"":[7.706388888888889,51.051944444444445]}"
"ETHF","Fritzlar","Fritzlar","Germany","DEU",51.114583333333336,9.28586111111111,"{""type"":""Point"",""coordinates"":[9.28586111111111,51.114583333333336]}"
"EDQT","Schweinfurt","Hassfurt","Germany","DEU",50.018055555555556,10.529444444444445,"{""type"":""Point"",""coordinates"":[10.529444444444445,50.018055555555556]}"
"EDKB","Hangelar","Bonn","Germany","DEU",50.76888888888889,7.16388888888889,"{""type"":""Point"",""coordinates"":[7.16388888888889,50.76888888888889]}"
"EDJG","Grabenstatt","Grabenstatt","Germany","DEU",47.853,12.550500000000001,"{""type"":""Point"",""coordinates"":[12.550500000000001,47.853]}"
"EDEP","Heppenheim","Heppenheim","Germany","DEU",49.62138888888889,8.625,"{""type"":""Point"",""coordinates"":[8.625,49.62138888888889]}"
"EDHW","Wahlstedt","Wahlstedt","Germany","DEU",53.969500000000004,10.221666666666668,"{""type"":""Point"",""coordinates"":[10.221666666666668,53.969500000000004]}"
"EDKP","Huinghausen","Plettenberg","Germany","DEU",51.19194444444444,7.789444444444444,"{""type"":""Point"",""coordinates"":[7.789444444444444,51.19194444444444]}"
"EDHU","Lauenbruck","Lauenbruck","Germany","DEU",53.20722222222223,9.573888888888888,"{""type"":""Point"",""coordinates"":[9.573888888888888,53.20722222222223]}"
"EDHO","Ahrenlohe","Ahrenlohe","Germany","DEU",53.7,9.740555555555554,"{""type"":""Point"",""coordinates"":[9.740555555555554,53.7]}"
"EDHP","Pellworm","Pellworm","Germany","DEU",54.53583333333333,8.681833333333334,"{""type"":""Point"",""coordinates"":[8.681833333333334,54.53583333333333]}"
"EDCT","Taucha","Taucha","Germany","DEU",51.39472222222222,12.536944444444444,"{""type"":""Point"",""coordinates"":[12.536944444444444,51.39472222222222]}"
"EDMO","Oberpfaffenhofen","Oberpfaffenhofen","Germany","DEU",48.081363888888895,11.283066666666668,"{""type"":""Point"",""coordinates"":[11.283066666666668,48.081363888888895]}"
"EDHK","Holtenau","Kiel","Germany","DEU",54.379469444444446,10.145147222222223,"{""type"":""Point"",""coordinates"":[10.145147222222223,54.379469444444446]}"
"EDSZ","Zepfenhan","Rottweil","Germany","DEU",48.186499999999995,8.721166666666667,"{""type"":""Point"",""coordinates"":[8.721166666666667,48.186499999999995]}"
"EDHG","Luneburg","Luneburg","Germany","DEU",53.248333333333335,10.45861111111111,"{""type"":""Point"",""coordinates"":[10.45861111111111,53.248333333333335]}"
"EDBK","Kyritz","Kyritz","Germany","DEU",52.91888888888889,12.425277777777778,"{""type"":""Point"",""coordinates"":[12.425277777777778,52.91888888888889]}"
"EDVA","Bad Gandersheim","Bad Gandersheim","Germany","DEU",51.852833333333336,10.0265,"{""type"":""Point"",""coordinates"":[10.0265,51.852833333333336]}"
"EDLE","Essen-Mulheim","Essen-Mulheim","Germany","DEU",51.40222222222222,6.937222222222222,"{""type"":""Point"",""coordinates"":[6.937222222222222,51.40222222222222]}"
"EDQF","Petersdorf","Ansbach","Germany","DEU",49.362,10.669666666666666,"{""type"":""Point"",""coordinates"":[10.669666666666666,49.362]}"
"EDTO","Offenburg","Offenburg","Germany","DEU",48.44983333333333,7.924666666666667,"{""type"":""Point"",""coordinates"":[7.924666666666667,48.44983333333333]}"
"EDTH","Heubach","Heubach","Germany","DEU",48.80222222222222,9.9275,"{""type"":""Point"",""coordinates"":[9.9275,48.80222222222222]}"
"EDFU","Mainbullau","Mainbullau","Germany","DEU",49.69499999999999,9.181999999999999,"{""type"":""Point"",""coordinates"":[9.181999999999999,49.69499999999999]}"
"EDHE","Heist","Uetersen","Germany","DEU",53.647,9.704166666666666,"{""type"":""Point"",""coordinates"":[9.704166666666666,53.647]}"
"EDRG","Gottschied","Idar-Oberstein","Germany","DEU",49.73277777777778,7.338055555555555,"{""type"":""Point"",""coordinates"":[7.338055555555555,49.73277777777778]}"
"EDJA","Memmingen","Memmingen","Germany","DEU",47.988822222222225,10.239483333333332,"{""type"":""Point"",""coordinates"":[10.239483333333332,47.988822222222225]}"
"EDHD","Heilbad Heiligenstadt","Gottingen","Germany","DEU",51.4075,10.145333333333333,"{""type"":""Point"",""coordinates"":[10.145333333333333,51.4075]}"
"EDBH","Barth","Barth","Germany","DEU",54.338175,12.710105555555554,"{""type"":""Point"",""coordinates"":[12.710105555555554,54.338175]}"
"EDAP","Neuhausen","Neuhausen","Germany","DEU",51.68483333333333,14.423166666666667,"{""type"":""Point"",""coordinates"":[14.423166666666667,51.68483333333333]}"
"EDHS","Stade","Stade","Germany","DEU",53.56133333333333,9.498333333333333,"{""type"":""Point"",""coordinates"":[9.498333333333333,53.56133333333333]}"
"EDPC","Jolling","Bad Endorf","Germany","DEU",47.926833333333335,12.287166666666666,"{""type"":""Point"",""coordinates"":[12.287166666666666,47.926833333333335]}"
"EDCI","Klix","Klix","Germany","DEU",51.273666666666664,14.5065,"{""type"":""Point"",""coordinates"":[14.5065,51.273666666666664]}"
"EDHC","Rehbeck","Luchow","Germany","DEU",53.016,11.145666666666667,"{""type"":""Point"",""coordinates"":[11.145666666666667,53.016]}"
"EDGX","Walldorf","Walldorf","Germany","DEU",49.303888888888885,8.658888888888889,"{""type"":""Point"",""coordinates"":[8.658888888888889,49.303888888888885]}"
"EDOG","Beilrode","Torgau","Germany","DEU",51.571111111111115,13.052222222222223,"{""type"":""Point"",""coordinates"":[13.052222222222223,51.571111111111115]}"
"EDLJ","Detmold","Detmold","Germany","DEU",51.940999999999995,8.904166666666667,"{""type"":""Point"",""coordinates"":[8.904166666666667,51.940999999999995]}"
"EDFE","Frankfurt-Egelsbach","Frankfurt-Egelsbach","Germany","DEU",49.96082222222223,8.641461111111111,"{""type"":""Point"",""coordinates"":[8.641461111111111,49.96082222222223]}"
"EDEM","Mosenberg","Mosenberg","Germany","DEU",51.06283333333333,9.421999999999999,"{""type"":""Point"",""coordinates"":[9.421999999999999,51.06283333333333]}"
"EDGT","Bottenhorn","Bottenhorn","Germany","DEU",50.79472222222222,8.46361111111111,"{""type"":""Point"",""coordinates"":[8.46361111111111,50.79472222222222]}"
"EDRJ","Duren","Saarlouis","Germany","DEU",49.3125,6.674,"{""type"":""Point"",""coordinates"":[6.674,49.3125]}"
"EDGS","Siegerland","Siegerland","Germany","DEU",50.707658333333335,8.082969444444444,"{""type"":""Point"",""coordinates"":[8.082969444444444,50.707658333333335]}"
"EDCE","Eggersdorf","Eggersdorf","Germany","DEU",52.48283333333333,14.090833333333334,"{""type"":""Point"",""coordinates"":[14.090833333333334,52.48283333333333]}"
"EDTZ","Konstanz","Konstanz","Germany","DEU",47.68194444444444,9.137222222222222,"{""type"":""Point"",""coordinates"":[9.137222222222222,47.68194444444444]}"
"EDRN","Nannhausen","Nannhausen","Germany","DEU",49.97,7.4785,"{""type"":""Point"",""coordinates"":[7.4785,49.97]}"
"EDRO","Schweighofen","Schweighofen","Germany","DEU",49.031666666666666,7.99,"{""type"":""Point"",""coordinates"":[7.99,49.031666666666666]}"
"EDLG","Asperden","Goch","Germany","DEU",51.69083333333333,6.104166666666666,"{""type"":""Point"",""coordinates"":[6.104166666666666,51.69083333333333]}"
"EDBQ","Bronkow","Bronkow","Germany","DEU",51.67067222222222,13.960122222222221,"{""type"":""Point"",""coordinates"":[13.960122222222221,51.67067222222222]}"
"EDGR","Reiskirchen","Giessen","Germany","DEU",50.56666666666667,8.869722222222222,"{""type"":""Point"",""coordinates"":[8.869722222222222,50.56666666666667]}"
"EDKV","Dahlemer Binz","Dahlemer Binz","Germany","DEU",50.40555555555555,6.528888888888889,"{""type"":""Point"",""coordinates"":[6.528888888888889,50.40555555555555]}"
"EDEW","Walldurn","Walldurn","Germany","DEU",49.58166666666667,9.402222222222223,"{""type"":""Point"",""coordinates"":[9.402222222222223,49.58166666666667]}"
"ETHS","Fassberg","Fassberg","Germany","DEU",52.919333333333334,10.183833333333334,"{""type"":""Point"",""coordinates"":[10.183833333333334,52.919333333333334]}"
"EDGP","Oppenheim","Oppenheim","Germany","DEU",49.841,8.375833333333334,"{""type"":""Point"",""coordinates"":[8.375833333333334,49.841]}"
"EDPO","Neumarkt/Opf.","Neumarkt/Opf.","Germany","DEU",49.285555555555554,11.444722222222222,"{""type"":""Point"",""coordinates"":[11.444722222222222,49.285555555555554]}"
"ETNL","Rostock-Laage","Laage","Germany","DEU",53.918166666666664,12.279333333333334,"{""type"":""Point"",""coordinates"":[12.279333333333334,53.918166666666664]}"
"EDDL","Dusseldorf","Dusseldorf","Germany","DEU",51.280924999999996,6.757311111111111,"{""type"":""Point"",""coordinates"":[6.757311111111111,51.280924999999996]}"
"EDFI","Hirzenhain","Hirzenhain","Germany","DEU",50.7875,8.392166666666666,"{""type"":""Point"",""coordinates"":[8.392166666666666,50.7875]}"
"EDXI","Holzbalge","Nienburg","Germany","DEU",52.70966666666667,9.1625,"{""type"":""Point"",""coordinates"":[9.1625,52.70966666666667]}"
"EDGH","Hettstadt","Hettstadt","Germany","DEU",49.79861111111111,9.836944444444445,"{""type"":""Point"",""coordinates"":[9.836944444444445,49.79861111111111]}"
"EDFB","Reichelsheim","Reichelsheim","Germany","DEU",50.33866666666667,8.878666666666668,"{""type"":""Point"",""coordinates"":[8.878666666666668,50.33866666666667]}"
"EDCP","Peenemunde","Peenemunde","Germany","DEU",54.15783333333333,13.772666666666668,"{""type"":""Point"",""coordinates"":[13.772666666666668,54.15783333333333]}"
"EDSI","Binningen","Binningen","Germany","DEU",47.799166666666665,8.7205,"{""type"":""Point"",""coordinates"":[8.7205,47.799166666666665]}"
"EDGF","Jossa","Fulda","Germany","DEU",50.47555555555556,9.441944444444445,"{""type"":""Point"",""coordinates"":[9.441944444444445,50.47555555555556]}"
"EDCH","Sprossen","Sprossen","Germany","DEU",51.043055555555554,12.233055555555556,"{""type"":""Point"",""coordinates"":[12.233055555555556,51.043055555555554]}"
"EDUF","Lonnewitz","Falkenberg","Germany","DEU",51.547777777777775,13.228055555555555,"{""type"":""Point"",""coordinates"":[13.228055555555555,51.547777777777775]}"
"EDFW","Schenkenturm","Wurzburg","Germany","DEU",49.818000000000005,9.897166666666665,"{""type"":""Point"",""coordinates"":[9.897166666666665,49.818000000000005]}"
"EDFT","Lauterbach","Lauterbach","Germany","DEU",50.683166666666665,9.410333333333334,"{""type"":""Point"",""coordinates"":[9.410333333333334,50.683166666666665]}"
"EDCG","Rugen","Rugen","Germany","DEU",54.383833333333335,13.325555555555555,"{""type"":""Point"",""coordinates"":[13.325555555555555,54.383833333333335]}"
"EDGI","Buhlhof","Ingelfingen","Germany","DEU",49.32166666666667,9.663611111111111,"{""type"":""Point"",""coordinates"":[9.663611111111111,49.32166666666667]}"
"EDCX","Purkshof","Purkshof","Germany","DEU",54.16083333333333,12.24861111111111,"{""type"":""Point"",""coordinates"":[12.24861111111111,54.16083333333333]}"
"EDBU","Sommersberg","Pritzwalk","Germany","DEU",53.18083333333333,12.185500000000001,"{""type"":""Point"",""coordinates"":[12.185500000000001,53.18083333333333]}"
"EDFO","Michelstadt/Odw.","Michelstadt/Odw.","Germany","DEU",49.6785,8.972333333333333,"{""type"":""Point"",""coordinates"":[8.972333333333333,49.6785]}"
"EDVI","Hoxter-Holzminden","Hoxter-Holzminden","Germany","DEU",51.80638888888888,9.378333333333334,"{""type"":""Point"",""coordinates"":[9.378333333333334,51.80638888888888]}"
"EDWM","Weser-Wumme","Weser-Wumme","Germany","DEU",53.053999999999995,9.208666666666666,"{""type"":""Point"",""coordinates"":[9.208666666666666,53.053999999999995]}"
"EDAS","Heinrichsruh","Finsterwalde","Germany","DEU",51.63433333333333,13.671833333333332,"{""type"":""Point"",""coordinates"":[13.671833333333332,51.63433333333333]}"
"EDFJ","Lager Hammelburg","Lager Hammelburg","Germany","DEU",50.09861111111111,9.883333333333333,"{""type"":""Point"",""coordinates"":[9.883333333333333,50.09861111111111]}"
"ETMN","Nordholz","Nordholz","Germany","DEU",53.76766666666666,8.6585,"{""type"":""Point"",""coordinates"":[8.6585,53.76766666666666]}"
"EDWY","Norderney","Norderney","Germany","DEU",53.706944444444446,7.228611111111111,"{""type"":""Point"",""coordinates"":[7.228611111111111,53.706944444444446]}"
"EDGM","Lohrbach","Mosbach","Germany","DEU",49.39888888888889,9.123888888888889,"{""type"":""Point"",""coordinates"":[9.123888888888889,49.39888888888889]}"
"EDFH","Frankfurt-Hahn","Frankfurt-Hahn","Germany","DEU",49.94867222222222,7.263891666666667,"{""type"":""Point"",""coordinates"":[7.263891666666667,49.94867222222222]}"
"EDAV","Eberswalde-Finow","Eberswalde-Finow","Germany","DEU",52.82633333333334,13.701666666666666,"{""type"":""Point"",""coordinates"":[13.701666666666666,52.82633333333334]}"
"EDFD","Grasberg","Bad Neustadt/Saale","Germany","DEU",50.30555555555555,10.226666666666667,"{""type"":""Point"",""coordinates"":[10.226666666666667,50.30555555555555]}"
"EDME","Eggenfelden","Eggenfelden","Germany","DEU",48.39611111111111,12.723611111111111,"{""type"":""Point"",""coordinates"":[12.723611111111111,48.39611111111111]}"
"EDGQ","Schameder","Schameder","Germany","DEU",51,8.306944444444445,"{""type"":""Point"",""coordinates"":[8.306944444444445,51]}"
"EDEL","Langenlonsheim","Langenlonsheim","Germany","DEU",49.90833333333333,7.9077777777777785,"{""type"":""Point"",""coordinates"":[7.9077777777777785,49.90833333333333]}"
"EDEB","Bad Langensalza","Bad Langensalza","Germany","DEU",51.12916666666667,10.621666666666668,"{""type"":""Point"",""coordinates"":[10.621666666666668,51.12916666666667]}"
"EDBE","Muhlenfeld","Brandenburg","Germany","DEU",52.436388888888885,12.590555555555556,"{""type"":""Point"",""coordinates"":[12.590555555555556,52.436388888888885]}"
"EDCU","Gustrow","Gustrow","Germany","DEU",53.80694444444444,12.231944444444444,"{""type"":""Point"",""coordinates"":[12.231944444444444,53.80694444444444]}"
"EDOW","Vielist","Waren","Germany","DEU",53.56861111111112,12.652777777777779,"{""type"":""Point"",""coordinates"":[12.652777777777779,53.56861111111112]}"
"EDFK","Bad Kissingen","Bad Kissingen","Germany","DEU",50.21055555555556,10.068833333333334,"{""type"":""Point"",""coordinates"":[10.068833333333334,50.21055555555556]}"
"EDRT","Fohren","Trier","Germany","DEU",49.86416666666667,6.7877777777777775,"{""type"":""Point"",""coordinates"":[6.7877777777777775,49.86416666666667]}"
"EDER","Wasserkuppe","Wasserkuppe","Germany","DEU",50.49777777777778,9.949444444444445,"{""type"":""Point"",""coordinates"":[9.949444444444445,50.49777777777778]}"
"EDBC","Magdeburg/Cochstedt","Magdeburg/Cochstedt","Germany","DEU",51.85592777777778,11.418008333333333,"{""type"":""Point"",""coordinates"":[11.418008333333333,51.85592777777778]}"
"EDVG","Mengeringhausen","Mengeringhausen","Germany","DEU",51.37638888888889,8.981111111111112,"{""type"":""Point"",""coordinates"":[8.981111111111112,51.37638888888889]}"
"EDBS","Dermsdorf","Sommerda","Germany","DEU",51.199,11.1925,"{""type"":""Point"",""coordinates"":[11.1925,51.199]}"
"EDKR","Rennefeld","Schmallenberg","Germany","DEU",51.1615,8.260666666666667,"{""type"":""Point"",""coordinates"":[8.260666666666667,51.1615]}"
"EDFM","Mannheim City","Mannheim","Germany","DEU",49.47270555555556,8.51426388888889,"{""type"":""Point"",""coordinates"":[8.51426388888889,49.47270555555556]}"
"EDKW","Kuntrop","Werdohl","Germany","DEU",51.29694444444444,7.816666666666666,"{""type"":""Point"",""coordinates"":[7.816666666666666,51.29694444444444]}"
"EDEF","Babenhausen","Babenhausen","Germany","DEU",49.95277777777778,8.969444444444445,"{""type"":""Point"",""coordinates"":[8.969444444444445,49.95277777777778]}"
"EDTN","Nabern/Teck","Nabern/Teck","Germany","DEU",48.61266666666667,9.477166666666667,"{""type"":""Point"",""coordinates"":[9.477166666666667,48.61266666666667]}"
"EDKH","Hunsborn","Hunsborn","Germany","DEU",50.928888888888885,7.899166666666666,"{""type"":""Point"",""coordinates"":[7.899166666666666,50.928888888888885]}"
"EDUW","Tutow","Tutow","Germany","DEU",53.9175,13.220333333333333,"{""type"":""Point"",""coordinates"":[13.220333333333333,53.9175]}"
"EDGK","Korbach","Korbach","Germany","DEU",51.25388888888889,8.876111111111111,"{""type"":""Point"",""coordinates"":[8.876111111111111,51.25388888888889]}"
"EDDW","Bremen","Bremen","Germany","DEU",53.047399999999996,8.786747222222223,"{""type"":""Point"",""coordinates"":[8.786747222222223,53.047399999999996]}"
"EDQA","Breitenau","Bamberg","Germany","DEU",49.9205,10.9145,"{""type"":""Point"",""coordinates"":[10.9145,49.9205]}"
"EDUY","Sedlitzer See","Welzow","Germany","DEU",51.55777777777777,14.105,"{""type"":""Point"",""coordinates"":[14.105,51.55777777777777]}"
"EDDV","Hannover","Hannover","Germany","DEU",52.460213888888894,9.683522222222223,"{""type"":""Point"",""coordinates"":[9.683522222222223,52.460213888888894]}"
"EDBR","Rothenburg/Gorlitz","Rothenburg/Gorlitz","Germany","DEU",51.363166666666665,14.95,"{""type"":""Point"",""coordinates"":[14.95,51.363166666666665]}"
"EDHA","Ahlhorn","Ahlhorn","Germany","DEU",52.88883333333333,8.232833333333334,"{""type"":""Point"",""coordinates"":[8.232833333333334,52.88883333333333]}"
"EDGB","Breitscheid","Breitscheid","Germany","DEU",50.677166666666665,8.170333333333332,"{""type"":""Point"",""coordinates"":[8.170333333333332,50.677166666666665]}"
"EDQY","Steinrucken","Coburg","Germany","DEU",50.23016666666667,10.995833333333332,"{""type"":""Point"",""coordinates"":[10.995833333333332,50.23016666666667]}"
"EDDS","Stuttgart","Stuttgart","Germany","DEU",48.689877777777774,9.221963888888888,"{""type"":""Point"",""coordinates"":[9.221963888888888,48.689877777777774]}"
"EDGZ","Weinheim/Bergstrasse","Weinheim/Bergstrasse","Germany","DEU",49.5675,8.611166666666666,"{""type"":""Point"",""coordinates"":[8.611166666666666,49.5675]}"
"EDXP","Harle","Harle","Germany","DEU",53.706944444444446,7.8213888888888885,"{""type"":""Point"",""coordinates"":[7.8213888888888885,53.706944444444446]}"
"EDQX","Hetzleser Berg","Hetzleser Berg","Germany","DEU",49.64222222222222,11.161666666666667,"{""type"":""Point"",""coordinates"":[11.161666666666667,49.64222222222222]}"
"EDDP","Leipzig-Halle","Leipzig-Halle","Germany","DEU",51.423991666666666,12.236383333333333,"{""type"":""Point"",""coordinates"":[12.236383333333333,51.423991666666666]}"
"EDLY","Hoxfeld","Borken","Germany","DEU",51.85333333333333,6.8148333333333335,"{""type"":""Point"",""coordinates"":[6.8148333333333335,51.85333333333333]}"
"EDSR","Stahringen","Radolfzell","Germany","DEU",47.80277777777778,8.979722222222222,"{""type"":""Point"",""coordinates"":[8.979722222222222,47.80277777777778]}"
"EDDN","Nurnberg","Nurnberg","Germany","DEU",49.4987,11.078008333333333,"{""type"":""Point"",""coordinates"":[11.078008333333333,49.4987]}"
"EDDK","Cologne-Bonn","Cologne-Bonn","Germany","DEU",50.86591666666667,7.142744444444445,"{""type"":""Point"",""coordinates"":[7.142744444444445,50.86591666666667]}"
"EDKM","Schuren","Meschede","Germany","DEU",51.30233333333333,8.237333333333332,"{""type"":""Point"",""coordinates"":[8.237333333333332,51.30233333333333]}"
"EDBO","Oehna","Oehna","Germany","DEU",51.899,13.055833333333334,"{""type"":""Point"",""coordinates"":[13.055833333333334,51.899]}"
"EDDF","Frankfurt/Main","Frankfurt/Main","Germany","DEU",50.03330555555556,8.570455555555556,"{""type"":""Point"",""coordinates"":[8.570455555555556,50.03330555555556]}"
"EDFV","Worms","Worms","Germany","DEU",49.60638888888889,8.366666666666667,"{""type"":""Point"",""coordinates"":[8.366666666666667,49.60638888888889]}"
"EDFX","Hockenheim","Hockenheim","Germany","DEU",49.32533333333334,8.528500000000001,"{""type"":""Point"",""coordinates"":[8.528500000000001,49.32533333333334]}"
"EDOK","Groschwitz","Rudolstadt","Germany","DEU",50.73277777777778,11.23611111111111,"{""type"":""Point"",""coordinates"":[11.23611111111111,50.73277777777778]}"
"EDBL","Laucha","Laucha","Germany","DEU",51.24611111111111,11.693055555555556,"{""type"":""Point"",""coordinates"":[11.693055555555556,51.24611111111111]}"
"EDDE","Erfurt-Weimar","Erfurt-Weimar","Germany","DEU",50.97981111111111,10.958105555555555,"{""type"":""Point"",""coordinates"":[10.958105555555555,50.97981111111111]}"
"EDLF","Niershorst","Grefrath","Germany","DEU",51.334,6.359333333333333,"{""type"":""Point"",""coordinates"":[6.359333333333333,51.334]}"
"EDQD","Bayreuth","Bayreuth","Germany","DEU",49.98442777777778,11.638569444444444,"{""type"":""Point"",""coordinates"":[11.638569444444444,49.98442777777778]}"
"EDPM","Donzdorf","Donzdorf","Germany","DEU",48.67805555555555,9.843611111111112,"{""type"":""Point"",""coordinates"":[9.843611111111112,48.67805555555555]}"
"ED01","Locktow","Locktow","Germany","DEU",52.1165,12.709499999999998,"{""type"":""Point"",""coordinates"":[12.709499999999998,52.1165]}"
"EDAX","Muritz Airpark","Muritz Airpark","Germany","DEU",53.305166666666665,12.752166666666668,"{""type"":""Point"",""coordinates"":[12.752166666666668,53.305166666666665]}"
"EDCS","Saarmund","Saarmund","Germany","DEU",52.30916666666666,13.100555555555555,"{""type"":""Point"",""coordinates"":[13.100555555555555,52.30916666666666]}"
"EDAC","Leipzig-Altenburg","Leipzig-Altenburg","Germany","DEU",50.98181666666667,12.506361111111111,"{""type"":""Point"",""coordinates"":[12.506361111111111,50.98181666666667]}"
"EDCQ","Aschersleben","Aschersleben","Germany","DEU",51.76533333333333,11.4985,"{""type"":""Point"",""coordinates"":[11.4985,51.76533333333333]}"
"EDCV","Pasewalk","Pasewalk","Germany","DEU",53.50555555555555,13.948333333333334,"{""type"":""Point"",""coordinates"":[13.948333333333334,53.50555555555555]}"
"EDOH","Langhennersdorf","Langhennersdorf","Germany","DEU",50.94833333333333,13.261666666666667,"{""type"":""Point"",""coordinates"":[13.261666666666667,50.94833333333333]}"
"EDBJ","Schongleina","Jena","Germany","DEU",50.91555555555556,11.714166666666666,"{""type"":""Point"",""coordinates"":[11.714166666666666,50.91555555555556]}"
"EDAJ","Leumnitz","Gera","Germany","DEU",50.88066666666667,12.137333333333332,"{""type"":""Point"",""coordinates"":[12.137333333333332,50.88066666666667]}"
"EDQN","Neustadt/Aisch","Neustadt/Aisch","Germany","DEU",49.587833333333336,10.577666666666666,"{""type"":""Point"",""coordinates"":[10.577666666666666,49.587833333333336]}"
"EDCY","Welzow","Welzow","Germany","DEU",51.577000000000005,14.136999999999999,"{""type"":""Point"",""coordinates"":[14.136999999999999,51.577000000000005]}"
"EDTU","Saulgau","Saulgau","Germany","DEU",48.029444444444444,9.507222222222222,"{""type"":""Point"",""coordinates"":[9.507222222222222,48.029444444444444]}"
"EDPH","Schwabach-Buchenbach","Schwabach-Buchenbach","Germany","DEU",49.26866666666667,11.0095,"{""type"":""Point"",""coordinates"":[11.0095,49.26866666666667]}"
"EDAE","Eisenhuttenstadt","Eisenhuttenstadt","Germany","DEU",52.197222222222216,14.585555555555556,"{""type"":""Point"",""coordinates"":[14.585555555555556,52.197222222222216]}"
"EDWP","Wiefelstede/Conneforde","Wiefelstede/Conneforde","Germany","DEU",53.32138888888889,8.073611111111111,"{""type"":""Point"",""coordinates"":[8.073611111111111,53.32138888888889]}"
"EDFN","Marburg-Schonstadt","Marburg-Schonstadt","Germany","DEU",50.8745,8.815000000000001,"{""type"":""Point"",""coordinates"":[8.815000000000001,50.8745]}"
"EDMJ","Jesenwang","Jesenwang","Germany","DEU",48.17444444444444,11.125,"{""type"":""Point"",""coordinates"":[11.125,48.17444444444444]}"
"EDPT","Gerstetten","Gerstetten","Germany","DEU",48.62111111111111,10.061111111111112,"{""type"":""Point"",""coordinates"":[10.061111111111112,48.62111111111111]}"
"EDOQ","Oschatz","Oschatz","Germany","DEU",51.29694444444444,13.078055555555554,"{""type"":""Point"",""coordinates"":[13.078055555555554,51.29694444444444]}"
"EDCJ","Jahnsdorf","Chemnitz","Germany","DEU",50.74733333333334,12.837333333333333,"{""type"":""Point"",""coordinates"":[12.837333333333333,50.74733333333334]}"
"EDMQ","Genderkingen","Donauworth","Germany","DEU",48.70277777777778,10.851111111111111,"{""type"":""Point"",""coordinates"":[10.851111111111111,48.70277777777778]}"
"EDFG","Gelnhausen","Gelnhausen","Germany","DEU",50.197222222222216,9.17,"{""type"":""Point"",""coordinates"":[9.17,50.197222222222216]}"
"EDCO","Obermehler/Schlotheim","Obermehler/Schlotheim","Germany","DEU",51.26777777777777,10.634722222222221,"{""type"":""Point"",""coordinates"":[10.634722222222221,51.26777777777777]}"
"EDNV","Vogtareuth","Vogtareuth","Germany","DEU",47.946,12.204666666666666,"{""type"":""Point"",""coordinates"":[12.204666666666666,47.946]}"
"EDLB","Borkenberge","Borkenberge","Germany","DEU",51.78033333333333,7.290333333333333,"{""type"":""Point"",""coordinates"":[7.290333333333333,51.78033333333333]}"
"EDHL","Blankensee","Lubeck","Germany","DEU",53.805366666666664,10.719222222222223,"{""type"":""Point"",""coordinates"":[10.719222222222223,53.805366666666664]}"
"EDKZ","Meinerzhagen","Meinerzhagen","Germany","DEU",51.101,7.599666666666667,"{""type"":""Point"",""coordinates"":[7.599666666666667,51.101]}"
"EDBN","Neubrandenburg","Neubrandenburg","Germany","DEU",53.60223611111111,13.306080555555557,"{""type"":""Point"",""coordinates"":[13.306080555555557,53.60223611111111]}"
"EDWC","Damme","Damme","Germany","DEU",52.487500000000004,8.186111111111112,"{""type"":""Point"",""coordinates"":[8.186111111111112,52.487500000000004]}"
"EDAN","Neustadt-Glewe","Neustadt-Glewe","Germany","DEU",53.361000000000004,11.615166666666667,"{""type"":""Point"",""coordinates"":[11.615166666666667,53.361000000000004]}"
"EDAR","Pratzschwitz","Pirna","Germany","DEU",50.97966666666667,13.9085,"{""type"":""Point"",""coordinates"":[13.9085,50.97966666666667]}"
"EDNL","Unterzeil","Leutkirch","Germany","DEU",47.85888888888889,10.014444444444445,"{""type"":""Point"",""coordinates"":[10.014444444444445,47.85888888888889]}"
"EDVM","Hildesheim","Hildesheim","Germany","DEU",52.17983333333333,9.945666666666668,"{""type"":""Point"",""coordinates"":[9.945666666666668,52.17983333333333]}"
"EDTQ","Pattonville","Pattonville","Germany","DEU",48.86388888888889,9.224166666666667,"{""type"":""Point"",""coordinates"":[9.224166666666667,48.86388888888889]}"
"EDSG","Grabenstetten","Grabenstetten","Germany","DEU",48.53616666666667,9.437,"{""type"":""Point"",""coordinates"":[9.437,48.53616666666667]}"
"EDKU","Finnentrop","Attendorn","Germany","DEU",51.14611111111111,7.936944444444444,"{""type"":""Point"",""coordinates"":[7.936944444444444,51.14611111111111]}"
"EDCD","Cottbus-Drewitz","Cottbus-Drewitz","Germany","DEU",51.889475,14.531986111111111,"{""type"":""Point"",""coordinates"":[14.531986111111111,51.889475]}"
"EDLH","Lippewiesen","Hamm","Germany","DEU",51.69,7.816666666666666,"{""type"":""Point"",""coordinates"":[7.816666666666666,51.69]}"
"EDSH","Heiningen","Backnang","Germany","DEU",48.91972222222222,9.455277777777777,"{""type"":""Point"",""coordinates"":[9.455277777777777,48.91972222222222]}"
"EDBM","Magdeburg/City","Magdeburg/City","Germany","DEU",52.073658333333334,11.626466666666667,"{""type"":""Point"",""coordinates"":[11.626466666666667,52.073658333333334]}"
"EDEQ","Muhlhausen","Muhlhausen","Germany","DEU",51.2145,10.5425,"{""type"":""Point"",""coordinates"":[10.5425,51.2145]}"
"EDAQ","Oppin","Halle","Germany","DEU",51.552166666666665,12.053833333333333,"{""type"":""Point"",""coordinates"":[12.053833333333333,51.552166666666665]}"
"EDBT","Allstedt","Allstedt","Germany","DEU",51.38055555555555,11.446666666666667,"{""type"":""Point"",""coordinates"":[11.446666666666667,51.38055555555555]}"
"EDSB","Karlsruhe/Baden-Baden","Karlsruhe/Baden-Baden","Germany","DEU",48.779352777777774,8.080499999999999,"{""type"":""Point"",""coordinates"":[8.080499999999999,48.779352777777774]}"
"EDEH","Herrenteich","Herrenteich","Germany","DEU",49.345,8.487777777777778,"{""type"":""Point"",""coordinates"":[8.487777777777778,49.345]}"
"EDAK","Grossenhain","Grossenhain","Germany","DEU",51.306999999999995,13.5555,"{""type"":""Point"",""coordinates"":[13.5555,51.306999999999995]}"
"EDGE","Eisenach-Kindel","Eisenach-Kindel","Germany","DEU",50.992222222222225,10.476111111111111,"{""type"":""Point"",""coordinates"":[10.476111111111111,50.992222222222225]}"
"EDQM","Hof-Plauen","Hof-Plauen","Germany","DEU",50.28883611111111,11.854919444444445,"{""type"":""Point"",""coordinates"":[11.854919444444445,50.28883611111111]}"
"EDXR","Schachtholm","Rendsburg","Germany","DEU",54.21816666666667,9.603333333333333,"{""type"":""Point"",""coordinates"":[9.603333333333333,54.21816666666667]}"
"EDFA","Anspach/Taunus","Anspach/Taunus","Germany","DEU",50.289,8.535166666666667,"{""type"":""Point"",""coordinates"":[8.535166666666667,50.289]}"
"EDBG","Burg","Burg","Germany","DEU",52.24166666666667,11.85611111111111,"{""type"":""Point"",""coordinates"":[11.85611111111111,52.24166666666667]}"
"EDBF","Ruppiner Land","Ruppiner Land","Germany","DEU",52.79277777777778,12.756388888888889,"{""type"":""Point"",""coordinates"":[12.756388888888889,52.79277777777778]}"
"EDXY","Wyk Auf Fohr","Wyk Auf Fohr","Germany","DEU",54.68533333333333,8.531833333333335,"{""type"":""Point"",""coordinates"":[8.531833333333335,54.68533333333333]}"
"EDAO","Nordhausen","Nordhausen","Germany","DEU",51.49305555555556,10.833333333333334,"{""type"":""Point"",""coordinates"":[10.833333333333334,51.49305555555556]}"
"EDAB","Bautzen","Bautzen","Germany","DEU",51.193530555555554,14.519747222222223,"{""type"":""Point"",""coordinates"":[14.519747222222223,51.193530555555554]}"
"EDTB","Oos","Baden","Germany","DEU",48.79194444444444,8.186666666666667,"{""type"":""Point"",""coordinates"":[8.186666666666667,48.79194444444444]}"
"EDAW","Roitzschjora","Roitzschjora","Germany","DEU",51.57683333333334,12.495833333333332,"{""type"":""Point"",""coordinates"":[12.495833333333332,51.57683333333334]}"
"EDOV","Stendal-Borstel","Stendal-Borstel","Germany","DEU",52.62883333333333,11.82,"{""type"":""Point"",""coordinates"":[11.82,52.62883333333333]}"
"EDAZ","Schonhagen","Schonhagen","Germany","DEU",52.20805555555556,13.15638888888889,"{""type"":""Point"",""coordinates"":[13.15638888888889,52.20805555555556]}"
"EDCL","Scharlibbe","Klietz","Germany","DEU",52.70944444444445,12.073333333333332,"{""type"":""Point"",""coordinates"":[12.073333333333332,52.70944444444445]}"
"EDWF","Papenburg","Leer","Germany","DEU",53.27194444444444,7.441944444444444,"{""type"":""Point"",""coordinates"":[7.441944444444444,53.27194444444444]}"
"EDKA","Merzbruck","Aachen","Germany","DEU",50.823,6.186333333333334,"{""type"":""Point"",""coordinates"":[6.186333333333334,50.823]}"
"EDRY","Speyer","Speyer","Germany","DEU",49.302166666666665,8.451666666666666,"{""type"":""Point"",""coordinates"":[8.451666666666666,49.302166666666665]}"
"EDFQ","Allendorf/Eder","Allendorf/Eder","Germany","DEU",51.03536944444444,8.680863888888888,"{""type"":""Point"",""coordinates"":[8.680863888888888,51.03536944444444]}"
"EDNT","Bubenheim","Treuchtlingen","Germany","DEU",48.996,10.884833333333333,"{""type"":""Point"",""coordinates"":[10.884833333333333,48.996]}"
"EDTF","Freiburg i. Br.","Freiburg i. Br.","Germany","DEU",48.0205,7.833666666666667,"{""type"":""Point"",""coordinates"":[7.833666666666667,48.0205]}"
"EDAI","Segeletz","Segeletz","Germany","DEU",52.82638888888889,12.541944444444445,"{""type"":""Point"",""coordinates"":[12.541944444444445,52.82638888888889]}"
"EDCM","Kamenz","Kamenz","Germany","DEU",51.29694444444444,14.127500000000001,"{""type"":""Point"",""coordinates"":[14.127500000000001,51.29694444444444]}"
"ETHA","Altenstadt","Altenstadt","Germany","DEU",47.83551666666667,10.871252777777778,"{""type"":""Point"",""coordinates"":[10.871252777777778,47.83551666666667]}"
"EDFC","Aschaffenburg","Aschaffenburg","Germany","DEU",49.93883333333333,9.0625,"{""type"":""Point"",""coordinates"":[9.0625,49.93883333333333]}"
"EDHM","Hartenholm","Hartenholm","Germany","DEU",53.915,10.0405,"{""type"":""Point"",""coordinates"":[10.0405,53.915]}"
"EDGW","Graner Berg","Wolfhagen","Germany","DEU",51.306999999999995,9.175333333333333,"{""type"":""Point"",""coordinates"":[9.175333333333333,51.306999999999995]}"