"airportCode","airportName","cityName","countryName","countryCode","latitude","longitude","geometry"
"EKVJ","Stauning","Stauning","Denmark","DNK",55.990122222222226,8.353905555555555,"{""type"":""Point"",""coordinates"":[8.353905555555555,55.990122222222226]}"
"EKVD","Vamdrup","Kolding","Denmark","DNK",55.43628333333333,9.330925,"{""type"":""Point"",""coordinates"":[9.330925,55.43628333333333]}"
"EKVB","Viborg","Viborg","Denmark","DNK",56.40995,9.409394444444445,"{""type"":""Point"",""coordinates"":[9.409394444444445,56.40995]}"
"EKSV","Skive","Skive","Denmark","DNK",56.55020833333333,9.172983333333333,"{""type"":""Point"",""coordinates"":[9.172983333333333,56.55020833333333]}"
"EKST","Tasinge","Sydfyn","Denmark","DNK",55.0165,10.563061111111113,"{""type"":""Point"",""coordinates"":[10.563061111111113,55.0165]}"
"EKTD","Tonder","Tonder","Denmark","DNK",54.929624999999994,8.840316666666666,"{""type"":""Point"",""coordinates"":[8.840316666666666,54.929624999999994]}"
"EK05","Ribehoj","Ribehoj","Denmark","DNK",55.43333333333333,8.916666666666666,"{""type"":""Point"",""coordinates"":[8.916666666666666,55.43333333333333]}"
"EKSN","Sindal","Sindal","Denmark","DNK",57.503525,10.229372222222223,"{""type"":""Point"",""coordinates"":[10.229372222222223,57.503525]}"
"EK11","Ejstrupholm","Ejstrupholm","Denmark","DNK",55.99111111111111,9.268055555555556,"{""type"":""Point"",""coordinates"":[9.268055555555556,55.99111111111111]}"
"EKSB","Sonderborg","Sonderborg","Denmark","DNK",54.96436666666667,9.791730555555555,"{""type"":""Point"",""coordinates"":[9.791730555555555,54.96436666666667]}"
"EKSL","Slaglille","Slaglille","Denmark","DNK",55.452222222222225,11.64472222222222,"{""type"":""Point"",""coordinates"":[11.64472222222222,55.452222222222225]}"
"EKHV","Haderslev","Haderslev","Denmark","DNK",55.30222222222222,9.5225,"{""type"":""Point"",""coordinates"":[9.5225,55.30222222222222]}"
"EKSA","Ottestrup","Saeby","Denmark","DNK",57.34666666666667,10.406944444444445,"{""type"":""Point"",""coordinates"":[10.406944444444445,57.34666666666667]}"
"EKLV","Lemvig","Lemvig","Denmark","DNK",56.50304722222222,8.311552777777779,"{""type"":""Point"",""coordinates"":[8.311552777777779,56.50304722222222]}"
"EKLS","Laeso","Laeso","Denmark","DNK",57.277227777777775,11.000083333333333,"{""type"":""Point"",""coordinates"":[11.000083333333333,57.277227777777775]}"
"EKYT","Aalborg","Aalborg","Denmark","DNK",57.09278888888889,9.849163888888889,"{""type"":""Point"",""coordinates"":[9.849163888888889,57.09278888888889]}"
"EKAB","Arnborg","Arnborg","Denmark","DNK",56.011944444444445,9.0125,"{""type"":""Point"",""coordinates"":[9.0125,56.011944444444445]}"
"EKKA","Karup AB","Karup","Denmark","DNK",56.29745833333333,9.124627777777778,"{""type"":""Point"",""coordinates"":[9.124627777777778,56.29745833333333]}"
"EKSS","Samso","Samso","Denmark","DNK",55.88986388888889,10.613752777777778,"{""type"":""Point"",""coordinates"":[10.613752777777778,55.88986388888889]}"
"EKHS","Hadsund","Hadsund","Denmark","DNK",56.75591111111111,10.228719444444444,"{""type"":""Point"",""coordinates"":[10.228719444444444,56.75591111111111]}"
"EKHK","NY Hagested","Holbaek","Denmark","DNK",55.73277777777778,11.602777777777778,"{""type"":""Point"",""coordinates"":[11.602777777777778,55.73277777777778]}"
"EKVH","Vesthimmerland","Vesthimmerland","Denmark","DNK",56.84702222222222,9.458538888888889,"{""type"":""Point"",""coordinates"":[9.458538888888889,56.84702222222222]}"
"EKPB","Krusa-Padborg","Krusa-Padborg","Denmark","DNK",54.870305555555554,9.27901388888889,"{""type"":""Point"",""coordinates"":[9.27901388888889,54.870305555555554]}"
"EKAE","Aero","Aero","Denmark","DNK",54.85259722222222,10.456402777777777,"{""type"":""Point"",""coordinates"":[10.456402777777777,54.85259722222222]}"
"EK47","Vallund","Olgod","Denmark","DNK",55.83277777777778,8.552777777777779,"{""type"":""Point"",""coordinates"":[8.552777777777779,55.83277777777778]}"
"EKGR","Grena","Grena","Denmark","DNK",56.442499999999995,10.930555555555555,"{""type"":""Point"",""coordinates"":[10.930555555555555,56.442499999999995]}"
"EK01","Klitgaard","Klitgaard","Denmark","DNK",57.11666666666667,10.316666666666666,"{""type"":""Point"",""coordinates"":[10.316666666666666,57.11666666666667]}"
"EK39","Skalmstrup","Skalmstrup","Denmark","DNK",56.5425,10.199444444444445,"{""type"":""Point"",""coordinates"":[10.199444444444445,56.5425]}"
"EKGL","Gorlose","Gorlose","Denmark","DNK",55.885555555555555,12.228055555555555,"{""type"":""Point"",""coordinates"":[12.228055555555555,55.885555555555555]}"
"EKRK","Roskilde","Copenhagen","Denmark","DNK",55.58556666666667,12.131427777777779,"{""type"":""Point"",""coordinates"":[12.131427777777779,55.58556666666667]}"
"EKSP","Vojens/Skrydstrup AB","Vojens/Skrydstrup","Denmark","DNK",55.22555277777778,9.263930555555556,"{""type"":""Point"",""coordinates"":[9.263930555555556,55.22555277777778]}"
"EKKO","Korsor","Korsor","Denmark","DNK",55.33694444444445,11.241666666666665,"{""type"":""Point"",""coordinates"":[11.241666666666665,55.33694444444445]}"
"EKHG","Herning","Herning","Denmark","DNK",56.18474722222222,9.04445,"{""type"":""Point"",""coordinates"":[9.04445,56.18474722222222]}"
"EK07","Torsbol","Torsbol","Denmark","DNK",54.907777777777774,9.475,"{""type"":""Point"",""coordinates"":[9.475,54.907777777777774]}"
"EKRS","Ringsted","Ringsted","Denmark","DNK",55.42585277777778,11.806822222222223,"{""type"":""Point"",""coordinates"":[11.806822222222223,55.42585277777778]}"
"EK50","Sonder Felding/Vest","Sonder Felding/Vest","Denmark","DNK",55.946666666666665,8.743333333333332,"{""type"":""Point"",""coordinates"":[8.743333333333332,55.946666666666665]}"
"EK51","Tim","Tim","Denmark","DNK",56.18694444444444,8.325,"{""type"":""Point"",""coordinates"":[8.325,56.18694444444444]}"
"EK13","Estruplund","Estruplund","Denmark","DNK",56.55777777777777,10.358333333333333,"{""type"":""Point"",""coordinates"":[10.358333333333333,56.55777777777777]}"
"EKFU","Fur","Fur","Denmark","DNK",56.824444444444445,8.98611111111111,"{""type"":""Point"",""coordinates"":[8.98611111111111,56.824444444444445]}"
"EKEB","Esbjerg","Esbjerg","Denmark","DNK",55.52594166666667,8.553402777777778,"{""type"":""Point"",""coordinates"":[8.553402777777778,55.52594166666667]}"
"EK24","Marthasminde","Marthasminde","Denmark","DNK",54.911944444444444,11.101388888888888,"{""type"":""Point"",""coordinates"":[11.101388888888888,54.911944444444444]}"
"EK21","Rosengarden","Kerteminde","Denmark","DNK",55.453611111111115,10.595833333333333,"{""type"":""Point"",""coordinates"":[10.595833333333333,55.453611111111115]}"
"EKCH","Kastrup","Copenhagen","Denmark","DNK",55.617916666666666,12.655972222222223,"{""type"":""Point"",""coordinates"":[12.655972222222223,55.617916666666666]}"
"EKSD","Spjald","Spjald","Denmark","DNK",56.10277777777778,8.514166666666666,"{""type"":""Point"",""coordinates"":[8.514166666666666,56.10277777777778]}"
"EKRD","Randers","Randers","Denmark","DNK",56.50666666666667,10.036388888888888,"{""type"":""Point"",""coordinates"":[10.036388888888888,56.50666666666667]}"
"EK32","Varde","Varde","Denmark","DNK",55.60777777777778,8.440277777777778,"{""type"":""Point"",""coordinates"":[8.440277777777778,55.60777777777778]}"
"EKBI","Billund","Billund","Denmark","DNK",55.740322222222225,9.151777777777777,"{""type"":""Point"",""coordinates"":[9.151777777777777,55.740322222222225]}"
"EKCR","Christianshede","Silkeborg","Denmark","DNK",56.105000000000004,9.392777777777777,"{""type"":""Point"",""coordinates"":[9.392777777777777,56.105000000000004]}"
"EK44","Ikast","Ikast","Denmark","DNK",56.136944444444445,9.193055555555556,"{""type"":""Point"",""coordinates"":[9.193055555555556,56.136944444444445]}"
"EKOD","Hans Christian Andersen","Odense","Denmark","DNK",55.47666388888889,10.330933333333332,"{""type"":""Point"",""coordinates"":[10.330933333333332,55.47666388888889]}"
"EK57","Frederikssund Syd","Frederikssund","Denmark","DNK",55.816111111111105,12.082222222222223,"{""type"":""Point"",""coordinates"":[12.082222222222223,55.816111111111105]}"
"EK52","Vester Aby","Vester Aby","Denmark","DNK",55.1,10.383333333333333,"{""type"":""Point"",""coordinates"":[10.383333333333333,55.1]}"
"EK45","Kettingskov","Kettingskov","Denmark","DNK",54.95,10,"{""type"":""Point"",""coordinates"":[10,54.95]}"
"EK12","Endelave Syd","Endelave Syd","Denmark","DNK",55.74916666666667,10.270555555555557,"{""type"":""Point"",""coordinates"":[10.270555555555557,55.74916666666667]}"
"EK37","Kastbjerg","Kastbjerg","Denmark","DNK",56.636944444444445,10.166666666666666,"{""type"":""Point"",""coordinates"":[10.166666666666666,56.636944444444445]}"
"EKRA","Rarup","Rarup","Denmark","DNK",55.77861111111111,9.93888888888889,"{""type"":""Point"",""coordinates"":[9.93888888888889,55.77861111111111]}"
"EK15","Frisenvaenge","Frisenvaenge","Denmark","DNK",55.11194444444445,10.36111111111111,"{""type"":""Point"",""coordinates"":[10.36111111111111,55.11194444444445]}"
"EK28","Rolfsted","Rolfsted","Denmark","DNK",55.325833333333335,10.581944444444444,"{""type"":""Point"",""coordinates"":[10.581944444444444,55.325833333333335]}"
"EK09","Bogense","Bogense","Denmark","DNK",55.5425,10.031944444444445,"{""type"":""Point"",""coordinates"":[10.031944444444445,55.5425]}"
"EKGO","Gorlev","Gorlev","Denmark","DNK",55.55277777777778,11.195277777777777,"{""type"":""Point"",""coordinates"":[11.195277777777777,55.55277777777778]}"
"EK27","Rodekro","Rodekro","Denmark","DNK",55.078611111111115,9.301388888888889,"{""type"":""Point"",""coordinates"":[9.301388888888889,55.078611111111115]}"
"EKBR","Braedstrup","Braedstrup","Denmark","DNK",55.94361111111111,9.653333333333334,"{""type"":""Point"",""coordinates"":[9.653333333333334,55.94361111111111]}"
"EKKL","Kalundborg","Kalundborg","Denmark","DNK",55.70003333333334,11.250061111111112,"{""type"":""Point"",""coordinates"":[11.250061111111112,55.70003333333334]}"
"EK23","Lindtorp","Lindtorp","Denmark","DNK",56.39666666666667,8.441944444444445,"{""type"":""Point"",""coordinates"":[8.441944444444445,56.39666666666667]}"
"EK16","Gesten","Gesten","Denmark","DNK",55.55083333333333,9.184722222222222,"{""type"":""Point"",""coordinates"":[9.184722222222222,55.55083333333333]}"
"EKKS","Kongsted","Kongsted","Denmark","DNK",55.25222222222222,12.062777777777779,"{""type"":""Point"",""coordinates"":[12.062777777777779,55.25222222222222]}"
"EKMB","Maribo","Lolland Falster","Denmark","DNK",54.69934444444444,11.440116666666666,"{""type"":""Point"",""coordinates"":[11.440116666666666,54.69934444444444]}"
"EK03","Bogsted","Hjorring","Denmark","DNK",57.45,10.083333333333334,"{""type"":""Point"",""coordinates"":[10.083333333333334,57.45]}"
"EKHM","Hammer","Hammer","Denmark","DNK",55.90694444444444,9.45361111111111,"{""type"":""Point"",""coordinates"":[9.45361111111111,55.90694444444444]}"
"EKNB","Nordborg","Nordborg","Denmark","DNK",55.075,9.75388888888889,"{""type"":""Point"",""coordinates"":[9.75388888888889,55.075]}"
"EKEL","Endelave","Endelave","Denmark","DNK",55.756388888888885,10.24861111111111,"{""type"":""Point"",""coordinates"":[10.24861111111111,55.756388888888885]}"
"EKFS","Vojstrup","Vojstrup","Denmark","DNK",55.24777777777778,10.204166666666666,"{""type"":""Point"",""coordinates"":[10.204166666666666,55.24777777777778]}"
"EKNM","Morso","Morso","Denmark","DNK",56.82445833333334,8.786366666666666,"{""type"":""Point"",""coordinates"":[8.786366666666666,56.82445833333334]}"
"EKBH","Bolhede","Bolhede","Denmark","DNK",55.6325,8.754166666666666,"{""type"":""Point"",""coordinates"":[8.754166666666666,55.6325]}"
"EKGH","Gronholt","Gronholt","Denmark","DNK",55.939722222222215,12.381944444444445,"{""type"":""Point"",""coordinates"":[12.381944444444445,55.939722222222215]}"
"EKAH","Aarhus","Aarhus","Denmark","DNK",56.300016666666664,10.619008333333333,"{""type"":""Point"",""coordinates"":[10.619008333333333,56.300016666666664]}"
"EK43","Orupgaard","Orupgaard","Denmark","DNK",54.77027777777778,11.947222222222223,"{""type"":""Point"",""coordinates"":[11.947222222222223,54.77027777777778]}"
"EKTS","Thisted","Thisted","Denmark","DNK",57.0688,8.705224999999999,"{""type"":""Point"",""coordinates"":[8.705224999999999,57.0688]}"
"EK14","Filskov","Filskov","Denmark","DNK",55.81333333333333,9.04861111111111,"{""type"":""Point"",""coordinates"":[9.04861111111111,55.81333333333333]}"
"EK04","Hundelev","Hundelev","Denmark","DNK",57.421388888888885,9.860277777777778,"{""type"":""Point"",""coordinates"":[9.860277777777778,57.421388888888885]}"
"EK55","Tollose","Tollose","Denmark","DNK",55.583333333333336,11.766666666666667,"{""type"":""Point"",""coordinates"":[11.766666666666667,55.583333333333336]}"
"EK56","Vadum","Vadum","Denmark","DNK",57.134166666666665,9.880555555555556,"{""type"":""Point"",""coordinates"":[9.880555555555556,57.134166666666665]}"
"EK33","Gronbaek Ans","Gronbaek Ans","Denmark","DNK",56.27055555555555,9.623333333333333,"{""type"":""Point"",""coordinates"":[9.623333333333333,56.27055555555555]}"
"EK02","Stagsted","Stagsted","Denmark","DNK",57.157777777777774,10.197222222222223,"{""type"":""Point"",""coordinates"":[10.197222222222223,57.157777777777774]}"
"EKRN","Ronne","Bornholm","Denmark","DNK",55.063266666666664,14.759558333333333,"{""type"":""Point"",""coordinates"":[14.759558333333333,55.063266666666664]}"
"EKAT","Anholt","Anholt","Denmark","DNK",56.69888888888889,11.555833333333334,"{""type"":""Point"",""coordinates"":[11.555833333333334,56.69888888888889]}"