"airportCode","airportName","cityName","countryName","countryCode","latitude","longitude","geometry"
"LEXJ","Seve Ballesteros-Santander","Santander","Spain","ESP",43.426944444444445,-3.82,"{""type"":""Point"",""coordinates"":[-3.82,43.426944444444445]}"
"LEVX","Vigo","Vigo","Spain","ESP",42.22916666666667,-8.627500000000001,"{""type"":""Point"",""coordinates"":[-8.627500000000001,42.22916666666667]}"
"LEVD","Villanubla","Valladolid","Spain","ESP",41.70611111111111,-4.851944444444444,"{""type"":""Point"",""coordinates"":[-4.851944444444444,41.70611111111111]}"
"LEVC","Manises","Valencia","Spain","ESP",39.489444444444445,-0.4816666666666667,"{""type"":""Point"",""coordinates"":[-0.4816666666666667,39.489444444444445]}"
"LETP","Santo Tome Del Puerto","Santo Tome Del Puerto","Spain","ESP",41.20416666666667,-3.5947222222222224,"{""type"":""Point"",""coordinates"":[-3.5947222222222224,41.20416666666667]}"
"LETL","Teruel","Teruel","Spain","ESP",40.411944444444444,-1.2175,"{""type"":""Point"",""coordinates"":[-1.2175,40.411944444444444]}"
"LETJ","Trebujena","Trebujena","Spain","ESP",36.86138888888889,-6.140555555555556,"{""type"":""Point"",""coordinates"":[-6.140555555555556,36.86138888888889]}"
"LESL","San Luis","San Luis","Spain","ESP",39.86222222222222,4.258333333333334,"{""type"":""Point"",""coordinates"":[4.258333333333334,39.86222222222222]}"
"LERT","Rota","Cadiz","Spain","ESP",36.64527777777778,-6.349444444444444,"{""type"":""Point"",""coordinates"":[-6.349444444444444,36.64527777777778]}"
"LEZL","Seville","Seville","Spain","ESP",37.418055555555554,-5.898888888888888,"{""type"":""Point"",""coordinates"":[-5.898888888888888,37.418055555555554]}"
"LEJR","Jerez","Jerez","Spain","ESP",36.74472222222222,-6.06,"{""type"":""Point"",""coordinates"":[-6.06,36.74472222222222]}"
"LERO","Rozas","Rozas","Spain","ESP",43.115833333333335,-7.4635,"{""type"":""Point"",""coordinates"":[-7.4635,43.115833333333335]}"
"LERS","Reus","Reus","Spain","ESP",41.1475,1.1672222222222224,"{""type"":""Point"",""coordinates"":[1.1672222222222224,41.1475]}"
"LEZG","Zaragoza","Zaragoza","Spain","ESP",41.66611111111111,-1.0416666666666667,"{""type"":""Point"",""coordinates"":[-1.0416666666666667,41.66611111111111]}"
"LERM","Robledillo de Mohernando","Robledillo de Mohernando","Spain","ESP",40.86527777777778,-3.247777777777778,"{""type"":""Point"",""coordinates"":[-3.247777777777778,40.86527777777778]}"
"LELC","San Javier","Murcia","Spain","ESP",37.775,-0.8125,"{""type"":""Point"",""coordinates"":[-0.8125,37.775]}"
"LERE","Requena","Requena","Spain","ESP",39.474722222222226,-1.0344444444444445,"{""type"":""Point"",""coordinates"":[-1.0344444444444445,39.474722222222226]}"
"LEHC","Pirineos","Huesca","Spain","ESP",42.08083333333334,-0.3233333333333333,"{""type"":""Point"",""coordinates"":[-0.3233333333333333,42.08083333333334]}"
"LEMT","Casarrubios del Monte","Casarrubios del Monte","Spain","ESP",40.235,-4.026388888888889,"{""type"":""Point"",""coordinates"":[-4.026388888888889,40.235]}"
"LEST","Santiago","Santiago","Spain","ESP",42.896388888888886,-8.415277777777778,"{""type"":""Point"",""coordinates"":[-8.415277777777778,42.896388888888886]}"
"LESU","La Seu d'Urgell","Andorra","Spain","ESP",42.346111111111114,1.4147222222222222,"{""type"":""Point"",""coordinates"":[1.4147222222222222,42.346111111111114]}"
"LEMO","Moron AB","Seville","Spain","ESP",37.175,-5.616111111111111,"{""type"":""Point"",""coordinates"":[-5.616111111111111,37.175]}"
"LEMH","Menorca","Menorca","Spain","ESP",39.862500000000004,4.2186111111111115,"{""type"":""Point"",""coordinates"":[4.2186111111111115,39.862500000000004]}"
"LEMG","Costa del Sol","Malaga","Spain","ESP",36.675,-4.4991666666666665,"{""type"":""Point"",""coordinates"":[-4.4991666666666665,36.675]}"
"LECD","La Cerdanya","La Cerdanya","Spain","ESP",42.388333333333335,1.8666666666666667,"{""type"":""Point"",""coordinates"":[1.8666666666666667,42.388333333333335]}"
"LEAX","Leoni Benabu","La Axarquia","Spain","ESP",36.80222222222222,-4.1369444444444445,"{""type"":""Point"",""coordinates"":[-4.1369444444444445,36.80222222222222]}"
"LERI","Alcantarilla AB","Murcia","Spain","ESP",37.952222222222225,-1.2308333333333334,"{""type"":""Point"",""coordinates"":[-1.2308333333333334,37.952222222222225]}"
"LEPP","Pamplona","Pamplona","Spain","ESP",42.769999999999996,-1.646388888888889,"{""type"":""Point"",""coordinates"":[-1.646388888888889,42.769999999999996]}"
"LEGR","Federico Garcia Lorca","Granada","Spain","ESP",37.18861111111111,-3.777222222222222,"{""type"":""Point"",""coordinates"":[-3.777222222222222,37.18861111111111]}"
"LEMD","Adolfo Suarez Madrid-Barajas","Madrid","Spain","ESP",40.47222222222222,-3.560833333333333,"{""type"":""Point"",""coordinates"":[-3.560833333333333,40.47222222222222]}"
"LEIB","Ibiza","Ibiza","Spain","ESP",38.87277777777778,1.3730555555555557,"{""type"":""Point"",""coordinates"":[1.3730555555555557,38.87277777777778]}"
"LECH","Castellon","Castellon","Spain","ESP",40.21416666666667,0.07361111111111111,"{""type"":""Point"",""coordinates"":[0.07361111111111111,40.21416666666667]}"
"LELL","Sabadell","Sabadell","Spain","ESP",41.520833333333336,2.105,"{""type"":""Point"",""coordinates"":[2.105,41.520833333333336]}"
"LERJ","Logrono","Logrono","Spain","ESP",42.46055555555556,-2.3205555555555555,"{""type"":""Point"",""coordinates"":[-2.3205555555555555,42.46055555555556]}"
"LESO","San Sebastian","San Sebastian","Spain","ESP",43.35638888888889,-1.7905555555555555,"{""type"":""Point"",""coordinates"":[-1.7905555555555555,43.35638888888889]}"
"LESA","Matacan","Salamanca","Spain","ESP",40.95194444444445,-5.501944444444445,"{""type"":""Point"",""coordinates"":[-5.501944444444445,40.95194444444445]}"
"LEGT","Getafe","Madrid","Spain","ESP",40.29416666666666,-3.7236111111111114,"{""type"":""Point"",""coordinates"":[-3.7236111111111114,40.29416666666666]}"
"LETO","Torrejon","Madrid","Spain","ESP",40.49666666666667,-3.4458333333333337,"{""type"":""Point"",""coordinates"":[-3.4458333333333337,40.49666666666667]}"
"LEOC","Ocana","Ocana","Spain","ESP",39.9375,-3.5033333333333334,"{""type"":""Point"",""coordinates"":[-3.5033333333333334,39.9375]}"
"LEPA","Palma De Mallorca","Palma De Mallorca","Spain","ESP",39.55166666666666,2.738888888888889,"{""type"":""Point"",""coordinates"":[2.738888888888889,39.55166666666666]}"
"LELN","Leon","Leon","Spain","ESP",42.58861111111111,-5.6561111111111115,"{""type"":""Point"",""coordinates"":[-5.6561111111111115,42.58861111111111]}"
"LEAS","Asturias","Asturias","Spain","ESP",43.56361111111111,-6.034722222222222,"{""type"":""Point"",""coordinates"":[-6.034722222222222,43.56361111111111]}"
"LEGE","Girona","Girona","Spain","ESP",41.90083333333333,2.7605555555555554,"{""type"":""Point"",""coordinates"":[2.7605555555555554,41.90083333333333]}"
"LECI","Los Pirineos","Santa Cilia","Spain","ESP",42.56944444444445,-0.7227777777777777,"{""type"":""Point"",""coordinates"":[-0.7227777777777777,42.56944444444445]}"
"LEGA","Armilla AB","Granada","Spain","ESP",37.13333333333333,-3.6358333333333333,"{""type"":""Point"",""coordinates"":[-3.6358333333333333,37.13333333333333]}"
"LEDA","Alguaire","Lleida","Spain","ESP",41.72805555555556,0.5352777777777777,"{""type"":""Point"",""coordinates"":[0.5352777777777777,41.72805555555556]}"
"LEAB","Albacete","Albacete","Spain","ESP",38.948611111111106,-1.8633333333333335,"{""type"":""Point"",""coordinates"":[-1.8633333333333335,38.948611111111106]}"
"LECU","Cuatro Vientos","Madrid","Spain","ESP",40.370555555555555,-3.7852777777777775,"{""type"":""Point"",""coordinates"":[-3.7852777777777775,40.370555555555555]}"
"LECN","Pinar De Castellon","Castellon De La Plana","Spain","ESP",39.99861111111111,0.02638888888888889,"{""type"":""Point"",""coordinates"":[0.02638888888888889,39.99861111111111]}"
"LETF","Tomas Fernandez Espada","Villamartin","Spain","ESP",36.871944444444445,-5.64861111111111,"{""type"":""Point"",""coordinates"":[-5.64861111111111,36.871944444444445]}"
"LEAL","Alicante-Elche","Alicante","Spain","ESP",38.282222222222224,-0.5580555555555556,"{""type"":""Point"",""coordinates"":[-0.5580555555555556,38.282222222222224]}"
"LELO","Agoncillo","Logrono","Spain","ESP",42.45416666666667,-2.3208333333333333,"{""type"":""Point"",""coordinates"":[-2.3208333333333333,42.45416666666667]}"
"LEBZ","Talavera La Real","Badajoz","Spain","ESP",38.89138888888889,-6.8213888888888885,"{""type"":""Point"",""coordinates"":[-6.8213888888888885,38.89138888888889]}"
"LESB","Son Bonet","Mallorca","Spain","ESP",39.598888888888894,2.702777777777778,"{""type"":""Point"",""coordinates"":[2.702777777777778,39.598888888888894]}"
"LEBG","Burgos","Burgos","Spain","ESP",42.3575,-3.613611111111111,"{""type"":""Point"",""coordinates"":[-3.613611111111111,42.3575]}"
"LEMU","Muchamiel","Muchamiel","Spain","ESP",38.44,-0.4738888888888889,"{""type"":""Point"",""coordinates"":[-0.4738888888888889,38.44]}"
"LEIZ","Torre de Juan Abad","La Perdiz","Spain","ESP",38.51305555555555,-3.3644444444444446,"{""type"":""Point"",""coordinates"":[-3.3644444444444446,38.51305555555555]}"
"LECO","A Coruna","A Coruna","Spain","ESP",43.301944444444445,-8.377222222222223,"{""type"":""Point"",""coordinates"":[-8.377222222222223,43.301944444444445]}"
"LEBL","El Prat","Barcelona","Spain","ESP",41.29694444444444,2.0783333333333336,"{""type"":""Point"",""coordinates"":[2.0783333333333336,41.29694444444444]}"
"LEBB","Bilbao","Bilbao","Spain","ESP",43.301111111111105,-2.9105555555555553,"{""type"":""Point"",""coordinates"":[-2.9105555555555553,43.301111111111105]}"
"LEAM","Almeria","Almeria","Spain","ESP",36.84388888888889,-2.37,"{""type"":""Point"",""coordinates"":[-2.37,36.84388888888889]}"
"LEVT","Vitoria","Vitoria","Spain","ESP",42.882777777777775,-2.7244444444444444,"{""type"":""Point"",""coordinates"":[-2.7244444444444444,42.882777777777775]}"
"LEAP","Ampuriabrava","Ampuriabrava","Spain","ESP",42.26,3.1097222222222225,"{""type"":""Point"",""coordinates"":[3.1097222222222225,42.26]}"
"LEBA","Cordoba","Cordoba","Spain","ESP",37.841944444444444,-4.848888888888888,"{""type"":""Point"",""coordinates"":[-4.848888888888888,37.841944444444444]}"