"airportCode","airportName","cityName","countryName","countryCode","latitude","longitude","geometry"
"LFYV","Baons le Comte","Yvetot","France","FRA",49.63861111111111,0.7325,"{""type"":""Point"",""coordinates"":[0.7325,49.63861111111111]}"
"LFYS","Sainte Leocadie","Sainte Leocadie","France","FRA",42.447222222222216,2.0108333333333333,"{""type"":""Point"",""coordinates"":[2.0108333333333333,42.447222222222216]}"
"LFYR","Pruniers","Romorantin","France","FRA",47.32083333333334,1.6888888888888889,"{""type"":""Point"",""coordinates"":[1.6888888888888889,47.32083333333334]}"
"LFYG","Niergnies","Cambrai","France","FRA",50.1425,3.265,"{""type"":""Point"",""coordinates"":[3.265,50.1425]}"
"LFXU","Les Mureaux","Les Mureaux","France","FRA",48.99861111111111,1.9416666666666667,"{""type"":""Point"",""coordinates"":[1.9416666666666667,48.99861111111111]}"
"LFXQ","Coetquidan","Coetquidan","France","FRA",47.943888888888885,-2.1819444444444445,"{""type"":""Point"",""coordinates"":[-2.1819444444444445,47.943888888888885]}"
"LFXI","St Christol AB","St Christol","France","FRA",44.052499999999995,5.493888888888889,"{""type"":""Point"",""coordinates"":[5.493888888888889,44.052499999999995]}"
"LFXA","Amberieu AB","Amberieu","France","FRA",45.97972222222222,5.337777777777777,"{""type"":""Point"",""coordinates"":[5.337777777777777,45.97972222222222]}"
"LFTQ","Pouance","Chateaubriant","France","FRA",47.739444444444445,-1.1902777777777778,"{""type"":""Point"",""coordinates"":[-1.1902777777777778,47.739444444444445]}"
"LFTN","La Grand'Combe","La Grand'Combe","France","FRA",44.24305555555556,4.011111111111111,"{""type"":""Point"",""coordinates"":[4.011111111111111,44.24305555555556]}"
"LFTH","Le Palyvestre Navy","Hyeres","France","FRA",43.09722222222222,6.146111111111112,"{""type"":""Point"",""coordinates"":[6.146111111111112,43.09722222222222]}"
"LFSW","Plivot","Epernay","France","FRA",49.004444444444445,4.085277777777778,"{""type"":""Point"",""coordinates"":[4.085277777777778,49.004444444444445]}"
"LFSU","Langres-Rolampont","Langres-Rolampont","France","FRA",47.96416666666667,5.293611111111111,"{""type"":""Point"",""coordinates"":[5.293611111111111,47.96416666666667]}"
"LFST","Entzheim","Strasbourg","France","FRA",48.54194444444444,7.634444444444444,"{""type"":""Point"",""coordinates"":[7.634444444444444,48.54194444444444]}"
"LFSS","Saint Sulpice Des Landes","Saint Sulpice Des Landes","France","FRA",47.791666666666664,-1.6436111111111111,"{""type"":""Point"",""coordinates"":[-1.6436111111111111,47.791666666666664]}"
"LFSP","Pontarlier","Pontarlier","France","FRA",46.90833333333333,6.329166666666667,"{""type"":""Point"",""coordinates"":[6.329166666666667,46.90833333333333]}"
"LFSM","Courcelles","Montbeliard","France","FRA",47.486666666666665,6.791388888888889,"{""type"":""Point"",""coordinates"":[6.791388888888889,47.486666666666665]}"
"LFSL","Souillac","Brive","France","FRA",45.03972222222222,1.4855555555555555,"{""type"":""Point"",""coordinates"":[1.4855555555555555,45.03972222222222]}"
"LFSI","Robinson AB","St Dizier","France","FRA",48.63361111111111,4.908055555555556,"{""type"":""Point"",""coordinates"":[4.908055555555556,48.63361111111111]}"
"LFSG","Mirecourt","Epinal","France","FRA",48.325,6.066666666666666,"{""type"":""Point"",""coordinates"":[6.066666666666666,48.325]}"
"LFSE","Dogneville","Epinal","France","FRA",48.21138888888889,6.448333333333333,"{""type"":""Point"",""coordinates"":[6.448333333333333,48.21138888888889]}"
"LFSD","Longvic","Dijon","France","FRA",47.26583333333333,5.095,"{""type"":""Point"",""coordinates"":[5.095,47.26583333333333]}"
"LFSB","Basle-Mulhouse","Basle-Mulhouse","France","FRA",47.59,7.529166666666667,"{""type"":""Point"",""coordinates"":[7.529166666666667,47.59]}"
"LFZZ","Airbus Trng","Airbus","France","FRA",46.4065,4.021083333333333,"{""type"":""Point"",""coordinates"":[4.021083333333333,46.4065]}"
"LFSO","Ochey AB","Nancy","France","FRA",48.58318611111111,5.954525,"{""type"":""Point"",""coordinates"":[5.954525,48.58318611111111]}"
"LFSA","Thise","Besancon","France","FRA",47.27361111111111,6.083055555555555,"{""type"":""Point"",""coordinates"":[6.083055555555555,47.27361111111111]}"
"LFRW","Le Val St Pere","Avranches","France","FRA",48.66083333333333,-1.4058333333333333,"{""type"":""Point"",""coordinates"":[-1.4058333333333333,48.66083333333333]}"
"LFRU","Ploujean","Morlaix","France","FRA",48.600833333333334,-3.8166666666666664,"{""type"":""Point"",""coordinates"":[-3.8166666666666664,48.600833333333334]}"
"LFRT","Armor","St Brieuc","France","FRA",48.5375,-2.856666666666667,"{""type"":""Point"",""coordinates"":[-2.856666666666667,48.5375]}"
"LFRS","Nantes/Atlantique","Nantes/Atlantique","France","FRA",47.15694444444444,-1.607777777777778,"{""type"":""Point"",""coordinates"":[-1.607777777777778,47.15694444444444]}"
"LFRL","Poulmic Navy","Lanveoc","France","FRA",48.2825,-4.443611111111111,"{""type"":""Point"",""coordinates"":[-4.443611111111111,48.2825]}"
"LFRJ","Landivisiau Navy","Landivisiau","France","FRA",48.53025833333333,-4.151641666666667,"{""type"":""Point"",""coordinates"":[-4.151641666666667,48.53025833333333]}"
"LFRI","Les Ajoncs","La Roche-Sur-Yon","France","FRA",46.7025,-1.3816666666666666,"{""type"":""Point"",""coordinates"":[-1.3816666666666666,46.7025]}"
"LFAK","Les Moeres","Dunkerque","France","FRA",51.04055555555556,2.5502777777777776,"{""type"":""Point"",""coordinates"":[2.5502777777777776,51.04055555555556]}"
"LFRH","Lann-Bihoue","Lorient","France","FRA",47.760555555555555,-3.4400000000000004,"{""type"":""Point"",""coordinates"":[-3.4400000000000004,47.760555555555555]}"
"LFIT","Bourg-St Bernard","Toulouse","France","FRA",43.611111111111114,1.7241666666666668,"{""type"":""Point"",""coordinates"":[1.7241666666666668,43.611111111111114]}"
"LFRG","Normandie","Deauville","France","FRA",49.36333333333334,0.16,"{""type"":""Point"",""coordinates"":[0.16,49.36333333333334]}"
"LFBY","Seyresse","Dax","France","FRA",43.689166666666665,-1.0688888888888888,"{""type"":""Point"",""coordinates"":[-1.0688888888888888,43.689166666666665]}"
"LFHP","Loudes","Le Puy","France","FRA",45.07972222222222,3.763333333333333,"{""type"":""Point"",""coordinates"":[3.763333333333333,45.07972222222222]}"
"LFRF","Mont Saint Michel","Granville","France","FRA",48.882777777777775,-1.5638888888888889,"{""type"":""Point"",""coordinates"":[-1.5638888888888889,48.882777777777775]}"
"LFRE","La Baule-Escoublac","La Baule-Escoublac","France","FRA",47.288333333333334,-2.3469444444444445,"{""type"":""Point"",""coordinates"":[-2.3469444444444445,47.288333333333334]}"
"LFSH","Haguenau","Haguenau","France","FRA",48.79694444444444,7.819166666666667,"{""type"":""Point"",""coordinates"":[7.819166666666667,48.79694444444444]}"
"LFQZ","Gueblange","Dieuze","France","FRA",48.77444444444444,6.714166666666667,"{""type"":""Point"",""coordinates"":[6.714166666666667,48.77444444444444]}"
"LFQW","Frotey","Vesoul","France","FRA",47.63861111111111,6.204166666666667,"{""type"":""Point"",""coordinates"":[6.204166666666667,47.63861111111111]}"
"LFNL","St Martin De Londres","St Martin De Londres","France","FRA",43.80027777777777,3.7816666666666667,"{""type"":""Point"",""coordinates"":[3.7816666666666667,43.80027777777777]}"
"LFQV","Charleville-Mezieres","Charleville-Mezieres","France","FRA",49.785,4.642777777777777,"{""type"":""Point"",""coordinates"":[4.642777777777777,49.785]}"
"LFKL","Brindas","Lyon","France","FRA",45.71055555555556,4.696666666666667,"{""type"":""Point"",""coordinates"":[4.696666666666667,45.71055555555556]}"
"LFRK","Carpiquet","Caen","France","FRA",49.17333333333333,-0.45,"{""type"":""Point"",""coordinates"":[-0.45,49.17333333333333]}"
"LFQT","Calonne","Merville","France","FRA",50.61666666666667,2.64,"{""type"":""Point"",""coordinates"":[2.64,50.61666666666667]}"
"LFQS","Vitry En Artois","Vitry En Artois","France","FRA",50.33833333333334,2.993333333333333,"{""type"":""Point"",""coordinates"":[2.993333333333333,50.33833333333334]}"
"LFQP","Bourscheid","Phalsbourg","France","FRA",48.76815277777778,7.205127777777778,"{""type"":""Point"",""coordinates"":[7.205127777777778,48.76815277777778]}"
"LFFH","Belleau","Chateau-Thierry","France","FRA",49.06666666666667,3.3555555555555556,"{""type"":""Point"",""coordinates"":[3.3555555555555556,49.06666666666667]}"
"LFOX","Mondesir","Etampes","France","FRA",48.38111111111111,2.073888888888889,"{""type"":""Point"",""coordinates"":[2.073888888888889,48.38111111111111]}"
"LFQL","Benifontaine","Lens","France","FRA",50.46638888888889,2.819722222222222,"{""type"":""Point"",""coordinates"":[2.819722222222222,50.46638888888889]}"
"LFRQ","Pluguffan","Quimper","France","FRA",47.975,-4.167777777777778,"{""type"":""Point"",""coordinates"":[-4.167777777777778,47.975]}"
"LFQK","Ecury-Sur-Coole","Chalons","France","FRA",48.90555555555555,4.352777777777778,"{""type"":""Point"",""coordinates"":[4.352777777777778,48.90555555555555]}"
"LFFT","Neufchateau","Neufchateau","France","FRA",48.361666666666665,5.720277777777778,"{""type"":""Point"",""coordinates"":[5.720277777777778,48.361666666666665]}"
"LFQF","Bellevue","Autun","France","FRA",46.971111111111114,4.261111111111111,"{""type"":""Point"",""coordinates"":[4.261111111111111,46.971111111111114]}"
"LFQC","Croismare","Luneville","France","FRA",48.593611111111116,6.542222222222222,"{""type"":""Point"",""coordinates"":[6.542222222222222,48.593611111111116]}"
"LFMI","Le Tube","Istres","France","FRA",43.522394444444444,4.924236111111111,"{""type"":""Point"",""coordinates"":[4.924236111111111,43.522394444444444]}"
"LFLJ","Courchevel","Courchevel","France","FRA",45.395833333333336,6.6325,"{""type"":""Point"",""coordinates"":[6.6325,45.395833333333336]}"
"LFQB","Barberey","Troyes","France","FRA",48.32166666666667,4.016666666666667,"{""type"":""Point"",""coordinates"":[4.016666666666667,48.32166666666667]}"
"LFQA","Prunay","Reims","France","FRA",49.20861111111111,4.156666666666667,"{""type"":""Point"",""coordinates"":[4.156666666666667,49.20861111111111]}"
"LFPZ","St Cyr-L'Ecole","St Cyr-L'Ecole","France","FRA",48.81027777777778,2.0733333333333337,"{""type"":""Point"",""coordinates"":[2.0733333333333337,48.81027777777778]}"
"LFPX","Villepreux","Chavenay","France","FRA",48.842222222222226,1.9802777777777778,"{""type"":""Point"",""coordinates"":[1.9802777777777778,48.842222222222226]}"
"LFHM","Megeve","Megeve","France","FRA",45.82361111111111,6.649166666666666,"{""type"":""Point"",""coordinates"":[6.649166666666666,45.82361111111111]}"
"LFPF","Thiverval","Beynes","France","FRA",48.843611111111116,1.9088888888888889,"{""type"":""Point"",""coordinates"":[1.9088888888888889,48.843611111111116]}"
"LFPV","Velizy AB","Villacoublay","France","FRA",48.774166666666666,2.1913888888888886,"{""type"":""Point"",""coordinates"":[2.1913888888888886,48.774166666666666]}"
"LFPU","Episy","Moret","France","FRA",48.340833333333336,2.7977777777777777,"{""type"":""Point"",""coordinates"":[2.7977777777777777,48.340833333333336]}"
"LFPQ","Fontenay-Tresigny","Fontenay-Tresigny","France","FRA",48.70611111111111,2.9027777777777777,"{""type"":""Point"",""coordinates"":[2.9027777777777777,48.70611111111111]}"
"LFDA","Aire-Sur-L'Adour","Aire-Sur-L'Adour","France","FRA",43.70861111111111,-0.24722222222222223,"{""type"":""Point"",""coordinates"":[-0.24722222222222223,43.70861111111111]}"
"LFPN","Toussus-Le-Noble","Toussus-Le-Noble","France","FRA",48.749722222222225,2.111111111111111,"{""type"":""Point"",""coordinates"":[2.111111111111111,48.749722222222225]}"
"LFPH","Le Pin","Chelles","France","FRA",48.89666666666667,2.6061111111111113,"{""type"":""Point"",""coordinates"":[2.6061111111111113,48.89666666666667]}"
"LFKA","Albertville","Albertville","France","FRA",45.62638888888889,6.328888888888889,"{""type"":""Point"",""coordinates"":[6.328888888888889,45.62638888888889]}"
"LFLE","Challes-Les-Eaux","Chambery","France","FRA",45.56055555555555,5.975833333333333,"{""type"":""Point"",""coordinates"":[5.975833333333333,45.56055555555555]}"
"LFOT","Val De Loire AB","Tours","France","FRA",47.431841666666664,0.7231805555555556,"{""type"":""Point"",""coordinates"":[0.7231805555555556,47.431841666666664]}"
"LFMU","Vias","Beziers","France","FRA",43.32333333333334,3.3533333333333335,"{""type"":""Point"",""coordinates"":[3.3533333333333335,43.32333333333334]}"
"LFOS","Vittefleur","St Valery","France","FRA",49.83527777777778,0.6555555555555556,"{""type"":""Point"",""coordinates"":[0.6555555555555556,49.83527777777778]}"
"LFLI","Annemasse","Annemasse","France","FRA",46.19194444444444,6.2683333333333335,"{""type"":""Point"",""coordinates"":[6.2683333333333335,46.19194444444444]}"
"LFOR","Metropole","Chartres","France","FRA",48.45888888888889,1.5238888888888888,"{""type"":""Point"",""coordinates"":[1.5238888888888888,48.45888888888889]}"
"LFFU","Chateauneuf Sur Cher","Chateauneuf Sur Cher","France","FRA",46.87111111111111,2.3769444444444443,"{""type"":""Point"",""coordinates"":[2.3769444444444443,46.87111111111111]}"
"LFOO","Talmont","Les Sables D'Olonne","France","FRA",46.47555555555556,-1.725,"{""type"":""Point"",""coordinates"":[-1.725,46.47555555555556]}"
"LFON","Vernouillet","Dreux","France","FRA",48.70583333333334,1.361388888888889,"{""type"":""Point"",""coordinates"":[1.361388888888889,48.70583333333334]}"
"LFOM","Lessay","Lessay","France","FRA",49.20333333333333,-1.5047222222222223,"{""type"":""Point"",""coordinates"":[-1.5047222222222223,49.20333333333333]}"
"LFOJ","Bricy AB","Orleans","France","FRA",47.98777777777778,1.7605555555555557,"{""type"":""Point"",""coordinates"":[1.7605555555555557,47.98777777777778]}"
"LFOH","Octeville","Le Havre","France","FRA",49.53388888888889,0.08805555555555555,"{""type"":""Point"",""coordinates"":[0.08805555555555555,49.53388888888889]}"
"LFOG","Saint Paul","Flers","France","FRA",48.749722222222225,-0.5947222222222223,"{""type"":""Point"",""coordinates"":[-0.5947222222222223,48.749722222222225]}"
"LFMR","Saint Pons","Barcelonnette","France","FRA",44.38722222222222,6.609166666666666,"{""type"":""Point"",""coordinates"":[6.609166666666666,44.38722222222222]}"
"LFOF","Valframbert","Alencon","France","FRA",48.446666666666665,0.10833333333333334,"{""type"":""Point"",""coordinates"":[0.10833333333333334,48.446666666666665]}"
"LFOY","Saint Romain","Le Havre","France","FRA",49.54388888888889,0.3597222222222222,"{""type"":""Point"",""coordinates"":[0.3597222222222222,49.54388888888889]}"
"LFJT","Le Louroux","Tours","France","FRA",47.15,0.7127777777777777,"{""type"":""Point"",""coordinates"":[0.7127777777777777,47.15]}"
"LFOC","Chateaudun AB","Chateaudun","France","FRA",48.05777777777777,1.3794444444444445,"{""type"":""Point"",""coordinates"":[1.3794444444444445,48.05777777777777]}"
"LFAM","Berck Sur Mer","Berck Sur Mer","France","FRA",50.42305555555555,1.5919444444444446,"{""type"":""Point"",""coordinates"":[1.5919444444444446,50.42305555555555]}"
"LFQX","Juvancourt","Juvancourt","France","FRA",48.11388888888889,4.819444444444445,"{""type"":""Point"",""coordinates"":[4.819444444444445,48.11388888888889]}"
"LFMD","Mandelieu","Cannes","France","FRA",43.546388888888885,6.954166666666667,"{""type"":""Point"",""coordinates"":[6.954166666666667,43.546388888888885]}"
"LFDJ","Les Pujols","Pamiers","France","FRA",43.09055555555556,1.6958333333333333,"{""type"":""Point"",""coordinates"":[1.6958333333333333,43.09055555555556]}"
"LFNZ","Le Mazet De Romanin","Le Mazet De Romanin","France","FRA",43.770833333333336,4.894444444444444,"{""type"":""Point"",""coordinates"":[4.894444444444444,43.770833333333336]}"
"LFQN","Wizernes","St Omer","France","FRA",50.72944444444445,2.2358333333333333,"{""type"":""Point"",""coordinates"":[2.2358333333333333,50.72944444444445]}"
"LFNU","Uzes","Uzes","France","FRA",44.083333333333336,4.393888888888889,"{""type"":""Point"",""coordinates"":[4.393888888888889,44.083333333333336]}"
"LFLA","Branches","Auxerre","France","FRA",47.84638888888889,3.4966666666666666,"{""type"":""Point"",""coordinates"":[3.4966666666666666,47.84638888888889]}"
"LFNT","Pujaut","Avignon","France","FRA",43.99611111111111,4.754444444444444,"{""type"":""Point"",""coordinates"":[4.754444444444444,43.99611111111111]}"
"LFNS","Vaumeilh","Sisteron","France","FRA",44.28666666666666,5.929166666666667,"{""type"":""Point"",""coordinates"":[5.929166666666667,44.28666666666666]}"
"LFRD","Pleurtuit-St Malo","Dinard","France","FRA",48.58777777777778,-2.08,"{""type"":""Point"",""coordinates"":[-2.08,48.58777777777778]}"
"LFNO","Sainte-Enimie","Florac","France","FRA",44.285555555555554,3.465555555555556,"{""type"":""Point"",""coordinates"":[3.465555555555556,44.285555555555554]}"
"LFAP","Perthes","Rethel","France","FRA",49.48111111111111,4.363333333333333,"{""type"":""Point"",""coordinates"":[4.363333333333333,49.48111111111111]}"
"LFNN","Narbonne","Narbonne","France","FRA",43.19416666666666,3.0516666666666663,"{""type"":""Point"",""coordinates"":[3.0516666666666663,43.19416666666666]}"
"LFNH","Carpentras","Carpentras","France","FRA",44.0225,5.09,"{""type"":""Point"",""coordinates"":[5.09,44.0225]}"
"LFOE","Fauville AB","Evreux","France","FRA",49.02861111111111,1.2200000000000002,"{""type"":""Point"",""coordinates"":[1.2200000000000002,49.02861111111111]}"
"LFNG","Candillargues","Montpellier","France","FRA",43.61027777777778,4.070277777777777,"{""type"":""Point"",""coordinates"":[4.070277777777777,43.61027777777778]}"
"LFNF","Vinon","Vinon","France","FRA",43.73638888888889,5.783055555555555,"{""type"":""Point"",""coordinates"":[5.783055555555555,43.73638888888889]}"
"LFCM","Larzac","Millau","France","FRA",43.98916666666667,3.183333333333333,"{""type"":""Point"",""coordinates"":[3.183333333333333,43.98916666666667]}"
"LFOQ","Le Breuil","Blois","France","FRA",47.67972222222222,1.2058333333333333,"{""type"":""Point"",""coordinates"":[1.2058333333333333,47.67972222222222]}"
"LFNB","Brenoux","Mende","France","FRA",44.50416666666667,3.5275,"{""type"":""Point"",""coordinates"":[3.5275,44.50416666666667]}"
"LFOK","Vatry","Chalons","France","FRA",48.77333333333333,4.206111111111111,"{""type"":""Point"",""coordinates"":[4.206111111111111,48.77333333333333]}"
"LFDX","Montayral","Fumel","France","FRA",44.45916666666667,1.0072222222222222,"{""type"":""Point"",""coordinates"":[1.0072222222222222,44.45916666666667]}"
"LFNA","Tallard","Gap","France","FRA",44.45388888888889,6.036666666666666,"{""type"":""Point"",""coordinates"":[6.036666666666666,44.45388888888889]}"
"LFGM","Pouilloux","Montceau Les Mines","France","FRA",46.60333333333333,4.332777777777777,"{""type"":""Point"",""coordinates"":[4.332777777777777,46.60333333333333]}"
"LFMZ","Lezignan-Corbieres","Lezignan-Corbieres","France","FRA",43.175,2.7327777777777778,"{""type"":""Point"",""coordinates"":[2.7327777777777778,43.175]}"
"LFRM","Arnage","Le Mans","France","FRA",47.948611111111106,0.2016666666666667,"{""type"":""Point"",""coordinates"":[0.2016666666666667,47.948611111111106]}"
"LFPT","Cormeilles-En-Vexin","Pontoise","France","FRA",49.09666666666667,2.040833333333333,"{""type"":""Point"",""coordinates"":[2.040833333333333,49.09666666666667]}"
"LFMX","St Auban","Chateau-Arnoux","France","FRA",44.058611111111105,5.990833333333334,"{""type"":""Point"",""coordinates"":[5.990833333333334,44.058611111111105]}"
"LFMO","Caritat AB","Orange","France","FRA",44.14008888888889,4.868580555555556,"{""type"":""Point"",""coordinates"":[4.868580555555556,44.14008888888889]}"
"LFMN","Nice/Cote D'Azur","Nice/Cote D'Azur","France","FRA",43.665277777777774,7.215,"{""type"":""Point"",""coordinates"":[7.215,43.665277777777774]}"
"LFCU","Thalamy","Ussel","France","FRA",45.53583333333333,2.424722222222222,"{""type"":""Point"",""coordinates"":[2.424722222222222,45.53583333333333]}"
"LFML","Marseille/Provence","Marseille/Provence","France","FRA",43.43666666666666,5.215,"{""type"":""Point"",""coordinates"":[5.215,43.43666666666666]}"
"LFMK","Salvaza","Carcassonne","France","FRA",43.215833333333336,2.308611111111111,"{""type"":""Point"",""coordinates"":[2.308611111111111,43.215833333333336]}"
"LFMG","La Montagne Noire","La Montagne Noire","France","FRA",43.406388888888884,1.9891666666666667,"{""type"":""Point"",""coordinates"":[1.9891666666666667,43.406388888888884]}"
"LFMF","Fayence","Fayence","France","FRA",43.60805555555556,6.701666666666667,"{""type"":""Point"",""coordinates"":[6.701666666666667,43.60805555555556]}"
"LFMA","Les Milles","Aix","France","FRA",43.50527777777778,5.367222222222222,"{""type"":""Point"",""coordinates"":[5.367222222222222,43.50527777777778]}"
"LFQM","La Veze","Besancon","France","FRA",47.20527777777778,6.080555555555556,"{""type"":""Point"",""coordinates"":[6.080555555555556,47.20527777777778]}"
"LFLY","Bron","Lyon","France","FRA",45.72944444444445,4.938888888888889,"{""type"":""Point"",""coordinates"":[4.938888888888889,45.72944444444445]}"
"LFQY","Steinbourg","Saverne","France","FRA",48.75333333333333,7.425833333333333,"{""type"":""Point"",""coordinates"":[7.425833333333333,48.75333333333333]}"
"LFFW","St Georges","Montaigu","France","FRA",46.93222222222222,-1.3272222222222223,"{""type"":""Point"",""coordinates"":[-1.3272222222222223,46.93222222222222]}"
"LFRC","Maupertus","Cherbourg","France","FRA",49.65083333333333,-1.475277777777778,"{""type"":""Point"",""coordinates"":[-1.475277777777778,49.65083333333333]}"
"LFPP","Le Plessis-Belleville","Le Plessis-Belleville","France","FRA",49.10916666666667,2.7369444444444446,"{""type"":""Point"",""coordinates"":[2.7369444444444446,49.10916666666667]}"
"LFGP","Cheu","St Florentin","France","FRA",47.981388888888894,3.776944444444444,"{""type"":""Point"",""coordinates"":[3.776944444444444,47.981388888888894]}"
"LFFJ","Mussey","Joinville","France","FRA",48.38527777777778,5.1433333333333335,"{""type"":""Point"",""coordinates"":[5.1433333333333335,48.38527777777778]}"
"LFJL","Metz-Nancy/Lorraine","Metz-Nancy/Lorraine","France","FRA",48.97833333333333,6.246666666666667,"{""type"":""Point"",""coordinates"":[6.246666666666667,48.97833333333333]}"
"LFLW","Aurillac","Aurillac","France","FRA",44.8975,2.4166666666666665,"{""type"":""Point"",""coordinates"":[2.4166666666666665,44.8975]}"
"LFLX","Deols","Chateauroux","France","FRA",46.86027777777778,1.7211111111111113,"{""type"":""Point"",""coordinates"":[1.7211111111111113,46.86027777777778]}"
"LFLV","Charmeil","Vichy","France","FRA",46.17166666666667,3.404166666666667,"{""type"":""Point"",""coordinates"":[3.404166666666667,46.17166666666667]}"
"LFLP","Meythet","Annecy","France","FRA",45.93083333333333,6.106388888888889,"{""type"":""Point"",""coordinates"":[6.106388888888889,45.93083333333333]}"
"LFJE","Chalancon","La Motte","France","FRA",44.49666666666667,5.403333333333333,"{""type"":""Point"",""coordinates"":[5.403333333333333,44.49666666666667]}"
"LFGR","Doncourt Les Conflans","Doncourt Les Conflans","France","FRA",49.151944444444446,5.931388888888889,"{""type"":""Point"",""coordinates"":[5.931388888888889,49.151944444444446]}"
"LFAF","Chambry","Laon","France","FRA",49.594722222222224,3.6302777777777777,"{""type"":""Point"",""coordinates"":[3.6302777777777777,49.594722222222224]}"
"LFLH","Champforgeuil","Chalon","France","FRA",46.82833333333333,4.816944444444444,"{""type"":""Point"",""coordinates"":[4.816944444444444,46.82833333333333]}"
"LFFP","Pithiviers","Pithiviers","France","FRA",48.156388888888884,2.191111111111111,"{""type"":""Point"",""coordinates"":[2.191111111111111,48.156388888888884]}"
"LFLO","Renaison","Roanne","France","FRA",46.05271944444444,3.999613888888889,"{""type"":""Point"",""coordinates"":[3.999613888888889,46.05271944444444]}"
"LFLK","Arbent","Oyonnax","France","FRA",46.27861111111111,5.666388888888889,"{""type"":""Point"",""coordinates"":[5.666388888888889,46.27861111111111]}"
"LFNE","Eyguieres","Salon","France","FRA",43.6575,5.012777777777778,"{""type"":""Point"",""coordinates"":[5.012777777777778,43.6575]}"
"LFLD","Bourges","Bourges","France","FRA",47.06083333333333,2.37,"{""type"":""Point"",""coordinates"":[2.37,47.06083333333333]}"
"LFAD","Margny","Compiegne","France","FRA",49.433611111111105,2.804722222222222,"{""type"":""Point"",""coordinates"":[2.804722222222222,49.433611111111105]}"
"LFKB","Poretta","Bastia","France","FRA",42.55,9.48472222222222,"{""type"":""Point"",""coordinates"":[9.48472222222222,42.55]}"
"LFKC","St Catherine","Calvi","France","FRA",42.52444444444444,8.793055555555556,"{""type"":""Point"",""coordinates"":[8.793055555555556,42.52444444444444]}"
"LFEN","Sorigny","Tours","France","FRA",47.26638888888889,0.6991666666666667,"{""type"":""Point"",""coordinates"":[0.6991666666666667,47.26638888888889]}"
"LFOP","Rouen/Vallee De Seine","Rouen/Vallee De Seine","France","FRA",49.39083333333333,1.183888888888889,"{""type"":""Point"",""coordinates"":[1.183888888888889,49.39083333333333]}"
"LFLM","Charnay","Macon","France","FRA",46.295833333333334,4.795833333333333,"{""type"":""Point"",""coordinates"":[4.795833333333333,46.295833333333334]}"
"LFCX","Moissac","Castelsarrasin","France","FRA",44.08583333333333,1.1269444444444445,"{""type"":""Point"",""coordinates"":[1.1269444444444445,44.08583333333333]}"
"LFCQ","Montdragon","Graulhet","France","FRA",43.76861111111111,2.0077777777777777,"{""type"":""Point"",""coordinates"":[2.0077777777777777,43.76861111111111]}"
"LFEZ","Malzeville","Nancy","France","FRA",48.72361111111111,6.206388888888889,"{""type"":""Point"",""coordinates"":[6.206388888888889,48.72361111111111]}"
"LFLT","Domerat","Montlucon","France","FRA",46.35277777777778,2.5705555555555555,"{""type"":""Point"",""coordinates"":[2.5705555555555555,46.35277777777778]}"
"LFMT","Montpellier/Mediterranee","Montpellier/Mediterranee","France","FRA",43.583333333333336,3.961388888888889,"{""type"":""Point"",""coordinates"":[3.961388888888889,43.583333333333336]}"
"LFMP","Rivesaltes","Perpignan","France","FRA",42.740833333333335,2.8697222222222223,"{""type"":""Point"",""coordinates"":[2.8697222222222223,42.740833333333335]}"
"LFKY","Peyrieu","Belley","France","FRA",45.693888888888885,5.691666666666667,"{""type"":""Point"",""coordinates"":[5.691666666666667,45.693888888888885]}"
"LFOD","St Florent","Saumur","France","FRA",47.25666666666667,-0.11361111111111112,"{""type"":""Point"",""coordinates"":[-0.11361111111111112,47.25666666666667]}"
"LFRO","Lannion","Lannion","France","FRA",48.754444444444445,-3.4719444444444445,"{""type"":""Point"",""coordinates"":[-3.4719444444444445,48.754444444444445]}"
"LFGZ","Nuits-St Georges","Nuits-St Georges","France","FRA",47.14222222222222,4.968333333333334,"{""type"":""Point"",""coordinates"":[4.968333333333334,47.14222222222222]}"
"LFNV","Visan","Valreas","France","FRA",44.33583333333333,4.906944444444445,"{""type"":""Point"",""coordinates"":[4.906944444444445,44.33583333333333]}"
"LFDI","Artigues-De-Lussac","Libourne","France","FRA",44.985,-0.1361111111111111,"{""type"":""Point"",""coordinates"":[-0.1361111111111111,44.985]}"
"LFKX","Robert Merloz","Meribel","France","FRA",45.4075,6.5775,"{""type"":""Point"",""coordinates"":[6.5775,45.4075]}"
"LFEU","Les Hauts De Chee","Bar-Le-Duc","France","FRA",48.867777777777775,5.184166666666667,"{""type"":""Point"",""coordinates"":[5.184166666666667,48.867777777777775]}"
"LFME","Courbessac","Nimes","France","FRA",43.85305555555556,4.414444444444444,"{""type"":""Point"",""coordinates"":[4.414444444444444,43.85305555555556]}"
"LFEK","Le Fay","Issoudun","France","FRA",46.88861111111111,2.0413888888888887,"{""type"":""Point"",""coordinates"":[2.0413888888888887,46.88861111111111]}"
"LFKO","Propriano","Propriano","France","FRA",41.66027777777778,8.893888888888888,"{""type"":""Point"",""coordinates"":[8.893888888888888,41.66027777777778]}"
"LFGX","Crotenay","Champagnole","France","FRA",46.763888888888886,5.819722222222222,"{""type"":""Point"",""coordinates"":[5.819722222222222,46.763888888888886]}"
"LFKM","St Galmier","St Galmier","France","FRA",45.60638888888889,4.305,"{""type"":""Point"",""coordinates"":[4.305,45.60638888888889]}"
"LFAG","Peronne-St Quentin","Peronne-St Quentin","France","FRA",49.86888888888889,3.029722222222222,"{""type"":""Point"",""coordinates"":[3.029722222222222,49.86888888888889]}"
"LFKF","Figari/Sud Corse","Figari/Sud Corse","France","FRA",41.50222222222222,9.096666666666668,"{""type"":""Point"",""coordinates"":[9.096666666666668,41.50222222222222]}"
"LFKE","St Jean En Royans","St Jean En Royans","France","FRA",45.02638888888889,5.309166666666666,"{""type"":""Point"",""coordinates"":[5.309166666666666,45.02638888888889]}"
"LFPO","Orly","Paris","France","FRA",48.723333333333336,2.3794444444444447,"{""type"":""Point"",""coordinates"":[2.3794444444444447,48.723333333333336]}"
"LFJY","Chambley","Chambley","France","FRA",49.025555555555556,5.876111111111111,"{""type"":""Point"",""coordinates"":[5.876111111111111,49.025555555555556]}"
"LFGW","Sommedieue","Verdun","France","FRA",49.12222222222222,5.470833333333333,"{""type"":""Point"",""coordinates"":[5.470833333333333,49.12222222222222]}"
"LFOI","Abbeville","Abbeville","France","FRA",50.14222222222222,1.8311111111111111,"{""type"":""Point"",""coordinates"":[1.8311111111111111,50.14222222222222]}"
"LFJU","Levis","Lurcy","France","FRA",46.71222222222222,2.9447222222222225,"{""type"":""Point"",""coordinates"":[2.9447222222222225,46.71222222222222]}"
"LFMY","Salon AB","Salon","France","FRA",43.60290833333333,5.1081666666666665,"{""type"":""Point"",""coordinates"":[5.1081666666666665,43.60290833333333]}"
"LFCZ","Mimizan","Mimizan","France","FRA",44.145833333333336,-1.1647222222222222,"{""type"":""Point"",""coordinates"":[-1.1647222222222222,44.145833333333336]}"
"LFJS","Courmelles","Soissons","France","FRA",49.345,3.2830555555555554,"{""type"":""Point"",""coordinates"":[3.2830555555555554,49.345]}"
"LFJV","Lasclaveries","Lasclaveries","France","FRA",43.42527777777777,-0.28694444444444445,"{""type"":""Point"",""coordinates"":[-0.28694444444444445,43.42527777777777]}"
"LFJR","Marce","Angers","France","FRA",47.56027777777778,-0.31222222222222223,"{""type"":""Point"",""coordinates"":[-0.31222222222222223,47.56027777777778]}"
"LFSK","Vauclerc","Vitry Le Francois","France","FRA",48.702222222222225,4.683333333333334,"{""type"":""Point"",""coordinates"":[4.683333333333334,48.702222222222225]}"
"LFJI","Marennes","Marennes","France","FRA",45.823888888888895,-1.0772222222222223,"{""type"":""Point"",""coordinates"":[-1.0772222222222223,45.823888888888895]}"
"LFHT","Le Poyet","Ambert","France","FRA",45.51555555555556,3.745,"{""type"":""Point"",""coordinates"":[3.745,45.51555555555556]}"
"LFJD","Corlier","Corlier","France","FRA",46.03972222222222,5.496666666666667,"{""type"":""Point"",""coordinates"":[5.496666666666667,46.03972222222222]}"
"LFFX","Cuisery","Tournus","France","FRA",46.561388888888885,4.9752777777777775,"{""type"":""Point"",""coordinates"":[4.9752777777777775,46.561388888888885]}"
"LFDY","Yvrac","Bordeaux","France","FRA",44.87638888888889,-0.4816666666666667,"{""type"":""Point"",""coordinates"":[-0.4816666666666667,44.87638888888889]}"
"LFOL","Saint Michel","L'Aigle","France","FRA",48.75888888888889,0.6577777777777778,"{""type"":""Point"",""coordinates"":[0.6577777777777778,48.75888888888889]}"
"LFNX","La Tour-Sur-Orb","Bedarieux","France","FRA",43.63972222222222,3.144722222222222,"{""type"":""Point"",""coordinates"":[3.144722222222222,43.63972222222222]}"
"LFJB","Mauleon","Mauleon","France","FRA",46.903055555555554,-0.6975,"{""type"":""Point"",""coordinates"":[-0.6975,46.903055555555554]}"
"LFNR","La Fare","Berre","France","FRA",43.53666666666666,5.1775,"{""type"":""Point"",""coordinates"":[5.1775,43.53666666666666]}"
"LFIS","Les Deux Caps","St Inglevert","France","FRA",50.8825,1.7361111111111112,"{""type"":""Point"",""coordinates"":[1.7361111111111112,50.8825]}"
"LFIR","Montgey","Revel","France","FRA",43.48027777777778,1.978888888888889,"{""type"":""Point"",""coordinates"":[1.978888888888889,43.48027777777778]}"
"LFCN","Nogaro","Nogaro","France","FRA",43.76888888888889,-0.034722222222222224,"{""type"":""Point"",""coordinates"":[-0.034722222222222224,43.76888888888889]}"
"LFIL","Rion Des Landes","Rion Des Landes","France","FRA",43.91583333333333,-0.9491666666666667,"{""type"":""Point"",""coordinates"":[-0.9491666666666667,43.91583333333333]}"
"LFRP","Loyat","Ploermel","France","FRA",48.00194444444445,-2.3786111111111112,"{""type"":""Point"",""coordinates"":[-2.3786111111111112,48.00194444444445]}"
"LFIG","Cassagnes-Begonhes","Cassagnes-Begonhes","France","FRA",44.17833333333333,2.517777777777778,"{""type"":""Point"",""coordinates"":[2.517777777777778,44.17833333333333]}"
"LFOU","Le Pontreau","Cholet","France","FRA",47.081944444444446,-0.8772222222222222,"{""type"":""Point"",""coordinates"":[-0.8772222222222222,47.081944444444446]}"
"LFOB","Tille","Beauvais","France","FRA",49.45444444444445,2.112777777777778,"{""type"":""Point"",""coordinates"":[2.112777777777778,49.45444444444445]}"
"LFNC","Saint Crepin","Mont Dauphin","France","FRA",44.70055555555556,6.599166666666666,"{""type"":""Point"",""coordinates"":[6.599166666666666,44.70055555555556]}"
"LFSV","Pont St Vincent","Pont St Vincent","France","FRA",48.6,6.056388888888889,"{""type"":""Point"",""coordinates"":[6.056388888888889,48.6]}"
"LFIF","Belmont","St Affrique","France","FRA",43.82416666666667,2.7486111111111113,"{""type"":""Point"",""coordinates"":[2.7486111111111113,43.82416666666667]}"
"LFBO","Blagnac","Toulouse","France","FRA",43.635,1.3677777777777778,"{""type"":""Point"",""coordinates"":[1.3677777777777778,43.635]}"
"LFBZ","Bayonne-Anglet","Biarritz","France","FRA",43.468333333333334,-1.531111111111111,"{""type"":""Point"",""coordinates"":[-1.531111111111111,43.468333333333334]}"
"LFID","Valence-Sur-Baise","Condom","France","FRA",43.909166666666664,0.3861111111111111,"{""type"":""Point"",""coordinates"":[0.3861111111111111,43.909166666666664]}"
"LFQD","Roclincourt","Arras","France","FRA",50.323888888888895,2.8027777777777776,"{""type"":""Point"",""coordinates"":[2.8027777777777776,50.323888888888895]}"
"LFQJ","Elesmes","Maubeuge","France","FRA",50.30833333333333,4.03,"{""type"":""Point"",""coordinates"":[4.03,50.30833333333333]}"
"LFIB","Saint Pardoux","Belves","France","FRA",44.78138888888889,0.9574999999999999,"{""type"":""Point"",""coordinates"":[0.9574999999999999,44.78138888888889]}"
"LFAB","St Aubin","Dieppe","France","FRA",49.8825,1.0852777777777778,"{""type"":""Point"",""coordinates"":[1.0852777777777778,49.8825]}"
"LFMS","Cevennes","Ales","France","FRA",44.07277777777778,4.143055555555556,"{""type"":""Point"",""coordinates"":[4.143055555555556,44.07277777777778]}"
"LFHY","Montbeugny","Moulins","France","FRA",46.53444444444444,3.4216666666666664,"{""type"":""Point"",""coordinates"":[3.4216666666666664,46.53444444444444]}"
"LFLN","Saint Yan","Saint Yan","France","FRA",46.406388888888884,4.021111111111111,"{""type"":""Point"",""coordinates"":[4.021111111111111,46.406388888888884]}"
"LFMH","Boutheon","St Etienne","France","FRA",45.534166666666664,4.2972222222222225,"{""type"":""Point"",""coordinates"":[4.2972222222222225,45.534166666666664]}"
"LFHR","Beaumont","Brioude","France","FRA",45.323888888888895,3.3583333333333334,"{""type"":""Point"",""coordinates"":[3.3583333333333334,45.323888888888895]}"
"LFEA","Belle Ile","Belle Ile","France","FRA",47.32611111111112,-3.198888888888889,"{""type"":""Point"",""coordinates"":[-3.198888888888889,47.32611111111112]}"
"LFBR","L'Herm","Muret","France","FRA",43.44916666666666,1.263611111111111,"{""type"":""Point"",""coordinates"":[1.263611111111111,43.44916666666666]}"
"LFHI","Morestel","Morestel","France","FRA",45.68694444444444,5.452500000000001,"{""type"":""Point"",""coordinates"":[5.452500000000001,45.68694444444444]}"
"LFRB","Bretagne","Brest","France","FRA",48.447222222222216,-4.421666666666667,"{""type"":""Point"",""coordinates"":[-4.421666666666667,48.447222222222216]}"
"LFHQ","Coltines","St Flour","France","FRA",45.075,2.9925,"{""type"":""Point"",""coordinates"":[2.9925,45.075]}"
"LFHO","Ardeche Meridionale","Aubenas","France","FRA",44.53944444444444,4.371666666666666,"{""type"":""Point"",""coordinates"":[4.371666666666666,44.53944444444444]}"
"LFHL","Lesperon","Langogne","France","FRA",44.705555555555556,3.8872222222222224,"{""type"":""Point"",""coordinates"":[3.8872222222222224,44.705555555555556]}"
"LFKD","Sollieres Sardieres","Sollieres Sardieres","France","FRA",45.25388888888889,6.801111111111111,"{""type"":""Point"",""coordinates"":[6.801111111111111,45.25388888888889]}"
"LFHW","Villie-Morgon","Belleville","France","FRA",46.14111111111111,4.7138888888888895,"{""type"":""Point"",""coordinates"":[4.7138888888888895,46.14111111111111]}"
"LFBT","Lourdes-Pyrenees","Tarbes","France","FRA",43.18555555555555,-0.002777777777777778,"{""type"":""Point"",""coordinates"":[-0.002777777777777778,43.18555555555555]}"
"LFAO","Couterne","Bagnoles De L'Orne","France","FRA",48.54472222222222,-0.385,"{""type"":""Point"",""coordinates"":[-0.385,48.54472222222222]}"
"LFHH","Reventin","Vienne","France","FRA",45.46277777777778,4.8277777777777775,"{""type"":""Point"",""coordinates"":[4.8277777777777775,45.46277777777778]}"
"LFBM","Mont-De-Marsan","Mont-De-Marsan","France","FRA",43.91138888888889,-0.5094444444444445,"{""type"":""Point"",""coordinates"":[-0.5094444444444445,43.91138888888889]}"
"LFLQ","Ancone","Montelimar","France","FRA",44.58027777777778,4.739166666666667,"{""type"":""Point"",""coordinates"":[4.739166666666667,44.58027777777778]}"
"LFET","Til-Chatel","Til-Chatel","France","FRA",47.546388888888885,5.210833333333333,"{""type"":""Point"",""coordinates"":[5.210833333333333,47.546388888888885]}"
"LFAU","Vauville","Vauville","France","FRA",49.62277777777778,-1.83,"{""type"":""Point"",""coordinates"":[-1.83,49.62277777777778]}"
"LFKR","Saint Remy De Maurienne","Saint Remy De Maurienne","France","FRA",45.375,6.277777777777778,"{""type"":""Point"",""coordinates"":[6.277777777777778,45.375]}"
"LFDF","Sainte Foy La Grande","Sainte Foy La Grande","France","FRA",44.8525,0.17555555555555555,"{""type"":""Point"",""coordinates"":[0.17555555555555555,44.8525]}"
"LFEQ","Quiberon","Quiberon","France","FRA",47.481388888888894,-3.1016666666666666,"{""type"":""Point"",""coordinates"":[-3.1016666666666666,47.481388888888894]}"
"LFFE","Moisselles","Enghien","France","FRA",49.04555555555555,2.3519444444444444,"{""type"":""Point"",""coordinates"":[2.3519444444444444,49.04555555555555]}"
"LFHE","Saint Paul","Romans","France","FRA",45.06472222222222,5.101388888888889,"{""type"":""Point"",""coordinates"":[5.101388888888889,45.06472222222222]}"
"LFRN","St Jacques","Rennes","France","FRA",48.07194444444445,-1.7322222222222223,"{""type"":""Point"",""coordinates"":[-1.7322222222222223,48.07194444444445]}"
"LFHA","Le Broc","Issoire","France","FRA",45.513888888888886,3.266111111111111,"{""type"":""Point"",""coordinates"":[3.266111111111111,45.513888888888886]}"
"LFFL","Bailleau Armenonville","Bailleau Armenonville","France","FRA",48.514722222222225,1.638611111111111,"{""type"":""Point"",""coordinates"":[1.638611111111111,48.514722222222225]}"
"LFBU","Brie Champniers","Angouleme","France","FRA",45.72944444444445,0.21916666666666668,"{""type"":""Point"",""coordinates"":[0.21916666666666668,45.72944444444445]}"
"LFHJ","Corbas","Lyon","France","FRA",45.65277777777778,4.912222222222223,"{""type"":""Point"",""coordinates"":[4.912222222222223,45.65277777777778]}"
"LFFZ","St Remy","Sezanne","France","FRA",48.70944444444445,3.762777777777778,"{""type"":""Point"",""coordinates"":[3.762777777777778,48.70944444444445]}"
"LFGS","Villette","Longuyon","France","FRA",49.48361111111111,5.571944444444444,"{""type"":""Point"",""coordinates"":[5.571944444444444,49.48361111111111]}"
"LFLZ","Chambeon","Feurs","France","FRA",45.70666666666667,4.196944444444445,"{""type"":""Point"",""coordinates"":[4.196944444444445,45.70666666666667]}"
"LFMV","Caumont","Avignon","France","FRA",43.906666666666666,4.901944444444445,"{""type"":""Point"",""coordinates"":[4.901944444444445,43.906666666666666]}"
"LFEG","Argenton Sur Creuse","Argenton Sur Creuse","France","FRA",46.59583333333334,1.6011111111111112,"{""type"":""Point"",""coordinates"":[1.6011111111111112,46.59583333333334]}"
"LFQG","Fourchambault","Nevers","France","FRA",47.00361111111111,3.1108333333333333,"{""type"":""Point"",""coordinates"":[3.1108333333333333,47.00361111111111]}"
"LFLL","Saint Exupery","Lyon","France","FRA",45.72555555555556,5.0811111111111105,"{""type"":""Point"",""coordinates"":[5.0811111111111105,45.72555555555556]}"
"LFGO","Pont-Sur-Yonne","Pont-Sur-Yonne","France","FRA",48.28944444444444,3.248888888888889,"{""type"":""Point"",""coordinates"":[3.248888888888889,48.28944444444444]}"
"LFHU","L'Alpe D'Huez","L'Alpe D'Huez","France","FRA",45.087500000000006,6.083611111111111,"{""type"":""Point"",""coordinates"":[6.083611111111111,45.087500000000006]}"
"LFTW","Garons","Nimes","France","FRA",43.7575,4.416388888888889,"{""type"":""Point"",""coordinates"":[4.416388888888889,43.7575]}"
"LFCL","Lasbordes","Toulouse","France","FRA",43.58777777777778,1.4986111111111111,"{""type"":""Point"",""coordinates"":[1.4986111111111111,43.58777777777778]}"
"LFGQ","Semur En Auxois","Semur En Auxois","France","FRA",47.48111111111111,4.343055555555555,"{""type"":""Point"",""coordinates"":[4.343055555555555,47.48111111111111]}"
"LFGN","Paray le Monial","Paray le Monial","France","FRA",46.46666666666667,4.133055555555555,"{""type"":""Point"",""coordinates"":[4.133055555555555,46.46666666666667]}"
"LFTF","Pierrefeu Navy","Cuers","France","FRA",43.24758888888889,6.127294444444444,"{""type"":""Point"",""coordinates"":[6.127294444444444,43.24758888888889]}"
"LFKT","Corte","Corte","France","FRA",42.290277777777774,9.1925,"{""type"":""Point"",""coordinates"":[9.1925,42.290277777777774]}"
"LFBG","Chateaubernard","Cognac","France","FRA",45.658230555555555,-0.31756666666666666,"{""type"":""Point"",""coordinates"":[-0.31756666666666666,45.658230555555555]}"
"LFBX","Bassillac","Perigueux","France","FRA",45.197488888888884,0.8152166666666667,"{""type"":""Point"",""coordinates"":[0.8152166666666667,45.197488888888884]}"
"LFFN","Brienne-le-Chateau","Brienne-le-Chateau","France","FRA",48.42972222222222,4.482222222222222,"{""type"":""Point"",""coordinates"":[4.482222222222222,48.42972222222222]}"
"LFGK","Joigny","Joigny","France","FRA",47.99444444444445,3.390833333333333,"{""type"":""Point"",""coordinates"":[3.390833333333333,47.99444444444445]}"
"LFGJ","Tavaux","Dole","France","FRA",47.04277777777778,5.4350000000000005,"{""type"":""Point"",""coordinates"":[5.4350000000000005,47.04277777777778]}"
"LFCJ","Neulles","Jonzac","France","FRA",45.48305555555556,-0.4230555555555556,"{""type"":""Point"",""coordinates"":[-0.4230555555555556,45.48305555555556]}"
"LFGI","Darois","Dijon","France","FRA",47.38527777777778,4.946944444444445,"{""type"":""Point"",""coordinates"":[4.946944444444445,47.38527777777778]}"
"LFOZ","St Denis De L'Hotel","Orleans","France","FRA",47.8975,2.1641666666666666,"{""type"":""Point"",""coordinates"":[2.1641666666666666,47.8975]}"
"LFGH","Cosne Sur Loire","Cosne Sur Loire","France","FRA",47.36027777777778,2.918333333333333,"{""type"":""Point"",""coordinates"":[2.918333333333333,47.36027777777778]}"
"LFCB","Bagneres De Luchon","Bagneres De Luchon","France","FRA",42.800555555555555,0.601111111111111,"{""type"":""Point"",""coordinates"":[0.601111111111111,42.800555555555555]}"
"LFDN","Charente-Maritime","Rochefort","France","FRA",45.88944444444444,-0.9825,"{""type"":""Point"",""coordinates"":[-0.9825,45.88944444444444]}"
"LFGG","Chaux","Belfort","France","FRA",47.70111111111111,6.8308333333333335,"{""type"":""Point"",""coordinates"":[6.8308333333333335,47.70111111111111]}"
"LFBE","Roumaniere","Bergerac","France","FRA",44.824444444444445,0.5205555555555557,"{""type"":""Point"",""coordinates"":[0.5205555555555557,44.824444444444445]}"
"LFMC","Le Cannet Army","Le Luc","France","FRA",43.38467222222222,6.386919444444445,"{""type"":""Point"",""coordinates"":[6.386919444444445,43.38467222222222]}"
"LFHF","Ruoms","Ruoms","France","FRA",44.44472222222222,4.332777777777777,"{""type"":""Point"",""coordinates"":[4.332777777777777,44.44472222222222]}"
"LFRZ","Montoir","St Nazaire","France","FRA",47.31055555555555,-2.1566666666666667,"{""type"":""Point"",""coordinates"":[-2.1566666666666667,47.31055555555555]}"
"LFQU","Sarre-Union","Sarre-Union","France","FRA",48.950833333333335,7.076388888888888,"{""type"":""Point"",""coordinates"":[7.076388888888888,48.950833333333335]}"
"LFQQ","Lesquin","Lille","France","FRA",50.56333333333333,3.0869444444444447,"{""type"":""Point"",""coordinates"":[3.0869444444444447,50.56333333333333]}"
"LFHX","Perigny","Lapalisse","France","FRA",46.253055555555555,3.5875000000000004,"{""type"":""Point"",""coordinates"":[3.5875000000000004,46.253055555555555]}"
"LFGE","Avallon","Avallon","France","FRA",47.50194444444445,3.8983333333333334,"{""type"":""Point"",""coordinates"":[3.8983333333333334,47.50194444444445]}"
"LFLG","Le Versoud","Grenoble","France","FRA",45.21805555555556,5.8486111111111105,"{""type"":""Point"",""coordinates"":[5.8486111111111105,45.21805555555556]}"
"LFKG","Alzitone","Ghisonaccia","France","FRA",42.05444444444444,9.400277777777777,"{""type"":""Point"",""coordinates"":[9.400277777777777,42.05444444444444]}"
"LFPD","St Martin","Bernay","France","FRA",49.1025,0.5655555555555556,"{""type"":""Point"",""coordinates"":[0.5655555555555556,49.1025]}"
"LFHC","Meximieux","Perouges","France","FRA",45.868611111111115,5.186111111111112,"{""type"":""Point"",""coordinates"":[5.186111111111112,45.868611111111115]}"
"LFTZ","La Mole","La Mole","France","FRA",43.20638888888889,6.4825,"{""type"":""Point"",""coordinates"":[6.4825,43.20638888888889]}"
"LFGC","Neuhof","Strasbourg","France","FRA",48.55361111111111,7.7775,"{""type"":""Point"",""coordinates"":[7.7775,48.55361111111111]}"
"LFGA","Houssen","Colmar","France","FRA",48.110350000000004,7.359147222222222,"{""type"":""Point"",""coordinates"":[7.359147222222222,48.110350000000004]}"
"LFKJ","Napoleon Bonaparte","Ajaccio","France","FRA",41.92388888888889,8.8025,"{""type"":""Point"",""coordinates"":[8.8025,41.92388888888889]}"
"LFBL","Bellegarde","Limoges","France","FRA",45.86083333333333,1.1802777777777778,"{""type"":""Point"",""coordinates"":[1.1802777777777778,45.86083333333333]}"
"LFEH","Aubigny-Sur-Nere","Aubigny-Sur-Nere","France","FRA",47.480555555555554,2.3941666666666666,"{""type"":""Point"",""coordinates"":[2.3941666666666666,47.480555555555554]}"
"LFHG","L'Horme","St Chamond","France","FRA",45.49194444444444,4.5344444444444445,"{""type"":""Point"",""coordinates"":[4.5344444444444445,45.49194444444444]}"
"LFAJ","Argentan","Argentan","France","FRA",48.70944444444445,0.002777777777777778,"{""type"":""Point"",""coordinates"":[0.002777777777777778,48.70944444444445]}"
"LFFV","Mereau","Vierzon","France","FRA",47.19472222222222,2.066666666666667,"{""type"":""Point"",""coordinates"":[2.066666666666667,47.19472222222222]}"
"LFLS","Isere","Grenoble","France","FRA",45.363055555555555,5.332777777777777,"{""type"":""Point"",""coordinates"":[5.332777777777777,45.363055555555555]}"
"LFBP","Pau/Pyrenees","Pau/Pyrenees","France","FRA",43.38,-0.41861111111111116,"{""type"":""Point"",""coordinates"":[-0.41861111111111116,43.38]}"
"LFRV","Meucon","Vannes","France","FRA",47.719166666666666,-2.7233333333333336,"{""type"":""Point"",""coordinates"":[-2.7233333333333336,47.719166666666666]}"
"LFNJ","Aspres Sur Buech","Aspres Sur Buech","France","FRA",44.51777777777777,5.736111111111112,"{""type"":""Point"",""coordinates"":[5.736111111111112,44.51777777777777]}"
"LFES","Scaer","Guiscriff","France","FRA",48.05361111111111,-3.6641666666666666,"{""type"":""Point"",""coordinates"":[-3.6641666666666666,48.05361111111111]}"
"LFFK","Fontenay-Le Comte","Fontenay-Le Comte","France","FRA",46.44083333333333,-0.7938888888888889,"{""type"":""Point"",""coordinates"":[-0.7938888888888889,46.44083333333333]}"
"LFPE","Esbly","Meaux","France","FRA",48.926944444444445,2.833888888888889,"{""type"":""Point"",""coordinates"":[2.833888888888889,48.926944444444445]}"
"LFQO","Marcq-En-Baroeul","Lille","France","FRA",50.68722222222222,3.075555555555556,"{""type"":""Point"",""coordinates"":[3.075555555555556,50.68722222222222]}"
"LFBA","La Garenne","Agen","France","FRA",44.17472222222222,0.5905555555555556,"{""type"":""Point"",""coordinates"":[0.5905555555555556,44.17472222222222]}"
"LFFG","La Ferte-Gaucher","La Ferte-Gaucher","France","FRA",48.7575,3.278888888888889,"{""type"":""Point"",""coordinates"":[3.278888888888889,48.7575]}"
"LFBC","Cazaux AB","Cazaux","France","FRA",44.534886111111106,-1.1314527777777779,"{""type"":""Point"",""coordinates"":[-1.1314527777777779,44.534886111111106]}"
"LFBJ","St Junien","St Junien","France","FRA",45.902499999999996,0.9188888888888889,"{""type"":""Point"",""coordinates"":[0.9188888888888889,45.902499999999996]}"
"LFFR","Bar-Sur-Seine","Bar-Sur-Seine","France","FRA",48.066111111111105,4.4125000000000005,"{""type"":""Point"",""coordinates"":[4.4125000000000005,48.066111111111105]}"
"LFEX","Azelot","Nancy","France","FRA",48.591944444444444,6.239722222222222,"{""type"":""Point"",""coordinates"":[6.239722222222222,48.591944444444444]}"
"LFIX","Itxassou","Itxassou","France","FRA",43.337500000000006,-1.4222222222222223,"{""type"":""Point"",""coordinates"":[-1.4222222222222223,43.337500000000006]}"
"LFGU","Neunkirch","Sarreguemines","France","FRA",49.1275,7.1066666666666665,"{""type"":""Point"",""coordinates"":[7.1066666666666665,49.1275]}"
"LFMW","Villeneuve","Castelnaudary","France","FRA",43.31111111111111,1.92,"{""type"":""Point"",""coordinates"":[1.92,43.31111111111111]}"
"LFEW","Liernais","Saulieu","France","FRA",47.23861111111111,4.264444444444444,"{""type"":""Point"",""coordinates"":[4.264444444444444,47.23861111111111]}"
"LFPB","Le Bourget","Paris","France","FRA",48.96944444444445,2.441388888888889,"{""type"":""Point"",""coordinates"":[2.441388888888889,48.96944444444445]}"
"LFIH","Chalais","Chalais","France","FRA",45.268055555555556,0.016944444444444443,"{""type"":""Point"",""coordinates"":[0.016944444444444443,45.268055555555556]}"
"LFBH","Ile De Re","La Rochelle","France","FRA",46.17916666666667,-1.1952777777777779,"{""type"":""Point"",""coordinates"":[-1.1952777777777779,46.17916666666667]}"
"LFBI","Biard","Poitiers","France","FRA",46.587500000000006,0.30666666666666664,"{""type"":""Point"",""coordinates"":[0.30666666666666664,46.587500000000006]}"
"LFCS","Leognan-Saucats","Bordeaux","France","FRA",44.69916666666666,-0.5972222222222222,"{""type"":""Point"",""coordinates"":[-0.5972222222222222,44.69916666666666]}"
"LFIP","Balestas","Peyresourde","France","FRA",42.79666666666667,0.4355555555555556,"{""type"":""Point"",""coordinates"":[0.4355555555555556,42.79666666666667]}"
"LFCK","Castres-Mazamet","Castres-Mazamet","France","FRA",43.555,2.2905555555555552,"{""type"":""Point"",""coordinates"":[2.2905555555555552,43.555]}"
"LFDS","Domme","Sarlat","France","FRA",44.79222222222222,1.2436111111111112,"{""type"":""Point"",""coordinates"":[1.2436111111111112,44.79222222222222]}"
"LFJC","Clamecy","Clamecy","France","FRA",47.4375,3.5075,"{""type"":""Point"",""coordinates"":[3.5075,47.4375]}"
"LFCA","Targe","Chatellerault","France","FRA",46.780277777777776,0.5505555555555556,"{""type"":""Point"",""coordinates"":[0.5505555555555556,46.780277777777776]}"
"LFEP","Maconge","Pouilly","France","FRA",47.220555555555556,4.560277777777777,"{""type"":""Point"",""coordinates"":[4.560277777777777,47.220555555555556]}"
"LFHV","Tarare","Villefranche","France","FRA",45.919983333333334,4.634930555555555,"{""type"":""Point"",""coordinates"":[4.634930555555555,45.919983333333334]}"
"LFPG","Charles-De-Gaulle","Paris","France","FRA",49.00972222222222,2.5477777777777777,"{""type"":""Point"",""coordinates"":[2.5477777777777777,49.00972222222222]}"
"LFCF","Livernon","Figeac","France","FRA",44.6725,1.7880555555555555,"{""type"":""Point"",""coordinates"":[1.7880555555555555,44.6725]}"
"LFHD","Pierrelatte","Pierrelatte","France","FRA",44.397777777777776,4.716944444444445,"{""type"":""Point"",""coordinates"":[4.716944444444445,44.397777777777776]}"
"LFSX","St Sauveur AB","Luxeuil","France","FRA",47.78722222222222,6.364999999999999,"{""type"":""Point"",""coordinates"":[6.364999999999999,47.78722222222222]}"
"LFJF","Aubenasson","Aubenasson","France","FRA",44.695277777777775,5.153888888888889,"{""type"":""Point"",""coordinates"":[5.153888888888889,44.695277777777775]}"
"LFGF","Challanges","Beaune","France","FRA",47.01027777777778,4.896388888888889,"{""type"":""Point"",""coordinates"":[4.896388888888889,47.01027777777778]}"
"LFDT","Laloubere","Tarbes","France","FRA",43.215,0.0775,"{""type"":""Point"",""coordinates"":[0.0775,43.215]}"
"LFAQ","Bray","Albert","France","FRA",49.97,2.6925000000000003,"{""type"":""Point"",""coordinates"":[2.6925000000000003,49.97]}"
"LFEM","Vimory","Montargis","France","FRA",47.96055555555556,2.6858333333333335,"{""type"":""Point"",""coordinates"":[2.6858333333333335,47.96055555555556]}"
"LFPL","Emerainville","Lognes","France","FRA",48.82194444444445,2.622777777777778,"{""type"":""Point"",""coordinates"":[2.622777777777778,48.82194444444445]}"
"LFAW","Villerupt","Villerupt","France","FRA",49.410555555555554,5.889166666666666,"{""type"":""Point"",""coordinates"":[5.889166666666666,49.410555555555554]}"
"LFEL","Le Blanc","Le Blanc","France","FRA",46.62,1.0858333333333332,"{""type"":""Point"",""coordinates"":[1.0858333333333332,46.62]}"
"LFSJ","Douzy","Sedan","France","FRA",49.65888888888889,5.036666666666666,"{""type"":""Point"",""coordinates"":[5.036666666666666,49.65888888888889]}"
"LFEF","Dierre","Amboise","France","FRA",47.34055555555556,0.9411111111111111,"{""type"":""Point"",""coordinates"":[0.9411111111111111,47.34055555555556]}"
"LFIV","Vendays Montalivet","Vendays Montalivet","France","FRA",45.38055555555555,-1.1158333333333335,"{""type"":""Point"",""coordinates"":[-1.1158333333333335,45.38055555555555]}"
"LFTP","Puimoisson","Puimoisson","France","FRA",43.86888888888889,6.162777777777778,"{""type"":""Point"",""coordinates"":[6.162777777777778,43.86888888888889]}"
"LFED","Pontivy","Pontivy","France","FRA",48.05694444444444,-2.9233333333333333,"{""type"":""Point"",""coordinates"":[-2.9233333333333333,48.05694444444444]}"
"LFLC","Clermont-Ferrand/Auvergne","Clermont-Ferrand/Auvergne","France","FRA",45.78611111111111,3.1625,"{""type"":""Point"",""coordinates"":[3.1625,45.78611111111111]}"
"LFEC","Ouessant","Ouessant","France","FRA",48.46333333333334,-5.063611111111111,"{""type"":""Point"",""coordinates"":[-5.063611111111111,48.46333333333334]}"
"LFPY","Bretigny-Sur-Orge","Bretigny-Sur-Orge","France","FRA",48.596111111111114,2.332222222222222,"{""type"":""Point"",""coordinates"":[2.332222222222222,48.596111111111114]}"
"LFCY","Medis","Royan","France","FRA",45.63111111111111,-0.9755555555555555,"{""type"":""Point"",""coordinates"":[-0.9755555555555555,45.63111111111111]}"
"LFDR","Floudes","La Reole","France","FRA",44.566944444444445,-0.05722222222222222,"{""type"":""Point"",""coordinates"":[-0.05722222222222222,44.566944444444445]}"
"LFDM","Virazeil","Marmande","France","FRA",44.49916666666667,0.20027777777777778,"{""type"":""Point"",""coordinates"":[0.20027777777777778,44.49916666666667]}"
"LFFB","Buno Bonnevaux","Buno Bonnevaux","France","FRA",48.35027777777778,2.424444444444444,"{""type"":""Point"",""coordinates"":[2.424444444444444,48.35027777777778]}"
"LFQH","Chatillon-Sur-Seine","Chatillon-Sur-Seine","France","FRA",47.84527777777778,4.579444444444444,"{""type"":""Point"",""coordinates"":[4.579444444444444,47.84527777777778]}"
"LFHZ","Mont Blanc","Sallanches","France","FRA",45.95,6.638888888888888,"{""type"":""Point"",""coordinates"":[6.638888888888888,45.95]}"
"LFEV","Saint Adrien","Gray","France","FRA",47.43222222222222,5.621388888888889,"{""type"":""Point"",""coordinates"":[5.621388888888889,47.43222222222222]}"
"LFGL","Courlaoux","Lons-Le-Saunier","France","FRA",46.675,5.469166666666667,"{""type"":""Point"",""coordinates"":[5.469166666666667,46.675]}"
"LFDL","Loudun","Loudun","France","FRA",47.03611111111111,0.10083333333333334,"{""type"":""Point"",""coordinates"":[0.10083333333333334,47.03611111111111]}"
"LFAT","Cote D'Opale","Le Touquet","France","FRA",50.514722222222225,1.6275,"{""type"":""Point"",""coordinates"":[1.6275,50.514722222222225]}"
"LFCH","La Teste De Buch","Arcachon","France","FRA",44.596944444444446,-1.113888888888889,"{""type"":""Point"",""coordinates"":[-1.113888888888889,44.596944444444446]}"
"LFXB","Thenac AB","Saintes","France","FRA",45.70194444444445,-0.6361111111111111,"{""type"":""Point"",""coordinates"":[-0.6361111111111111,45.70194444444445]}"
"LFFQ","La Ferte-Alais","La Ferte-Alais","France","FRA",48.49944444444444,2.3299999999999996,"{""type"":""Point"",""coordinates"":[2.3299999999999996,48.49944444444444]}"
"LFDK","Soulac Sur Mer","Soulac Sur Mer","France","FRA",45.49388888888889,-1.083888888888889,"{""type"":""Point"",""coordinates"":[-1.083888888888889,45.49388888888889]}"
"LFDH","Gers","Auch","France","FRA",43.68694444444444,0.6,"{""type"":""Point"",""coordinates"":[0.6,43.68694444444444]}"
"LFDV","Verac","Couhe","France","FRA",46.27055555555555,0.18833333333333332,"{""type"":""Point"",""coordinates"":[0.18833333333333332,46.27055555555555]}"
"LFTM","Montsaleon","Serres-La-Batie","France","FRA",44.45722222222223,5.727222222222222,"{""type"":""Point"",""coordinates"":[5.727222222222222,44.45722222222223]}"
"LFFY","Etrepagny","Etrepagny","France","FRA",49.305277777777775,1.6377777777777778,"{""type"":""Point"",""coordinates"":[1.6377777777777778,49.305277777777775]}"
"LFBD","Merignac","Bordeaux","France","FRA",44.828611111111115,-0.7152777777777777,"{""type"":""Point"",""coordinates"":[-0.7152777777777777,44.828611111111115]}"
"LFDU","Saint Laurent Medoc","Lesparre","France","FRA",45.19777777777777,-0.8822222222222222,"{""type"":""Point"",""coordinates"":[-0.8822222222222222,45.19777777777777]}"
"LFDE","Egletons","Egletons","France","FRA",45.42055555555555,2.067777777777778,"{""type"":""Point"",""coordinates"":[2.067777777777778,45.42055555555555]}"
"LFFI","Ancenis","Ancenis","France","FRA",47.407222222222224,-1.1788888888888889,"{""type"":""Point"",""coordinates"":[-1.1788888888888889,47.407222222222224]}"
"LFIY","St Denis Du Pin","St Jean D'Angely","France","FRA",45.96527777777778,-0.5244444444444445,"{""type"":""Point"",""coordinates"":[-0.5244444444444445,45.96527777777778]}"
"LFEB","Trelivan","Dinan","France","FRA",48.44333333333333,-2.1033333333333335,"{""type"":""Point"",""coordinates"":[-2.1033333333333335,48.44333333333333]}"
"LFDG","Lisle-Sur-Tarn","Gaillac","France","FRA",43.88305555555556,1.8741666666666668,"{""type"":""Point"",""coordinates"":[1.8741666666666668,43.88305555555556]}"
"LFPA","Persan-Beaumont","Persan-Beaumont","France","FRA",49.165,2.3116666666666665,"{""type"":""Point"",""coordinates"":[2.3116666666666665,49.165]}"
"LFGY","Remomeix","St Die","France","FRA",48.26638888888889,7.0075,"{""type"":""Point"",""coordinates"":[7.0075,48.26638888888889]}"
"LFDC","Marcillac","Montendre","France","FRA",45.27361111111111,-0.45333333333333337,"{""type"":""Point"",""coordinates"":[-0.45333333333333337,45.27361111111111]}"
"LFCO","Herrere","Oloron","France","FRA",43.164722222222224,-0.5602777777777779,"{""type"":""Point"",""coordinates"":[-0.5602777777777779,43.164722222222224]}"
"LFAL","Thoree-Les-Pins","La Fleche","France","FRA",47.69277777777778,-0.0019444444444444444,"{""type"":""Point"",""coordinates"":[-0.0019444444444444444,47.69277777777778]}"
"LFCC","Lalbenque","Cahors","France","FRA",44.35055555555556,1.4786111111111113,"{""type"":""Point"",""coordinates"":[1.4786111111111113,44.35055555555556]}"
"LFKS","Solenzara","Solenzara","France","FRA",41.926288888888884,9.405302777777779,"{""type"":""Point"",""coordinates"":[9.405302777777779,41.926288888888884]}"
"LFBF","Francazal","Toulouse","France","FRA",43.549166666666665,1.3572222222222223,"{""type"":""Point"",""coordinates"":[1.3572222222222223,43.549166666666665]}"
"LFAY","Glisy","Amiens","France","FRA",49.87310277777778,2.3869861111111113,"{""type"":""Point"",""coordinates"":[2.3869861111111113,49.87310277777778]}"
"LFOV","Entrammes","Laval","France","FRA",48.032222222222224,-0.7427777777777778,"{""type"":""Point"",""coordinates"":[-0.7427777777777778,48.032222222222224]}"
"LFCV","Villefranche-De-Rouergue","Villefranche-De-Rouergue","France","FRA",44.36888888888889,2.026944444444444,"{""type"":""Point"",""coordinates"":[2.026944444444444,44.36888888888889]}"
"LFAI","Les Loges","Nangis","France","FRA",48.596944444444446,3.0080555555555555,"{""type"":""Point"",""coordinates"":[3.0080555555555555,48.596944444444446]}"
"LFBS","Parentis","Biscarrosse","France","FRA",44.36805555555556,-1.1322222222222222,"{""type"":""Point"",""coordinates"":[-1.1322222222222222,44.36805555555556]}"
"LFGT","Buhl","Sarrebourg","France","FRA",48.718333333333334,7.08,"{""type"":""Point"",""coordinates"":[7.08,48.718333333333334]}"
"LFAR","Montdidier","Montdidier","France","FRA",49.67305555555555,2.5691666666666664,"{""type"":""Point"",""coordinates"":[2.5691666666666664,49.67305555555555]}"
"LFAS","Monts D'Eraines","Falaise","France","FRA",48.926944444444445,-0.14472222222222222,"{""type"":""Point"",""coordinates"":[-0.14472222222222222,48.926944444444445]}"
"LFCT","Thouars","Thouars","France","FRA",46.96194444444445,-0.15277777777777776,"{""type"":""Point"",""coordinates"":[-0.15277777777777776,46.96194444444445]}"
"LFMQ","Le Castellet","Le Castellet","France","FRA",43.25222222222222,5.786111111111111,"{""type"":""Point"",""coordinates"":[5.786111111111111,43.25222222222222]}"
"LFOW","Roupy","St Quentin","France","FRA",49.816944444444445,3.206666666666667,"{""type"":""Point"",""coordinates"":[3.206666666666667,49.816944444444445]}"
"LFIK","Tourette","Riberac","France","FRA",45.239444444444445,0.2658333333333333,"{""type"":""Point"",""coordinates"":[0.2658333333333333,45.239444444444445]}"
"LFCR","Aveyron","Rodez","France","FRA",44.4075,2.4833333333333334,"{""type"":""Point"",""coordinates"":[2.4833333333333334,44.4075]}"
"LFLR","St Rambert D'Albon","St Rambert D'Albon","France","FRA",45.255,4.824722222222222,"{""type"":""Point"",""coordinates"":[4.824722222222222,45.255]}"
"LFCE","Saint Laurent","Gueret","France","FRA",46.175555555555555,1.9530555555555555,"{""type"":""Point"",""coordinates"":[1.9530555555555555,46.175555555555555]}"
"LFAV","Denain","Valenciennes","France","FRA",50.32472222222223,3.465555555555556,"{""type"":""Point"",""coordinates"":[3.465555555555556,50.32472222222223]}"
"LFCD","Andernos-Les-Bains","Andernos-Les-Bains","France","FRA",44.755,-1.065,"{""type"":""Point"",""coordinates"":[-1.065,44.755]}"
"LFDQ","Castelnau-Magnoac","Castelnau-Magnoac","France","FRA",43.277499999999996,0.5194444444444445,"{""type"":""Point"",""coordinates"":[0.5194444444444445,43.277499999999996]}"
"LFHN","Vouvray","Bellegarde","France","FRA",46.123333333333335,5.804722222222222,"{""type"":""Point"",""coordinates"":[5.804722222222222,46.123333333333335]}"
"LFCP","Avy","Pons","France","FRA",45.56583333333333,-0.5136111111111111,"{""type"":""Point"",""coordinates"":[-0.5136111111111111,45.56583333333333]}"
"LFFD","St Andre De L'Eure","St Andre De L'Eure","France","FRA",48.8975,1.2508333333333332,"{""type"":""Point"",""coordinates"":[1.2508333333333332,48.8975]}"
"LFCG","Antichan","St Girons","France","FRA",43.007777777777775,1.1030555555555557,"{""type"":""Point"",""coordinates"":[1.1030555555555557,43.007777777777775]}"
"LFIM","Montrejeau","St Gaudens","France","FRA",43.1075,0.6191666666666666,"{""type"":""Point"",""coordinates"":[0.6191666666666666,43.1075]}"
"LFDP","St Pierre D'Oleron","St Pierre D'Oleron","France","FRA",45.95777777777778,-1.311388888888889,"{""type"":""Point"",""coordinates"":[-1.311388888888889,45.95777777777778]}"
"LFCI","Le Sequestre","Albi","France","FRA",43.913333333333334,2.1166666666666667,"{""type"":""Point"",""coordinates"":[2.1166666666666667,43.913333333333334]}"
"LFPK","Voisins","Coulommiers","France","FRA",48.837500000000006,3.0144444444444445,"{""type"":""Point"",""coordinates"":[3.0144444444444445,48.837500000000006]}"
"LFEJ","Villers","Chateauroux","France","FRA",46.840833333333336,1.62,"{""type"":""Point"",""coordinates"":[1.62,46.840833333333336]}"
"LFOA","Avord AB","Avord","France","FRA",47.05694444444444,2.638888888888889,"{""type"":""Point"",""coordinates"":[2.638888888888889,47.05694444444444]}"
"LFFO","Beauvoir Fromentine","Beauvoir Fromentine","France","FRA",46.89055555555556,-2.088611111111111,"{""type"":""Point"",""coordinates"":[-2.088611111111111,46.89055555555556]}"
"LFQE","Rouvres","Etain","France","FRA",49.22916666666667,5.676111111111111,"{""type"":""Point"",""coordinates"":[5.676111111111111,49.22916666666667]}"
"LFEY","Ile D'Yeu","Ile D'Yeu","France","FRA",46.7175,-2.3925,"{""type"":""Point"",""coordinates"":[-2.3925,46.7175]}"
"LFNW","Puivert","Puivert","France","FRA",42.91027777777778,2.054722222222222,"{""type"":""Point"",""coordinates"":[2.054722222222222,42.91027777777778]}"
"LFEI","Chatillon","Briare","France","FRA",47.614444444444445,2.7819444444444446,"{""type"":""Point"",""coordinates"":[2.7819444444444446,47.614444444444445]}"
"LFJA","Semoutiers","Chaumont","France","FRA",48.09166666666667,5.05,"{""type"":""Point"",""coordinates"":[5.05,48.09166666666667]}"
"LFCW","Villeneuve-Sur-Lot","Villeneuve-Sur-Lot","France","FRA",44.399166666666666,0.7594444444444445,"{""type"":""Point"",""coordinates"":[0.7594444444444445,44.399166666666666]}"
"LFSN","Essey","Nancy","France","FRA",48.69222222222222,6.226111111111111,"{""type"":""Point"",""coordinates"":[6.226111111111111,48.69222222222222]}"
"LFBN","Marais Poitevin","Niort","France","FRA",46.31333333333333,-0.3944444444444445,"{""type"":""Point"",""coordinates"":[-0.3944444444444445,46.31333333333333]}"
"LFLB","Aix-Les-Bains","Chambery","France","FRA",45.63916666666667,5.880000000000001,"{""type"":""Point"",""coordinates"":[5.880000000000001,45.63916666666667]}"
"LFJH","Palaminy","Cazeres","France","FRA",43.200833333333335,1.05,"{""type"":""Point"",""coordinates"":[1.05,43.200833333333335]}"
"LFAE","Mers-Le-Treport","Eu","France","FRA",50.06916666666667,1.4266666666666667,"{""type"":""Point"",""coordinates"":[1.4266666666666667,50.06916666666667]}"
"LFPM","Villaroche","Melun","France","FRA",48.60527777777778,2.6708333333333334,"{""type"":""Point"",""coordinates"":[2.6708333333333334,48.60527777777778]}"
"LFDW","Chauvigny","Chauvigny","France","FRA",46.583333333333336,0.6422222222222221,"{""type"":""Point"",""coordinates"":[0.6422222222222221,46.583333333333336]}"
"LFDB","Montauban","Montauban","France","FRA",44.026666666666664,1.3769444444444445,"{""type"":""Point"",""coordinates"":[1.3769444444444445,44.026666666666664]}"
"LFBK","Montlucon-Gueret","Montlucon-Gueret","France","FRA",46.226111111111116,2.362777777777778,"{""type"":""Point"",""coordinates"":[2.362777777777778,46.226111111111116]}"
"LFHS","Ceyzeriat","Bourg","France","FRA",46.205555555555556,5.291666666666667,"{""type"":""Point"",""coordinates"":[5.291666666666667,46.205555555555556]}"
"LFFC","Cherence","Mantes","France","FRA",49.07888888888889,1.6897222222222223,"{""type"":""Point"",""coordinates"":[1.6897222222222223,49.07888888888889]}"
"LFNQ","La Quillane","Mont-Louis","France","FRA",42.54333333333333,2.12,"{""type"":""Point"",""coordinates"":[2.12,42.54333333333333]}"
"LFAC","Calais-Dunkerque","Calais-Dunkerque","France","FRA",50.96083333333333,1.9513888888888888,"{""type"":""Point"",""coordinates"":[1.9513888888888888,50.96083333333333]}"
"LFLU","Chabeuil","Valence","France","FRA",44.91555555555556,4.9686111111111115,"{""type"":""Point"",""coordinates"":[4.9686111111111115,44.91555555555556]}"
"LFAX","Mortagne Au Perche","Mortagne Au Perche","France","FRA",48.53972222222222,0.5341666666666667,"{""type"":""Point"",""coordinates"":[0.5341666666666667,48.53972222222222]}"
"LFPC","Creil AB","Creil","France","FRA",49.25361111111111,2.5191666666666666,"{""type"":""Point"",""coordinates"":[2.5191666666666666,49.25361111111111]}"
"LFGB","Habsheim","Mulhouse","France","FRA",47.73722222222222,7.429722222222223,"{""type"":""Point"",""coordinates"":[7.429722222222223,47.73722222222222]}"
"LFER","Bains Sur Oust","Redon","France","FRA",47.698611111111106,-2.0380555555555553,"{""type"":""Point"",""coordinates"":[-2.0380555555555553,47.698611111111106]}"