"airportCode","airportName","cityName","countryName","countryCode","latitude","longitude","geometry"
"EGYM","Marham","Marham","UK","GBR",52.648405555555556,0.5506722222222222,"{""type"":""Point"",""coordinates"":[0.5506722222222222,52.648405555555556]}"
"EGYE","Barkston Heath","Barkston Heath","UK","GBR",52.962983333333334,-0.5603222222222223,"{""type"":""Point"",""coordinates"":[-0.5603222222222223,52.962983333333334]}"
"EGXZ","Topcliffe","Topcliffe","UK","GBR",54.2055,-1.3821666666666668,"{""type"":""Point"",""coordinates"":[-1.3821666666666668,54.2055]}"
"EGXW","Waddington","Waddington","UK","GBR",53.16616111111111,-0.523838888888889,"{""type"":""Point"",""coordinates"":[-0.523838888888889,53.16616111111111]}"
"EGXT","Wittering","Wittering","UK","GBR",52.613055555555555,-0.4759055555555556,"{""type"":""Point"",""coordinates"":[-0.4759055555555556,52.613055555555555]}"
"EGXD","Dishforth","Dishforth","UK","GBR",54.136852777777776,-1.4199694444444446,"{""type"":""Point"",""coordinates"":[-1.4199694444444446,54.136852777777776]}"
"EGWN","Halton AB","Halton","UK","GBR",51.7925,-0.7378333333333332,"{""type"":""Point"",""coordinates"":[-0.7378333333333332,51.7925]}"
"EGWE","Henlow","Henlow","UK","GBR",52.01954722222222,-0.3018194444444444,"{""type"":""Point"",""coordinates"":[-0.3018194444444444,52.01954722222222]}"
"EGUY","Wyton","Wyton","UK","GBR",52.35711388888889,-0.10782222222222222,"{""type"":""Point"",""coordinates"":[-0.10782222222222222,52.35711388888889]}"
"EGUW","Wattisham","Wattisham","UK","GBR",52.127027777777776,0.9554138888888889,"{""type"":""Point"",""coordinates"":[0.9554138888888889,52.127027777777776]}"
"EGWU","Northolt","Northolt","UK","GBR",51.55271388888889,-0.41959722222222223,"{""type"":""Point"",""coordinates"":[-0.41959722222222223,51.55271388888889]}"
"EGUL","Lakenheath AB","Lakenheath","UK","GBR",52.40940277777778,0.5610111111111111,"{""type"":""Point"",""coordinates"":[0.5610111111111111,52.40940277777778]}"
"EGVA","Fairford AB","Fairford","UK","GBR",51.68351944444444,-1.7899916666666666,"{""type"":""Point"",""coordinates"":[-1.7899916666666666,51.68351944444444]}"
"EGTW","Oaksey Park","Oaksey Park","UK","GBR",51.632222222222225,-2.0147222222222223,"{""type"":""Point"",""coordinates"":[-2.0147222222222223,51.632222222222225]}"
"EGTU","Dunkeswell","Dunkeswell","UK","GBR",50.86,-3.2347222222222225,"{""type"":""Point"",""coordinates"":[-3.2347222222222225,50.86]}"
"EGTR","Elstree","Elstree","UK","GBR",51.655833333333334,-0.3258333333333333,"{""type"":""Point"",""coordinates"":[-0.3258333333333333,51.655833333333334]}"
"EGTK","Kidlington","Oxford","UK","GBR",51.83694444444445,-1.32,"{""type"":""Point"",""coordinates"":[-1.32,51.83694444444445]}"
"EGTF","Fairoaks","Fairoaks","UK","GBR",51.34805555555556,-0.5586111111111112,"{""type"":""Point"",""coordinates"":[-0.5586111111111112,51.34805555555556]}"
"EGTD","Dunsfold","Dunsfold","UK","GBR",51.117222222222225,-0.5358333333333333,"{""type"":""Point"",""coordinates"":[-0.5358333333333333,51.117222222222225]}"
"EGTB","Booker","Wycombe Air Park","UK","GBR",51.611666666666665,-0.8083333333333333,"{""type"":""Point"",""coordinates"":[-0.8083333333333333,51.611666666666665]}"
"EGSV","Old Buckenham","Old Buckenham","UK","GBR",52.4975,1.0519444444444446,"{""type"":""Point"",""coordinates"":[1.0519444444444446,52.4975]}"
"EGSS","Stansted","London","UK","GBR",51.885,0.23500000000000001,"{""type"":""Point"",""coordinates"":[0.23500000000000001,51.885]}"
"EGSR","Earls Colne","Earls Colne","UK","GBR",51.91444444444444,0.6825,"{""type"":""Point"",""coordinates"":[0.6825,51.91444444444444]}"
"EGSQ","Clacton","Clacton","UK","GBR",51.785,1.1300000000000001,"{""type"":""Point"",""coordinates"":[1.1300000000000001,51.785]}"
"EGTE","Exeter","Exeter","UK","GBR",50.73429166666667,-3.413811111111111,"{""type"":""Point"",""coordinates"":[-3.413811111111111,50.73429166666667]}"
"EGSL","Andrewsfield","Andrewsfield","UK","GBR",51.894999999999996,0.44916666666666666,"{""type"":""Point"",""coordinates"":[0.44916666666666666,51.894999999999996]}"
"EGSG","Stapleford","Stapleford","UK","GBR",51.652499999999996,0.15611111111111112,"{""type"":""Point"",""coordinates"":[0.15611111111111112,51.652499999999996]}"
"EGSF","Conington","Peterborough","UK","GBR",52.46805555555556,-0.25083333333333335,"{""type"":""Point"",""coordinates"":[-0.25083333333333335,52.46805555555556]}"
"EGSA","Shipdham","Shipdham","UK","GBR",52.629444444444445,0.9280555555555555,"{""type"":""Point"",""coordinates"":[0.9280555555555555,52.629444444444445]}"
"EGUO","Colerne","Colerne","UK","GBR",51.44107777777777,-2.2790805555555553,"{""type"":""Point"",""coordinates"":[-2.2790805555555553,51.44107777777777]}"
"EGQS","Lossiemouth","Lossiemouth","UK","GBR",57.705025000000006,-3.3391361111111113,"{""type"":""Point"",""coordinates"":[-3.3391361111111113,57.705025000000006]}"
"EGQL","Leuchars","Leuchars","UK","GBR",56.37266666666667,-2.8685,"{""type"":""Point"",""coordinates"":[-2.8685,56.37266666666667]}"
"EGPU","Tiree","Tiree","UK","GBR",56.49916666666667,-6.8691666666666675,"{""type"":""Point"",""coordinates"":[-6.8691666666666675,56.49916666666667]}"
"EGPR","Barra","Barra","UK","GBR",57.02361111111111,-7.441666666666667,"{""type"":""Point"",""coordinates"":[-7.441666666666667,57.02361111111111]}"
"EGTN","Enstone","Enstone","UK","GBR",51.92944444444444,-1.4319444444444445,"{""type"":""Point"",""coordinates"":[-1.4319444444444445,51.92944444444444]}"
"EGPO","Stornoway","Stornoway","UK","GBR",58.21555555555556,-6.3311111111111105,"{""type"":""Point"",""coordinates"":[-6.3311111111111105,58.21555555555556]}"
"EGPN","Dundee","Dundee","UK","GBR",56.4525,-3.0258333333333334,"{""type"":""Point"",""coordinates"":[-3.0258333333333334,56.4525]}"
"EGPM","Scatsta","Scatsta","UK","GBR",60.43277777777777,-1.296111111111111,"{""type"":""Point"",""coordinates"":[-1.296111111111111,60.43277777777777]}"
"EGPK","Prestwick","Prestwick","UK","GBR",55.50944444444445,-4.594444444444444,"{""type"":""Point"",""coordinates"":[-4.594444444444444,55.50944444444445]}"
"EGPI","Islay","Islay","UK","GBR",55.68333333333333,-6.259722222222222,"{""type"":""Point"",""coordinates"":[-6.259722222222222,55.68333333333333]}"
"EGPF","Glasgow","Glasgow","UK","GBR",55.871944444444445,-4.433055555555556,"{""type"":""Point"",""coordinates"":[-4.433055555555556,55.871944444444445]}"
"EGPE","Inverness","Inverness","UK","GBR",57.5425,-4.0475,"{""type"":""Point"",""coordinates"":[-4.0475,57.5425]}"
"EGPC","Wick","Wick","UK","GBR",58.45888888888889,-3.093055555555556,"{""type"":""Point"",""coordinates"":[-3.093055555555556,58.45888888888889]}"
"EGPB","Sumburgh","Sumburgh","UK","GBR",59.88138888888889,-1.2938888888888889,"{""type"":""Point"",""coordinates"":[-1.2938888888888889,59.88138888888889]}"
"EGPA","Kirkwall","Kirkwall","UK","GBR",58.95805555555556,-2.9005555555555556,"{""type"":""Point"",""coordinates"":[-2.9005555555555556,58.95805555555556]}"
"EGTP","Perranporth","Perranporth","UK","GBR",50.330555555555556,-5.179444444444445,"{""type"":""Point"",""coordinates"":[-5.179444444444445,50.330555555555556]}"
"EGOW","Woodvale","Woodvale","UK","GBR",53.581575,-3.0555277777777774,"{""type"":""Point"",""coordinates"":[-3.0555277777777774,53.581575]}"
"EGOV","Valley","Valley","UK","GBR",53.24816666666667,-4.535333333333333,"{""type"":""Point"",""coordinates"":[-4.535333333333333,53.24816666666667]}"
"EGOS","Shawbury","Shawbury","UK","GBR",52.793625,-2.6679388888888886,"{""type"":""Point"",""coordinates"":[-2.6679388888888886,52.793625]}"
"EGOE","Tern Hill","Tern Hill","UK","GBR",52.87116666666667,-2.5335,"{""type"":""Point"",""coordinates"":[-2.5335,52.87116666666667]}"
"EGNX","East Midlands","East Midlands","UK","GBR",52.83111111111111,-1.3277777777777777,"{""type"":""Point"",""coordinates"":[-1.3277777777777777,52.83111111111111]}"
"EGNS","Isle Of Man","Isle Of Man","UK","GBR",54.083333333333336,-4.623333333333334,"{""type"":""Point"",""coordinates"":[-4.623333333333334,54.083333333333336]}"
"EGNO","Warton","Warton","UK","GBR",53.74509722222222,-2.883061111111111,"{""type"":""Point"",""coordinates"":[-2.883061111111111,53.74509722222222]}"
"EGNL","Walney Island","Barrow","UK","GBR",54.12861111111111,-3.2675,"{""type"":""Point"",""coordinates"":[-3.2675,54.12861111111111]}"
"EGNH","Blackpool","Blackpool","UK","GBR",53.77166666666667,-3.028611111111111,"{""type"":""Point"",""coordinates"":[-3.028611111111111,53.77166666666667]}"
"EGNG","Thirsk","Bagby","UK","GBR",54.211111111111116,-1.2899999999999998,"{""type"":""Point"",""coordinates"":[-1.2899999999999998,54.211111111111116]}"
"EGNF","Netherthorpe","Netherthorpe","UK","GBR",53.316944444444445,-1.196388888888889,"{""type"":""Point"",""coordinates"":[-1.196388888888889,53.316944444444445]}"
"EGMF","Stoneacre Farm","Farthing Corner","UK","GBR",51.330555555555556,0.601111111111111,"{""type"":""Point"",""coordinates"":[0.601111111111111,51.330555555555556]}"
"EGMD","Lydd","Lydd","UK","GBR",50.95611111111111,0.9391666666666667,"{""type"":""Point"",""coordinates"":[0.9391666666666667,50.95611111111111]}"
"EGMC","Southend","Southend","UK","GBR",51.57027777777778,0.6933333333333334,"{""type"":""Point"",""coordinates"":[0.6933333333333334,51.57027777777778]}"
"EGLS","Old Sarum","Old Sarum","UK","GBR",51.098888888888894,-1.7841666666666665,"{""type"":""Point"",""coordinates"":[-1.7841666666666665,51.098888888888894]}"
"EGPG","Cumbernauld","Cumbernauld","UK","GBR",55.974722222222226,-3.9755555555555557,"{""type"":""Point"",""coordinates"":[-3.9755555555555557,55.974722222222226]}"
"EGCL","Fenland","Fenland","UK","GBR",52.739444444444445,-0.03,"{""type"":""Point"",""coordinates"":[-0.03,52.739444444444445]}"
"EG20","Langar","Langar","UK","GBR",52.89388888888889,-0.9044444444444445,"{""type"":""Point"",""coordinates"":[-0.9044444444444445,52.89388888888889]}"
"EGLP","Brimpton","Brimpton","UK","GBR",51.38388888888889,-1.1725,"{""type"":""Point"",""coordinates"":[-1.1725,51.38388888888889]}"
"EGLM","White Waltham","White Waltham","UK","GBR",51.500658333333334,-0.7748333333333334,"{""type"":""Point"",""coordinates"":[-0.7748333333333334,51.500658333333334]}"
"EGLK","Blackbushe","Blackbushe","UK","GBR",51.323888888888895,-0.8475,"{""type"":""Point"",""coordinates"":[-0.8475,51.323888888888895]}"
"EGLF","Farnborough","Farnborough","UK","GBR",51.275277777777774,-0.7775000000000001,"{""type"":""Point"",""coordinates"":[-0.7775000000000001,51.275277777777774]}"
"EGLD","Denham","Denham","UK","GBR",51.58833333333334,-0.5130555555555556,"{""type"":""Point"",""coordinates"":[-0.5130555555555556,51.58833333333334]}"
"EGFE","Haverfordwest","Haverfordwest","UK","GBR",51.83305555555556,-4.961111111111111,"{""type"":""Point"",""coordinates"":[-4.961111111111111,51.83305555555556]}"
"EGLC","London City","London","UK","GBR",51.50527777777778,0.05527777777777778,"{""type"":""Point"",""coordinates"":[0.05527777777777778,51.50527777777778]}"
"EGCR","Ashcroft-Nolac","Ashcroft-Nolac","UK","GBR",53.16361111111111,-2.569444444444444,"{""type"":""Point"",""coordinates"":[-2.569444444444444,53.16361111111111]}"
"EGJA","Alderney","Alderney","UK","GBR",49.70675833333333,-2.214480555555556,"{""type"":""Point"",""coordinates"":[-2.214480555555556,49.70675833333333]}"
"EGAE","Eglinton","Londonderry","UK","GBR",55.04277777777778,-7.161944444444445,"{""type"":""Point"",""coordinates"":[-7.161944444444445,55.04277777777778]}"
"EGHY","Truro","Truro","UK","GBR",50.27861111111111,-5.1425,"{""type"":""Point"",""coordinates"":[-5.1425,50.27861111111111]}"
"EGPT","Scone","Perth","UK","GBR",56.441111111111105,-3.3738888888888887,"{""type"":""Point"",""coordinates"":[-3.3738888888888887,56.441111111111105]}"
"EGCV","Sleap","Sleap","UK","GBR",52.834722222222226,-2.770277777777778,"{""type"":""Point"",""coordinates"":[-2.770277777777778,52.834722222222226]}"
"EGHU","Eaglescott","Eaglescott","UK","GBR",50.92861111111111,-3.9894444444444446,"{""type"":""Point"",""coordinates"":[-3.9894444444444446,50.92861111111111]}"
"EGWC","Cosford","Cosford","UK","GBR",52.64,-2.3055,"{""type"":""Point"",""coordinates"":[-2.3055,52.64]}"
"EG08","Dornoch","Dornoch","UK","GBR",57.87222222222222,-4.026388888888889,"{""type"":""Point"",""coordinates"":[-4.026388888888889,57.87222222222222]}"
"EGHS","Henstridge","Henstridge","UK","GBR",50.98533333333334,-2.356666666666667,"{""type"":""Point"",""coordinates"":[-2.356666666666667,50.98533333333334]}"
"EGDM","Boscombe Down","Boscombe Down","UK","GBR",51.15218055555555,-1.747438888888889,"{""type"":""Point"",""coordinates"":[-1.747438888888889,51.15218055555555]}"
"EGHR","Goodwood","Chichester","UK","GBR",50.85944444444445,-0.7591666666666667,"{""type"":""Point"",""coordinates"":[-0.7591666666666667,50.85944444444445]}"
"EGXU","Linton-On-Ouse","Linton-On-Ouse","UK","GBR",54.049391666666665,-1.2530972222222223,"{""type"":""Point"",""coordinates"":[-1.2530972222222223,54.049391666666665]}"
"EGMJ","Little Gransden","Little Gransden","UK","GBR",52.166666666666664,-0.15388888888888888,"{""type"":""Point"",""coordinates"":[-0.15388888888888888,52.166666666666664]}"
"EGKR","Redhill","Redhill","UK","GBR",51.21361111111111,-0.1386111111111111,"{""type"":""Point"",""coordinates"":[-0.1386111111111111,51.21361111111111]}"
"EGHO","Thruxton","Thruxton","UK","GBR",51.21055555555556,-1.6,"{""type"":""Point"",""coordinates"":[-1.6,51.21055555555556]}"
"EGKH","Headcorn","Lashenden","UK","GBR",51.156388888888884,0.6444444444444444,"{""type"":""Point"",""coordinates"":[0.6444444444444444,51.156388888888884]}"
"EGBW","Wellesbourne Mountford","Wellesbourne Mountford","UK","GBR",52.19222222222222,-1.6144444444444446,"{""type"":""Point"",""coordinates"":[-1.6144444444444446,52.19222222222222]}"
"EGHG","Westland","Yeovil","UK","GBR",50.94005,-2.658847222222222,"{""type"":""Point"",""coordinates"":[-2.658847222222222,50.94005]}"
"EGNM","Leeds Bradford","Leeds Bradford","UK","GBR",53.866025,-1.6607694444444443,"{""type"":""Point"",""coordinates"":[-1.6607694444444443,53.866025]}"
"EGHF","Lee-on-Solent","Lee-on-Solent","UK","GBR",50.815555555555555,-1.2066666666666666,"{""type"":""Point"",""coordinates"":[-1.2066666666666666,50.815555555555555]}"
"EGHE","St Mary's","Scilly Isles","UK","GBR",49.91328611111111,-6.291758333333333,"{""type"":""Point"",""coordinates"":[-6.291758333333333,49.91328611111111]}"
"EGNC","Carlisle","Carlisle","UK","GBR",54.9375,-2.8091666666666666,"{""type"":""Point"",""coordinates"":[-2.8091666666666666,54.9375]}"
"EGGW","Luton","London","UK","GBR",51.874722222222225,-0.3683333333333333,"{""type"":""Point"",""coordinates"":[-0.3683333333333333,51.874722222222225]}"
"EGHC","Lands End","Lands End","UK","GBR",50.10270277777778,-5.6705805555555555,"{""type"":""Point"",""coordinates"":[-5.6705805555555555,50.10270277777778]}"
"EGAA","Aldergrove","Belfast","UK","GBR",54.6575,-6.215833333333333,"{""type"":""Point"",""coordinates"":[-6.215833333333333,54.6575]}"
"EGGP","Liverpool","Liverpool","UK","GBR",53.33361111111111,-2.8497222222222223,"{""type"":""Point"",""coordinates"":[-2.8497222222222223,53.33361111111111]}"
"EGHH","Bournemouth","Bournemouth","UK","GBR",50.78,-1.8425000000000002,"{""type"":""Point"",""coordinates"":[-1.8425000000000002,50.78]}"
"EGNU","Full Sutton","Full Sutton","UK","GBR",53.980555555555554,-0.8647222222222222,"{""type"":""Point"",""coordinates"":[-0.8647222222222222,53.980555555555554]}"
"EGFP","Pembrey","Pembrey","UK","GBR",51.71388888888889,-4.312222222222222,"{""type"":""Point"",""coordinates"":[-4.312222222222222,51.71388888888889]}"
"EGFF","Cardiff","Cardiff","UK","GBR",51.39666666666667,-3.3433333333333333,"{""type"":""Point"",""coordinates"":[-3.3433333333333333,51.39666666666667]}"
"EGKL","Lewes","Deanland","UK","GBR",50.87888888888889,0.15638888888888888,"{""type"":""Point"",""coordinates"":[0.15638888888888888,50.87888888888889]}"
"EGML","Damyns Hall","Damyns Hall","UK","GBR",51.52861111111111,0.24555555555555555,"{""type"":""Point"",""coordinates"":[0.24555555555555555,51.52861111111111]}"
"EGFA","Aberporth","West Wales","UK","GBR",52.11472222222223,-4.559444444444444,"{""type"":""Point"",""coordinates"":[-4.559444444444444,52.11472222222223]}"
"EGXE","Leeming","Leeming","UK","GBR",54.29252777777778,-1.5353944444444443,"{""type"":""Point"",""coordinates"":[-1.5353944444444443,54.29252777777778]}"
"EG30","Pocklington","Pocklington","UK","GBR",53.92527777777777,-0.7961111111111111,"{""type"":""Point"",""coordinates"":[-0.7961111111111111,53.92527777777777]}"
"EGEY","Colonsay","Colonsay","UK","GBR",56.0575,-6.243055555555555,"{""type"":""Point"",""coordinates"":[-6.243055555555555,56.0575]}"
"EG11","Eddsfield","Eddsfield","UK","GBR",54.11177777777778,-0.4574166666666667,"{""type"":""Point"",""coordinates"":[-0.4574166666666667,54.11177777777778]}"
"EG32","Badminton","Badminton","UK","GBR",51.54972222222222,-2.298611111111111,"{""type"":""Point"",""coordinates"":[-2.298611111111111,51.54972222222222]}"
"EG19","Portmoak","Kinross","UK","GBR",56.19166666666666,-3.325833333333333,"{""type"":""Point"",""coordinates"":[-3.325833333333333,56.19166666666666]}"
"EG09","Eshott","Eshott","UK","GBR",55.281666666666666,-1.7108333333333332,"{""type"":""Point"",""coordinates"":[-1.7108333333333332,55.281666666666666]}"
"EGEC","Campbeltown","Campbeltown","UK","GBR",55.4375,-5.688055555555556,"{""type"":""Point"",""coordinates"":[-5.688055555555556,55.4375]}"
"EGSM","Beccles","Beccles","UK","GBR",52.43527777777778,1.6183333333333334,"{""type"":""Point"",""coordinates"":[1.6183333333333334,52.43527777777778]}"
"EGER","Stronsay","Stronsay","UK","GBR",59.155277777777776,-2.641388888888889,"{""type"":""Point"",""coordinates"":[-2.641388888888889,59.155277777777776]}"
"EGJJ","Jersey","Jersey","UK","GBR",49.207952777777784,-2.195525,"{""type"":""Point"",""coordinates"":[-2.195525,49.207952777777784]}"
"EGNE","Gamston","Retford","UK","GBR",53.28055555555555,-0.9513888888888888,"{""type"":""Point"",""coordinates"":[-0.9513888888888888,53.28055555555555]}"
"EGBT","Turweston","Turweston","UK","GBR",52.04083333333333,-1.0977777777777777,"{""type"":""Point"",""coordinates"":[-1.0977777777777777,52.04083333333333]}"
"EGEP","Papa Westray","Papa Westray","UK","GBR",59.35166666666667,-2.9002777777777777,"{""type"":""Point"",""coordinates"":[-2.9002777777777777,59.35166666666667]}"
"EGNT","Newcastle","Newcastle","UK","GBR",55.03792222222222,-1.6898027777777778,"{""type"":""Point"",""coordinates"":[-1.6898027777777778,55.03792222222222]}"
"EGEI","Broadford","Isle of Skye","UK","GBR",57.253055555555555,-5.8277777777777775,"{""type"":""Point"",""coordinates"":[-5.8277777777777775,57.253055555555555]}"
"EG23","Milson Airstrip","Milson","UK","GBR",52.36138888888889,-2.5458333333333334,"{""type"":""Point"",""coordinates"":[-2.5458333333333334,52.36138888888889]}"
"EGCK","Caernarfon","Caernarfon","UK","GBR",53.101819444444445,-4.337613888888889,"{""type"":""Point"",""coordinates"":[-4.337613888888889,53.101819444444445]}"
"EGES","Sanday","Sanday","UK","GBR",59.250277777777775,-2.576666666666666,"{""type"":""Point"",""coordinates"":[-2.576666666666666,59.250277777777775]}"
"EGKB","Biggin Hill","Biggin Hill","UK","GBR",51.33083333333334,0.0325,"{""type"":""Point"",""coordinates"":[0.0325,51.33083333333334]}"
"EGNJ","Humberside","Humberside","UK","GBR",53.574444444444445,-0.35083333333333333,"{""type"":""Point"",""coordinates"":[-0.35083333333333333,53.574444444444445]}"
"EGEN","North Ronaldsay","North Ronaldsay","UK","GBR",59.3675,-2.434444444444445,"{""type"":""Point"",""coordinates"":[-2.434444444444445,59.3675]}"
"EGEL","Coll","Coll","UK","GBR",56.60194444444445,-6.617777777777778,"{""type"":""Point"",""coordinates"":[-6.617777777777778,56.60194444444445]}"
"EGED","Eday","Eday","UK","GBR",59.190555555555555,-2.772222222222222,"{""type"":""Point"",""coordinates"":[-2.772222222222222,59.190555555555555]}"
"EG12","Flotta","Flotta","UK","GBR",58.82638888888889,-3.1422222222222222,"{""type"":""Point"",""coordinates"":[-3.1422222222222222,58.82638888888889]}"
"EGET","Tingwall","Lerwick","UK","GBR",60.19194444444444,-1.2436111111111112,"{""type"":""Point"",""coordinates"":[-1.2436111111111112,60.19194444444444]}"
"EG21","Velcourt","Ledbury","UK","GBR",52.00333333333333,-2.476388888888889,"{""type"":""Point"",""coordinates"":[-2.476388888888889,52.00333333333333]}"
"EGBB","Birmingham","Birmingham","UK","GBR",52.453855555555556,-1.7480277777777777,"{""type"":""Point"",""coordinates"":[-1.7480277777777777,52.453855555555556]}"
"EGDY","Yeovilton","Yeovilton","UK","GBR",51.008269444444444,-2.6454916666666666,"{""type"":""Point"",""coordinates"":[-2.6454916666666666,51.008269444444444]}"
"EGDN","Netheravon Army","Netheravon","UK","GBR",51.24712777777778,-1.7542583333333333,"{""type"":""Point"",""coordinates"":[-1.7542583333333333,51.24712777777778]}"
"EGVN","Brize Norton","Brize Norton","UK","GBR",51.74998611111111,-1.5829472222222223,"{""type"":""Point"",""coordinates"":[-1.5829472222222223,51.74998611111111]}"
"EGDX","St Athan","St Athan","UK","GBR",51.40475277777777,-3.435752777777778,"{""type"":""Point"",""coordinates"":[-3.435752777777778,51.40475277777777]}"
"EGKK","Gatwick","London","UK","GBR",51.14805555555556,-0.19027777777777777,"{""type"":""Point"",""coordinates"":[-0.19027777777777777,51.14805555555556]}"
"EGCJ","Sherburn-In-Elmet","Sherburn-In-Elmet","UK","GBR",53.784166666666664,-1.2177777777777778,"{""type"":""Point"",""coordinates"":[-1.2177777777777778,53.784166666666664]}"
"EGXP","Scampton","Scampton","UK","GBR",53.307944444444445,-0.5508194444444445,"{""type"":""Point"",""coordinates"":[-0.5508194444444445,53.307944444444445]}"
"EG37","Kirkbride","Kirkbride","UK","GBR",54.882222222222225,-3.2055555555555557,"{""type"":""Point"",""coordinates"":[-3.2055555555555557,54.882222222222225]}"
"EGHP","Popham","Popham","UK","GBR",51.19444444444444,-1.2361111111111112,"{""type"":""Point"",""coordinates"":[-1.2361111111111112,51.19444444444444]}"
"EG34","Rufforth","York","UK","GBR",53.9475,-1.1877777777777778,"{""type"":""Point"",""coordinates"":[-1.1877777777777778,53.9475]}"
"","Fearn","Fearn","UK","GBR",57.75805555555556,-3.943055555555556,"{""type"":""Point"",""coordinates"":[-3.943055555555556,57.75805555555556]}"
"EGPD","Dyce","Aberdeen","UK","GBR",57.2025,-2.1980555555555554,"{""type"":""Point"",""coordinates"":[-2.1980555555555554,57.2025]}"
"EG04","Breighton","Breighton","UK","GBR",53.801944444444445,-0.9141666666666667,"{""type"":""Point"",""coordinates"":[-0.9141666666666667,53.801944444444445]}"
"EGCF","Sandtoft","Sandtoft","UK","GBR",53.55972222222222,-0.8583333333333333,"{""type"":""Point"",""coordinates"":[-0.8583333333333333,53.55972222222222]}"
"EGBS","Shobdon","Shobdon","UK","GBR",52.24166666666667,-2.881111111111111,"{""type"":""Point"",""coordinates"":[-2.881111111111111,52.24166666666667]}"
"EGXC","Coningsby","Coningsby","UK","GBR",53.09316666666667,-0.16611666666666666,"{""type"":""Point"",""coordinates"":[-0.16611666666666666,53.09316666666667]}"
"EGUN","Mildenhall AB","Mildenhall","UK","GBR",52.36193333333333,0.48640833333333333,"{""type"":""Point"",""coordinates"":[0.48640833333333333,52.36193333333333]}"
"EGKA","Shoreham","Shoreham","UK","GBR",50.83555555555556,-0.2972222222222222,"{""type"":""Point"",""coordinates"":[-0.2972222222222222,50.83555555555556]}"
"EGCC","Manchester","Manchester","UK","GBR",53.35388888888889,-2.275,"{""type"":""Point"",""coordinates"":[-2.275,53.35388888888889]}"
"EGSH","Norwich","Norwich","UK","GBR",52.67583333333333,1.2827777777777778,"{""type"":""Point"",""coordinates"":[1.2827777777777778,52.67583333333333]}"
"EGNW","Wickenby","Wickenby","UK","GBR",53.316944444444445,-0.34888888888888886,"{""type"":""Point"",""coordinates"":[-0.34888888888888886,53.316944444444445]}"
"EGGD","Bristol","Bristol","UK","GBR",51.382669444444446,-2.7191,"{""type"":""Point"",""coordinates"":[-2.7191,51.382669444444446]}"
"EGPJ","Fife","Fife","UK","GBR",56.18333333333333,-3.2203333333333335,"{""type"":""Point"",""coordinates"":[-3.2203333333333335,56.18333333333333]}"
"EG07","Deenethorpe","Deenethorpe","UK","GBR",52.50361111111111,-0.5869444444444445,"{""type"":""Point"",""coordinates"":[-0.5869444444444445,52.50361111111111]}"
"EG13","Glenforsa","Glenforsa","UK","GBR",56.5175,-5.9141666666666675,"{""type"":""Point"",""coordinates"":[-5.9141666666666675,56.5175]}"
"EGHQ","Newquay","Newquay","UK","GBR",50.44083333333333,-4.995277777777778,"{""type"":""Point"",""coordinates"":[-4.995277777777778,50.44083333333333]}"
"EGUB","Benson","Benson","UK","GBR",51.61503888888889,-1.0958472222222222,"{""type"":""Point"",""coordinates"":[-1.0958472222222222,51.61503888888889]}"
"EGBM","Tatenhill","Tatenhill","UK","GBR",52.814166666666665,-1.7647222222222223,"{""type"":""Point"",""coordinates"":[-1.7647222222222223,52.814166666666665]}"
"EGBP","Kemble","Kemble","UK","GBR",51.668055555555554,-2.0569444444444445,"{""type"":""Point"",""coordinates"":[-2.0569444444444445,51.668055555555554]}"
"EGBK","Sywell","Northampton","UK","GBR",52.30611111111111,-0.7922222222222222,"{""type"":""Point"",""coordinates"":[-0.7922222222222222,52.30611111111111]}"
"EG25","Newbury Racecourse","Newbury","UK","GBR",51.39416666666666,-1.3144444444444445,"{""type"":""Point"",""coordinates"":[-1.3144444444444445,51.39416666666666]}"
"EGNY","Linley Hill","Beverley","UK","GBR",53.89833333333333,-0.36138888888888887,"{""type"":""Point"",""coordinates"":[-0.36138888888888887,53.89833333333333]}"
"EGCS","Sturgate","Sturgate","UK","GBR",53.38111111111111,-0.6852777777777778,"{""type"":""Point"",""coordinates"":[-0.6852777777777778,53.38111111111111]}"
"EGVP","Middle Wallop","Middle Wallop","UK","GBR",51.14935,-1.5702888888888888,"{""type"":""Point"",""coordinates"":[-1.5702888888888888,51.14935]}"
"EG31","Sackville Farm","Riseley","UK","GBR",52.26416666666667,-0.4847222222222222,"{""type"":""Point"",""coordinates"":[-0.4847222222222222,52.26416666666667]}"
"EGBD","Derby","Derby","UK","GBR",52.859722222222224,-1.6175,"{""type"":""Point"",""coordinates"":[-1.6175,52.859722222222224]}"
"EGTO","Rochester","Rochester","UK","GBR",51.35194444444445,0.5027777777777778,"{""type"":""Point"",""coordinates"":[0.5027777777777778,51.35194444444445]}"
"EG17","Insch","Insch","UK","GBR",57.31027777777778,-2.645,"{""type"":""Point"",""coordinates"":[-2.645,57.31027777777778]}"
"EG39","Stranraer","Castle Kennedy","UK","GBR",54.897777777777776,-4.935833333333334,"{""type"":""Point"",""coordinates"":[-4.935833333333334,54.897777777777776]}"
"EGOQ","Mona","Mona","UK","GBR",53.2593,-4.374011111111111,"{""type"":""Point"",""coordinates"":[-4.374011111111111,53.2593]}"
"EGBJ","Gloucestershire","Gloucestershire","UK","GBR",51.89416666666666,-2.167222222222222,"{""type"":""Point"",""coordinates"":[-2.167222222222222,51.89416666666666]}"
"EGNR","Hawarden","Hawarden","UK","GBR",53.17805555555555,-2.977777777777778,"{""type"":""Point"",""coordinates"":[-2.977777777777778,53.17805555555555]}"
"EGBG","Leicester","Leicester","UK","GBR",52.60777777777778,-1.0319444444444443,"{""type"":""Point"",""coordinates"":[-1.0319444444444443,52.60777777777778]}"
"EGBE","Coventry","Coventry","UK","GBR",52.36981111111111,-1.4796805555555557,"{""type"":""Point"",""coordinates"":[-1.4796805555555557,52.36981111111111]}"
"EGAC","Belfast City","Belfast","UK","GBR",54.61805555555556,-5.8725000000000005,"{""type"":""Point"",""coordinates"":[-5.8725000000000005,54.61805555555556]}"
"EGDI","Merryfield","Merryfield","UK","GBR",50.962500000000006,-2.935666666666667,"{""type"":""Point"",""coordinates"":[-2.935666666666667,50.962500000000006]}"
"EGAD","Newtownards","Newtownards","UK","GBR",54.58111111111111,-5.691944444444444,"{""type"":""Point"",""coordinates"":[-5.691944444444444,54.58111111111111]}"
"EG03","Audley End","Audley End","UK","GBR",52.00861111111111,0.22611111111111112,"{""type"":""Point"",""coordinates"":[0.22611111111111112,52.00861111111111]}"
"EGAB","St Angelo","Enniskillen","UK","GBR",54.39833333333333,-7.651111111111112,"{""type"":""Point"",""coordinates"":[-7.651111111111112,54.39833333333333]}"
"EGDR","Culdrose","Culdrose","UK","GBR",50.08539722222223,-5.254072222222222,"{""type"":""Point"",""coordinates"":[-5.254072222222222,50.08539722222223]}"
"EGLJ","Chalgrove","Chalgrove","UK","GBR",51.67444444444444,-1.0852777777777778,"{""type"":""Point"",""coordinates"":[-1.0852777777777778,51.67444444444444]}"
"EGHB","Maypole","Maypole","UK","GBR",51.33861111111111,1.1555555555555554,"{""type"":""Point"",""coordinates"":[1.1555555555555554,51.33861111111111]}"
"EG27","Royston","Nuthampstead","UK","GBR",51.99444444444445,0.06861111111111111,"{""type"":""Point"",""coordinates"":[0.06861111111111111,51.99444444444445]}"
"EGPH","Edinburgh","Edinburgh","UK","GBR",55.95,-3.3725,"{""type"":""Point"",""coordinates"":[-3.3725,55.95]}"
"EGLL","Heathrow","London","UK","GBR",51.4775,-0.4613888888888889,"{""type"":""Point"",""coordinates"":[-0.4613888888888889,51.4775]}"
"EGHL","Lasham","Lasham","UK","GBR",51.18666666666666,-1.0319444444444443,"{""type"":""Point"",""coordinates"":[-1.0319444444444443,51.18666666666666]}"
"EGBO","Halfpenny Green","Wolverhampton","UK","GBR",52.517713888888885,-2.2597833333333335,"{""type"":""Point"",""coordinates"":[-2.2597833333333335,52.517713888888885]}"
"EGEO","Oban","Oban","UK","GBR",56.46361111111111,-5.4,"{""type"":""Point"",""coordinates"":[-5.4,56.46361111111111]}"
"EGTH","Old Warden","Old Warden","UK","GBR",52.086666666666666,-0.3186111111111111,"{""type"":""Point"",""coordinates"":[-0.3186111111111111,52.086666666666666]}"
"EGSU","Duxford","Duxford","UK","GBR",52.090833333333336,0.13194444444444445,"{""type"":""Point"",""coordinates"":[0.13194444444444445,52.090833333333336]}"
"EGCN","Doncaster Sheffield","Doncaster Sheffield","UK","GBR",53.47528333333334,-1.0041361111111111,"{""type"":""Point"",""coordinates"":[-1.0041361111111111,53.47528333333334]}"
"EGSX","North Weald","North Weald","UK","GBR",51.72166666666667,0.15416666666666667,"{""type"":""Point"",""coordinates"":[0.15416666666666667,51.72166666666667]}"
"EGMA","Fowlmere","Fowlmere","UK","GBR",52.0775,0.06166666666666667,"{""type"":""Point"",""coordinates"":[0.06166666666666667,52.0775]}"
"EGNV","Durham Tees Valley","Durham Tees Valley","UK","GBR",54.509166666666665,-1.4294444444444445,"{""type"":""Point"",""coordinates"":[-1.4294444444444445,54.509166666666665]}"
"EG33","Gigha Island","Gigha Island","UK","GBR",55.65333333333333,-5.757777777777778,"{""type"":""Point"",""coordinates"":[-5.757777777777778,55.65333333333333]}"
"EG29","Plockton","Plockton","UK","GBR",57.33527777777778,-5.671944444444445,"{""type"":""Point"",""coordinates"":[-5.671944444444445,57.33527777777778]}"
"EGCB","Barton","Manchester","UK","GBR",53.47166666666667,-2.3897222222222223,"{""type"":""Point"",""coordinates"":[-2.3897222222222223,53.47166666666667]}"
"EGHA","Compton-Abbas","Compton-Abbas","UK","GBR",50.967222222222226,-2.153611111111111,"{""type"":""Point"",""coordinates"":[-2.153611111111111,50.967222222222226]}"
"EGTC","Cranfield","Cranfield","UK","GBR",52.07222222222222,-0.6166666666666667,"{""type"":""Point"",""coordinates"":[-0.6166666666666667,52.07222222222222]}"
"EGBF","Bedford","Bedford","UK","GBR",52.2325,-0.4455555555555556,"{""type"":""Point"",""coordinates"":[-0.4455555555555556,52.2325]}"
"EGCW","Welshpool","Welshpool","UK","GBR",52.629444444444445,-3.1525,"{""type"":""Point"",""coordinates"":[-3.1525,52.629444444444445]}"
"EG22","Little Snoring","Little Snoring","UK","GBR",52.86083333333333,0.9094444444444445,"{""type"":""Point"",""coordinates"":[0.9094444444444445,52.86083333333333]}"
"EGSN","Bourn","Bourn","UK","GBR",52.21055555555556,-0.042499999999999996,"{""type"":""Point"",""coordinates"":[-0.042499999999999996,52.21055555555556]}"
"EGBN","Nottingham","Nottingham","UK","GBR",52.919999999999995,-1.0791666666666666,"{""type"":""Point"",""coordinates"":[-1.0791666666666666,52.919999999999995]}"
"EGLA","Bodmin","Bodmin","UK","GBR",50.499722222222225,-4.6658333333333335,"{""type"":""Point"",""coordinates"":[-4.6658333333333335,50.499722222222225]}"
"EG14","Great Massingham","Great Massingham","UK","GBR",52.778888888888886,0.6725,"{""type"":""Point"",""coordinates"":[0.6725,52.778888888888886]}"
"EGSJ","Seething","Seething","UK","GBR",52.51111111111111,1.4172222222222224,"{""type"":""Point"",""coordinates"":[1.4172222222222224,52.51111111111111]}"
"EGEW","Westray","Westray","UK","GBR",59.35027777777778,-2.95,"{""type"":""Point"",""coordinates"":[-2.95,59.35027777777778]}"
"EGSP","Sibson","Peterborough","UK","GBR",52.55583333333333,-0.3863888888888889,"{""type"":""Point"",""coordinates"":[-0.3863888888888889,52.55583333333333]}"
"EGPL","Benbecula","Benbecula","UK","GBR",57.480555555555554,-7.363888888888889,"{""type"":""Point"",""coordinates"":[-7.363888888888889,57.480555555555554]}"
"EG01","Bruntingthorpe","Bruntingthorpe","UK","GBR",52.48694444444445,-1.1305555555555555,"{""type"":""Point"",""coordinates"":[-1.1305555555555555,52.48694444444445]}"
"EGYD","Cranwell","Cranwell","UK","GBR",53.02973333333333,-0.49275277777777776,"{""type"":""Point"",""coordinates"":[-0.49275277777777776,53.02973333333333]}"
"EGEF","Fair Isle","Fair Isle","UK","GBR",59.53472222222222,-1.6286111111111112,"{""type"":""Point"",""coordinates"":[-1.6286111111111112,59.53472222222222]}"
"EGJB","Guernsey","Guernsey","UK","GBR",49.43493055555555,-2.6028000000000002,"{""type"":""Point"",""coordinates"":[-2.6028000000000002,49.43493055555555]}"
"EGHJ","Bembridge","Bembridge","UK","GBR",50.67805555555555,-1.1094444444444445,"{""type"":""Point"",""coordinates"":[-1.1094444444444445,50.67805555555555]}"
"EG10","Moors National Park","Fadmoor","UK","GBR",54.308611111111105,-0.9738888888888889,"{""type"":""Point"",""coordinates"":[-0.9738888888888889,54.308611111111105]}"
"EGSO","Crowfield","Crowfield","UK","GBR",52.17111111111111,1.1111111111111112,"{""type"":""Point"",""coordinates"":[1.1111111111111112,52.17111111111111]}"
"EGFH","Swansea","Swansea","UK","GBR",51.60527777777778,-4.067777777777778,"{""type"":""Point"",""coordinates"":[-4.067777777777778,51.60527777777778]}"
"EGVO","Odiham","Odiham","UK","GBR",51.23441666666667,-0.9428083333333334,"{""type"":""Point"",""coordinates"":[-0.9428083333333334,51.23441666666667]}"
"EGSC","Cambridge","Cambridge","UK","GBR",52.205000000000005,0.175,"{""type"":""Point"",""coordinates"":[0.175,52.205000000000005]}"
"EGDC","Chivenor","Chivenor","UK","GBR",51.08972222222222,-4.150555555555556,"{""type"":""Point"",""coordinates"":[-4.150555555555556,51.08972222222222]}"
"EGHN","Sandown","Isle Of Wight","UK","GBR",50.653,-1.1821666666666668,"{""type"":""Point"",""coordinates"":[-1.1821666666666668,50.653]}"
"EGST","Elmsett","Elmsett","UK","GBR",52.07555555555556,0.9777777777777777,"{""type"":""Point"",""coordinates"":[0.9777777777777777,52.07555555555556]}"
"EG06","Northrepps","Cromer","UK","GBR",52.892,1.318,"{""type"":""Point"",""coordinates"":[1.318,52.892]}"
"EGHI","Southampton","Southampton","UK","GBR",50.95027777777778,-1.3566666666666667,"{""type"":""Point"",""coordinates"":[-1.3566666666666667,50.95027777777778]}"