"airportCode","airportName","cityName","countryName","countryCode","latitude","longitude","geometry"
"LGTT","Tatoi","Dekelia","Greece","GRC",38.10722222222223,23.766111111111112,"{""type"":""Point"",""coordinates"":[23.766111111111112,38.10722222222223]}"
"LGSY","Skiros AB","Skiros","Greece","GRC",38.9675,24.4875,"{""type"":""Point"",""coordinates"":[24.4875,38.9675]}"
"LGTL","Kasteli","Kasteli","Greece","GRC",35.19305555555555,25.329166666666666,"{""type"":""Point"",""coordinates"":[25.329166666666666,35.19305555555555]}"
"LGZA","Dionisios Solomos","Zakinthos","Greece","GRC",37.75111111111111,20.884166666666665,"{""type"":""Point"",""coordinates"":[20.884166666666665,37.75111111111111]}"
"LGSV","Stefanovikion Army","Stefanovikion","Greece","GRC",39.475,22.783333333333335,"{""type"":""Point"",""coordinates"":[22.783333333333335,39.475]}"
"LGST","Vitsentzos Kornaros","Sitia","Greece","GRC",35.21611111111111,26.101111111111113,"{""type"":""Point"",""coordinates"":[26.101111111111113,35.21611111111111]}"
"LGKZ","Filippos","Kozani","Greece","GRC",40.28583333333333,21.841666666666665,"{""type"":""Point"",""coordinates"":[21.841666666666665,40.28583333333333]}"
"LGSR","Santorini","Santorini","Greece","GRC",36.399166666666666,25.479166666666664,"{""type"":""Point"",""coordinates"":[25.479166666666664,36.399166666666666]}"
"LGTG","Tanagra","Tanagra","Greece","GRC",38.333333333333336,23.55,"{""type"":""Point"",""coordinates"":[23.55,38.333333333333336]}"
"LGSO","Dimitrios Vikelas","Syros","Greece","GRC",37.42305555555555,24.95,"{""type"":""Point"",""coordinates"":[24.95,37.42305555555555]}"
"LGRX","Araxos","Araxos","Greece","GRC",38.151111111111106,21.425555555555558,"{""type"":""Point"",""coordinates"":[21.425555555555558,38.151111111111106]}"
"LGAX","Alexandria","Alexandria","Greece","GRC",40.651111111111106,22.48888888888889,"{""type"":""Point"",""coordinates"":[22.48888888888889,40.651111111111106]}"
"LGPZ","Aktion","Preveza","Greece","GRC",38.925555555555555,20.765,"{""type"":""Point"",""coordinates"":[20.765,38.925555555555555]}"
"LGTS","Makedonia","Thessaloniki","Greece","GRC",40.51972222222222,22.970916666666664,"{""type"":""Point"",""coordinates"":[22.970916666666664,40.51972222222222]}"
"LGMG","Megara","Megara","Greece","GRC",37.981388888888894,23.366111111111113,"{""type"":""Point"",""coordinates"":[23.366111111111113,37.981388888888894]}"
"LGNX","Naxos","Naxos","Greece","GRC",37.08111111111111,25.368055555555557,"{""type"":""Point"",""coordinates"":[25.368055555555557,37.08111111111111]}"
"LGMT","Odysseas Elytis","Mitilini","Greece","GRC",39.05777777777777,26.59861111111111,"{""type"":""Point"",""coordinates"":[26.59861111111111,39.05777777777777]}"
"LGBL","Nea Anchialos","Almiros","Greece","GRC",39.21944444444445,22.794444444444448,"{""type"":""Point"",""coordinates"":[22.794444444444448,39.21944444444445]}"
"LGAD","Andravida","Andravida","Greece","GRC",37.92527777777777,21.29138888888889,"{""type"":""Point"",""coordinates"":[21.29138888888889,37.92527777777777]}"
"LGML","Milos","Milos","Greece","GRC",36.69694444444444,24.47694444444444,"{""type"":""Point"",""coordinates"":[24.47694444444444,36.69694444444444]}"
"LGSM","Aristarchos of Samos","Samos","Greece","GRC",37.689166666666665,26.91222222222222,"{""type"":""Point"",""coordinates"":[26.91222222222222,37.689166666666665]}"
"LGSK","Alexandros Papadiamandis","Skiathos","Greece","GRC",39.177499999999995,23.503611111111113,"{""type"":""Point"",""coordinates"":[23.503611111111113,39.177499999999995]}"
"LGMK","Mikonos","Mikonos","Greece","GRC",37.43722222222222,25.34722222222222,"{""type"":""Point"",""coordinates"":[25.34722222222222,37.43722222222222]}"
"LGLM","Ifaistos","Limnos","Greece","GRC",39.91722222222222,25.23638888888889,"{""type"":""Point"",""coordinates"":[25.23638888888889,39.91722222222222]}"
"LGEP","Epitalio","Epitalio","Greece","GRC",37.61638888888889,21.499722222222225,"{""type"":""Point"",""coordinates"":[21.499722222222225,37.61638888888889]}"
"LGKY","Kalymnos","Kalymnos","Greece","GRC",36.96333333333334,26.940555555555555,"{""type"":""Point"",""coordinates"":[26.940555555555555,36.96333333333334]}"
"LGSA","Ioannis Daskalogiannis","Chania","Greece","GRC",35.53138888888889,24.15111111111111,"{""type"":""Point"",""coordinates"":[24.15111111111111,35.53138888888889]}"
"LGKL","Kalamata","Kalamata","Greece","GRC",37.068333333333335,22.025277777777777,"{""type"":""Point"",""coordinates"":[22.025277777777777,37.068333333333335]}"
"LGKP","Karpathos","Karpathos","Greece","GRC",35.42111111111111,27.145833333333332,"{""type"":""Point"",""coordinates"":[27.145833333333332,35.42111111111111]}"
"LGKO","Ippokratis","Kos","Greece","GRC",36.79472222222222,27.09111111111111,"{""type"":""Point"",""coordinates"":[27.09111111111111,36.79472222222222]}"
"LGKR","Ioannis Kapodistrias","Kerkira","Greece","GRC",39.60194444444445,19.91222222222222,"{""type"":""Point"",""coordinates"":[19.91222222222222,39.60194444444445]}"
"LGKF","Anna Pollatou","Kefallinia","Greece","GRC",38.12,20.500555555555554,"{""type"":""Point"",""coordinates"":[20.500555555555554,38.12]}"
"LGIK","Ikaros","Ikaria","Greece","GRC",37.68277777777777,26.346944444444443,"{""type"":""Point"",""coordinates"":[26.346944444444443,37.68277777777777]}"
"LGTP","Tripolis","Tripolis","Greece","GRC",37.516666666666666,22.4,"{""type"":""Point"",""coordinates"":[22.4,37.516666666666666]}"
"LGKM","Amigdaleon","Kavala","Greece","GRC",40.96666666666667,24.35,"{""type"":""Point"",""coordinates"":[24.35,40.96666666666667]}"
"LGKJ","Kastelorizo","Kastelorizo","Greece","GRC",36.141666666666666,29.57638888888889,"{""type"":""Point"",""coordinates"":[29.57638888888889,36.141666666666666]}"
"LGKC","Alexandros Aristotelous Onassis","Kithira","Greece","GRC",36.274166666666666,23.016666666666666,"{""type"":""Point"",""coordinates"":[23.016666666666666,36.274166666666666]}"
"LGLR","Larissa","Larissa","Greece","GRC",39.64861111111111,22.448611111111113,"{""type"":""Point"",""coordinates"":[22.448611111111113,39.64861111111111]}"
"LGKV","Megas Alexandros","Kavala","Greece","GRC",40.913888888888884,24.619722222222222,"{""type"":""Point"",""coordinates"":[24.619722222222222,40.913888888888884]}"
"LGKA","Aristotelis","Kastoria","Greece","GRC",40.44638888888888,21.28111111111111,"{""type"":""Point"",""coordinates"":[21.28111111111111,40.44638888888888]}"
"LGSD","Sedes","Sedes","Greece","GRC",40.53333333333333,23.033333333333335,"{""type"":""Point"",""coordinates"":[23.033333333333335,40.53333333333333]}"
"LGKS","Kassos","Kassos","Greece","GRC",35.421388888888885,26.91,"{""type"":""Point"",""coordinates"":[26.91,35.421388888888885]}"
"LGAG","Agrinion","Agrinion","Greece","GRC",38.60277777777778,21.35,"{""type"":""Point"",""coordinates"":[21.35,38.60277777777778]}"
"LGAV","Eleftherios Venizelos Intl","Athens","Greece","GRC",37.936699999999995,23.9445,"{""type"":""Point"",""coordinates"":[23.9445,37.936699999999995]}"
"LGEL","Elefsis","Elefsis","Greece","GRC",38.069500000000005,23.554166666666667,"{""type"":""Point"",""coordinates"":[23.554166666666667,38.069500000000005]}"
"LGIR","Nikos Kazantzakis","Iraklion","Greece","GRC",35.33972222222222,25.18027777777778,"{""type"":""Point"",""coordinates"":[25.18027777777778,35.33972222222222]}"
"LGAL","Dimokritos","Alexandroupolis","Greece","GRC",40.85583333333334,25.95611111111111,"{""type"":""Point"",""coordinates"":[25.95611111111111,40.85583333333334]}"
"LGIO","King Pyrros","Ioannina","Greece","GRC",39.697222222222216,20.821944444444444,"{""type"":""Point"",""coordinates"":[20.821944444444444,39.697222222222216]}"
"LGPA","Paros","Paros","Greece","GRC",37.01027777777778,25.128055555555555,"{""type"":""Point"",""coordinates"":[25.128055555555555,37.01027777777778]}"
"LGLE","Leros","Leros","Greece","GRC",37.184999999999995,26.8,"{""type"":""Point"",""coordinates"":[26.8,37.184999999999995]}"
"LGHI","Omiros","Chios","Greece","GRC",38.343333333333334,26.140555555555554,"{""type"":""Point"",""coordinates"":[26.140555555555554,38.343333333333334]}"
"LGRP","Diagoras","Rodos","Greece","GRC",36.405277777777776,28.08611111111111,"{""type"":""Point"",""coordinates"":[28.08611111111111,36.405277777777776]}"
"LGKN","Kotroni","Marathon","Greece","GRC",38.13527777777778,23.954722222222223,"{""type"":""Point"",""coordinates"":[23.954722222222223,38.13527777777778]}"
"LGPL","Astypalaia","Astypalaia","Greece","GRC",36.580000000000005,26.37527777777778,"{""type"":""Point"",""coordinates"":[26.37527777777778,36.580000000000005]}"
"","Florina","Florina","Greece","GRC",40.80555555555555,21.434722222222224,"{""type"":""Point"",""coordinates"":[21.434722222222224,40.80555555555555]}"