"airportCode","airportName","cityName","countryName","countryCode","latitude","longitude","geometry"
"VOVZ","Vishakhapatnam","Vishakhapatnam","India","IND",17.722166666666666,83.22277777777778,"{""type"":""Point"",""coordinates"":[83.22277777777778,17.722166666666666]}"
"VOTV","Thiruvananthapuram","Thiruvananthapuram","India","IND",8.479444444444445,76.92,"{""type"":""Point"",""coordinates"":[76.92,8.479444444444445]}"
"VOTP","Tirupati","Tirupati","India","IND",13.633055555555556,79.54194444444444,"{""type"":""Point"",""coordinates"":[79.54194444444444,13.633055555555556]}"
"VOTK","Tuticorin","Tuticorin","India","IND",8.722283333333333,78.02616666666667,"{""type"":""Point"",""coordinates"":[78.02616666666667,8.722283333333333]}"
"VOYK","Yelahanka","Yelahanka","India","IND",13.135519444444444,77.60603055555555,"{""type"":""Point"",""coordinates"":[77.60603055555555,13.135519444444444]}"
"VOSX","Sulur","Sulur","India","IND",11.01351111111111,77.15969722222223,"{""type"":""Point"",""coordinates"":[77.15969722222223,11.01351111111111]}"
"VOMY","Mysore","Mysore","India","IND",12.232452777777779,76.6563388888889,"{""type"":""Point"",""coordinates"":[76.6563388888889,12.232452777777779]}"
"VOMM","Chennai Intl","Chennai","India","IND",12.995,80.17555555555556,"{""type"":""Point"",""coordinates"":[80.17555555555556,12.995]}"
"VOHY","Begumpet","Hyderabad","India","IND",17.453055555555554,78.45805555555556,"{""type"":""Point"",""coordinates"":[78.45805555555556,17.453055555555554]}"
"VOHB","Hubli","Hubli","India","IND",15.361944444444443,75.08444444444444,"{""type"":""Point"",""coordinates"":[75.08444444444444,15.361944444444443]}"
"VOCX","Car Nicobar","Car Nicobar","India","IND",9.152508333333333,92.81962777777777,"{""type"":""Point"",""coordinates"":[92.81962777777777,9.152508333333333]}"
"VOGO","Dabolim","Goa","India","IND",15.380836111111112,73.82706388888889,"{""type"":""Point"",""coordinates"":[73.82706388888889,15.380836111111112]}"
"VOCB","Coimbatore","Coimbatore","India","IND",11.026944444444446,77.04166666666667,"{""type"":""Point"",""coordinates"":[77.04166666666667,11.026944444444446]}"
"VOBZ","Vijayawada","Vijayawada","India","IND",16.533611111111114,80.80333333333333,"{""type"":""Point"",""coordinates"":[80.80333333333333,16.533611111111114]}"
"VOBL","Kempegowda Intl","Bengaluru","India","IND",13.19888888888889,77.70555555555556,"{""type"":""Point"",""coordinates"":[77.70555555555556,13.19888888888889]}"
"VOAT","Agatti","Agatti","India","IND",10.824166666666667,72.17666666666668,"{""type"":""Point"",""coordinates"":[72.17666666666668,10.824166666666667]}"
"VIUX","Udhampur","Udhampur","India","IND",32.90218888888889,75.156225,"{""type"":""Point"",""coordinates"":[75.156225,32.90218888888889]}"
"VISG","Suratgarh","Suratgarh","India","IND",29.387774999999998,73.90392222222223,"{""type"":""Point"",""coordinates"":[73.90392222222223,29.387774999999998]}"
"VISA","Sirsa","Sirsa","India","IND",29.560580555555557,75.006075,"{""type"":""Point"",""coordinates"":[75.006075,29.560580555555557]}"
"VIPT","Pantnagar","Pantnagar","India","IND",29.03222222222222,79.4725,"{""type"":""Point"",""coordinates"":[79.4725,29.03222222222222]}"
"VOHK","Hakimpet","Hakimpet","India","IND",17.553491666666666,78.5249,"{""type"":""Point"",""coordinates"":[78.5249,17.553491666666666]}"
"VIPK","Pathankot","Pathankot","India","IND",32.23377777777778,75.63462777777778,"{""type"":""Point"",""coordinates"":[75.63462777777778,32.23377777777778]}"
"VILH","Leh","Leh","India","IND",34.13666666666666,77.54666666666667,"{""type"":""Point"",""coordinates"":[77.54666666666667,34.13666666666666]}"
"VOML","Mangalore","Mangalore","India","IND",12.961944444444443,74.88972222222223,"{""type"":""Point"",""coordinates"":[74.88972222222223,12.961944444444443]}"
"VIKO","Kota","Kota","India","IND",25.160083333333333,75.84783333333333,"{""type"":""Point"",""coordinates"":[75.84783333333333,25.160083333333333]}"
"VIKL","Kargil","Kargil","India","IND",34.52427222222222,76.15590833333334,"{""type"":""Point"",""coordinates"":[76.15590833333334,34.52427222222222]}"
"VOND","Nanded","Nanded","India","IND",19.181036111111112,77.32254722222221,"{""type"":""Point"",""coordinates"":[77.32254722222221,19.181036111111112]}"
"VIJU","Jammu","Jammu","India","IND",32.69333333333333,74.83999999999999,"{""type"":""Point"",""coordinates"":[74.83999999999999,32.69333333333333]}"
"VIJR","Jaisalmer","Jaisalmer","India","IND",26.89,70.86666666666666,"{""type"":""Point"",""coordinates"":[70.86666666666666,26.89]}"
"VEGY","Gaya","Gaya","India","IND",24.748055555555556,84.94250000000001,"{""type"":""Point"",""coordinates"":[84.94250000000001,24.748055555555556]}"
"VIJP","Jaipur","Jaipur","India","IND",26.824166666666667,75.8025,"{""type"":""Point"",""coordinates"":[75.8025,26.824166666666667]}"
"VIHX","Halwara","Halwara","India","IND",30.748533333333334,75.6297861111111,"{""type"":""Point"",""coordinates"":[75.6297861111111,30.748533333333334]}"
"VOTR","Tiruchirappalli","Tiruchirappalli","India","IND",10.765555555555556,78.715,"{""type"":""Point"",""coordinates"":[78.715,10.765555555555556]}"
"VIGG","Kangra","Kangra","India","IND",32.165277777777774,76.26194444444444,"{""type"":""Point"",""coordinates"":[76.26194444444444,32.165277777777774]}"
"VIDN","Dehradun","Dehradun","India","IND",30.190555555555555,78.18222222222222,"{""type"":""Point"",""coordinates"":[78.18222222222222,30.190555555555555]}"
"VEBI","Barapani","Barapani","India","IND",25.703333333333333,91.97805555555556,"{""type"":""Point"",""coordinates"":[91.97805555555556,25.703333333333333]}"
"VIGR","Maharajpur","Gwalior","India","IND",26.291666666666668,78.22833333333334,"{""type"":""Point"",""coordinates"":[78.22833333333334,26.291666666666668]}"
"VIDX","Hindan","Hindan","India","IND",28.707702777777776,77.35891111111111,"{""type"":""Point"",""coordinates"":[77.35891111111111,28.707702777777776]}"
"VICX","Chakeri","Kanpur","India","IND",26.4043,80.41011944444445,"{""type"":""Point"",""coordinates"":[80.41011944444445,26.4043]}"
"VIBL","Bakshi Ka Talab","Bakshi Ka Talab","India","IND",26.98833888888889,80.89311666666667,"{""type"":""Point"",""coordinates"":[80.89311666666667,26.98833888888889]}"
"VIBK","Nal","Bikaner","India","IND",28.070605555555556,73.20716111111112,"{""type"":""Point"",""coordinates"":[73.20716111111112,28.070605555555556]}"
"VOTJ","Thanjavur","Thanjavur","India","IND",10.722427777777778,79.10156666666666,"{""type"":""Point"",""coordinates"":[79.10156666666666,10.722427777777778]}"
"VIAX","Adampur","Adampur","India","IND",31.433758333333333,75.758825,"{""type"":""Point"",""coordinates"":[75.758825,31.433758333333333]}"
"VIAR","Sri Guru Ram Dass Jee Intl","Amritsar","India","IND",31.704722222222223,74.80194444444444,"{""type"":""Point"",""coordinates"":[74.80194444444444,31.704722222222223]}"
"VETZ","Tezpur","Tezpur","India","IND",26.709138888888887,92.78473888888888,"{""type"":""Point"",""coordinates"":[92.78473888888888,26.709138888888887]}"
"VILK","Chaudhary Charan Singh","Lucknow","India","IND",26.761944444444445,80.88333333333334,"{""type"":""Point"",""coordinates"":[80.88333333333334,26.761944444444445]}"
"VEPT","Patna","Patna","India","IND",25.59361111111111,85.09194444444444,"{""type"":""Point"",""coordinates"":[85.09194444444444,25.59361111111111]}"
"VERP","Swami Vivekananda","Raipur","India","IND",21.18111111111111,81.73861111111111,"{""type"":""Point"",""coordinates"":[81.73861111111111,21.18111111111111]}"
"VIAW","Awantipur","Awantipur","India","IND",33.87662777777778,74.97568055555556,"{""type"":""Point"",""coordinates"":[74.97568055555556,33.87662777777778]}"
"VEBN","Lal Bahadur Shastri","Varanasi","India","IND",25.45138888888889,82.8586111111111,"{""type"":""Point"",""coordinates"":[82.8586111111111,25.45138888888889]}"
"VIBT","Bathinda","Bathinda","India","IND",30.26972222222222,74.75666666666666,"{""type"":""Point"",""coordinates"":[74.75666666666666,30.26972222222222]}"
"VO95","Hosur","Hosur","India","IND",12.662416666666667,77.76283333333333,"{""type"":""Point"",""coordinates"":[77.76283333333333,12.662416666666667]}"
"VERC","Birsa Munda","Ranchi","India","IND",23.31416666666667,85.32111111111111,"{""type"":""Point"",""coordinates"":[85.32111111111111,23.31416666666667]}"
"VEPU","Purnea","Purnea","India","IND",25.759594444444446,87.41001111111112,"{""type"":""Point"",""coordinates"":[87.41001111111112,25.759594444444446]}"
"VOHS","Rajiv Gandhi Intl","Hyderabad","India","IND",17.240555555555556,78.42888888888889,"{""type"":""Point"",""coordinates"":[78.42888888888889,17.240555555555556]}"
"VIJO","Jodhpur","Jodhpur","India","IND",26.256666666666668,73.05166666666666,"{""type"":""Point"",""coordinates"":[73.05166666666666,26.256666666666668]}"
"VOCI","Cochin Intl","Cochin","India","IND",10.15388888888889,76.40694444444445,"{""type"":""Point"",""coordinates"":[76.40694444444445,10.15388888888889]}"
"VISR","Srinagar","Srinagar","India","IND",33.98833333333334,74.775,"{""type"":""Point"",""coordinates"":[74.775,33.98833333333334]}"
"VIAG","Agra","Agra","India","IND",27.15833333333333,77.96166666666667,"{""type"":""Point"",""coordinates"":[77.96166666666667,27.15833333333333]}"
"VAJM","Jamnagar","Jamnagar","India","IND",22.466666666666665,70.01666666666667,"{""type"":""Point"",""coordinates"":[70.01666666666667,22.466666666666665]}"
"VEPH","Panagarh","Panagarh","India","IND",23.47433611111111,87.42750833333334,"{""type"":""Point"",""coordinates"":[87.42750833333334,23.47433611111111]}"
"VOPN","Sri Sathya Sai","Sri Sathya Sai","India","IND",14.148055555555555,77.79055555555556,"{""type"":""Point"",""coordinates"":[77.79055555555556,14.148055555555555]}"
"VELP","Lengpui","Lengpui","India","IND",23.838055555555556,92.62666666666667,"{""type"":""Point"",""coordinates"":[92.62666666666667,23.838055555555556]}"
"VEGT","Guwahati","Guwahati","India","IND",26.105,91.58555555555554,"{""type"":""Point"",""coordinates"":[91.58555555555554,26.105]}"
"VEMN","Dibrugarh","Dibrugarh","India","IND",27.481111111111108,95.01805555555555,"{""type"":""Point"",""coordinates"":[95.01805555555555,27.481111111111108]}"
"VEKU","Kumbhirgram","Silchar","India","IND",24.91333333333333,92.98,"{""type"":""Point"",""coordinates"":[92.98,24.91333333333333]}"
"VEKO","Khajuraho","Khajuraho","India","IND",24.82,79.91833333333334,"{""type"":""Point"",""coordinates"":[79.91833333333334,24.82]}"
"VIBR","Kullu Manali","Kullu Manali","India","IND",31.876944444444444,77.15527777777778,"{""type"":""Point"",""coordinates"":[77.15527777777778,31.876944444444444]}"
"VEJT","Jorhat","Jorhat","India","IND",26.733333333333334,94.18333333333334,"{""type"":""Point"",""coordinates"":[94.18333333333334,26.733333333333334]}"
"VIDP","Indira Gandhi Intl","Delhi","India","IND",28.56861111111111,77.11222222222221,"{""type"":""Point"",""coordinates"":[77.11222222222221,28.56861111111111]}"
"VEJS","Jamshedpur","Jamshedpur","India","IND",22.81455,86.16901111111112,"{""type"":""Point"",""coordinates"":[86.16901111111112,22.81455]}"
"VODG","Dundigal","Hyderabad","India","IND",17.627177777777778,78.40336111111111,"{""type"":""Point"",""coordinates"":[78.40336111111111,17.627177777777778]}"
"VAGD","Gondia","Gondia","India","IND",21.523555555555554,80.28769444444444,"{""type"":""Point"",""coordinates"":[80.28769444444444,21.523555555555554]}"
"VAID","Devi Ahilyabai Holkar","Indore","India","IND",22.723333333333333,75.80555555555556,"{""type"":""Point"",""coordinates"":[75.80555555555556,22.723333333333333]}"
"VEDX","Kalaikunda","Kalaikunda","India","IND",22.33950833333333,87.21449722222222,"{""type"":""Point"",""coordinates"":[87.21449722222222,22.33950833333333]}"
"VAAU","Aurangabad","Aurangabad","India","IND",19.864444444444445,75.39750000000001,"{""type"":""Point"",""coordinates"":[75.39750000000001,19.864444444444445]}"
"VEAT","Agartala","Agartala","India","IND",23.890555555555554,91.23916666666666,"{""type"":""Point"",""coordinates"":[91.23916666666666,23.890555555555554]}"
"VAAH","Ahmedabad","Ahmedabad","India","IND",23.07111111111111,72.62638888888888,"{""type"":""Point"",""coordinates"":[72.62638888888888,23.07111111111111]}"
"VECC","Netaji Subhash Chandra Bose Intl","Kolkata","India","IND",22.653888888888886,88.44666666666667,"{""type"":""Point"",""coordinates"":[88.44666666666667,22.653888888888886]}"
"VOTX","Tambaram","Tambaram","India","IND",12.90721388888889,80.1218611111111,"{""type"":""Point"",""coordinates"":[80.1218611111111,12.90721388888889]}"
"VEIM","Imphal","Imphal","India","IND",24.764166666666668,93.89944444444446,"{""type"":""Point"",""coordinates"":[93.89944444444446,24.764166666666668]}"
"VAKE","Kandla","Kandla","India","IND",23.111666666666668,70.10138888888888,"{""type"":""Point"",""coordinates"":[70.10138888888888,23.111666666666668]}"
"VIDD","Safdarjung","Delhi","India","IND",28.583333333333332,77.20805555555556,"{""type"":""Point"",""coordinates"":[77.20805555555556,28.583333333333332]}"
"VOBG","Hal","Bengaluru","India","IND",12.952222222222222,77.66472222222222,"{""type"":""Point"",""coordinates"":[77.66472222222222,12.952222222222222]}"
"VECA","Chabua","Chabua","India","IND",27.462230555555553,95.11765,"{""type"":""Point"",""coordinates"":[95.11765,27.462230555555553]}"
"VEBT","Bihta","Bihta","India","IND",25.58888888888889,84.88472222222222,"{""type"":""Point"",""coordinates"":[84.88472222222222,25.58888888888889]}"
"VEHX","Hashimara","Hashimara","India","IND",26.698283333333332,89.36907777777778,"{""type"":""Point"",""coordinates"":[89.36907777777778,26.698283333333332]}"
"VEMR","Dimapur","Dimapur","India","IND",25.883333333333333,93.77111111111111,"{""type"":""Point"",""coordinates"":[93.77111111111111,25.883333333333333]}"
"VIUT","Uttarlai","Uttarlai","India","IND",25.812994444444445,71.48228611111111,"{""type"":""Point"",""coordinates"":[71.48228611111111,25.812994444444445]}"
"VAUD","Udaipur","Udaipur","India","IND",24.6175,73.89444444444445,"{""type"":""Point"",""coordinates"":[73.89444444444445,24.6175]}"
"VEBD","Baghdogra","Baghdogra","India","IND",26.683333333333334,88.33333333333333,"{""type"":""Point"",""coordinates"":[88.33333333333333,26.683333333333334]}"
"VEAB","Bamhrauli","Allahabad","India","IND",25.44,81.735,"{""type"":""Point"",""coordinates"":[81.735,25.44]}"
"VOCL","Calicut","Calicut","India","IND",11.137777777777778,75.95055555555555,"{""type"":""Point"",""coordinates"":[75.95055555555555,11.137777777777778]}"
"VEDH","Darbhanga","Darbhanga","India","IND",26.19278611111111,85.91688611111111,"{""type"":""Point"",""coordinates"":[85.91688611111111,26.19278611111111]}"
"VASU","Surat","Surat","India","IND",21.116111111111113,72.74194444444444,"{""type"":""Point"",""coordinates"":[72.74194444444444,21.116111111111113]}"
"VAOZ","Ozar","Ozar","India","IND",20.12,73.91333333333334,"{""type"":""Point"",""coordinates"":[73.91333333333334,20.12]}"
"VOBM","Belgaum","Belgaum","India","IND",15.858333333333333,74.61777777777777,"{""type"":""Point"",""coordinates"":[74.61777777777777,15.858333333333333]}"
"VABJ","Bhuj","Bhuj","India","IND",23.28666666666667,69.67,"{""type"":""Point"",""coordinates"":[69.67,23.28666666666667]}"
"VIBY","Bareilly","Bareilly","India","IND",28.422061111111113,79.45084166666668,"{""type"":""Point"",""coordinates"":[79.45084166666668,28.422061111111113]}"
"VORY","Rajahmundry","Rajahmundry","India","IND",17.109444444444446,81.81944444444444,"{""type"":""Point"",""coordinates"":[81.81944444444444,17.109444444444446]}"
"VAAK","Akola","Akola","India","IND",20.698555555555554,77.05769444444444,"{""type"":""Point"",""coordinates"":[77.05769444444444,20.698555555555554]}"
"VAKS","Keshod","Keshod","India","IND",21.315,70.26916666666666,"{""type"":""Point"",""coordinates"":[70.26916666666666,21.315]}"
"VIAM","Ambala","Ambala","India","IND",30.368147222222223,76.81666388888888,"{""type"":""Point"",""coordinates"":[76.81666388888888,30.368147222222223]}"
"VAPR","Porbandar","Porbandar","India","IND",21.650277777777777,69.65861111111111,"{""type"":""Point"",""coordinates"":[69.65861111111111,21.650277777777777]}"
"VABP","Raja Bhoj","Bhopal","India","IND",23.286944444444448,77.33694444444444,"{""type"":""Point"",""coordinates"":[77.33694444444444,23.286944444444448]}"
"VARK","Rajkot","Rajkot","India","IND",22.309444444444445,70.77944444444444,"{""type"":""Point"",""coordinates"":[70.77944444444444,22.309444444444445]}"
"VABO","Vadodara","Vadodara","India","IND",22.33,73.21888888888888,"{""type"":""Point"",""coordinates"":[73.21888888888888,22.33]}"
"VAJL","Jalgaon","Jalgaon","India","IND",20.961594444444444,75.62456388888889,"{""type"":""Point"",""coordinates"":[75.62456388888889,20.961594444444444]}"
"VABB","Chhatrapati Shivaji Intl","Mumbai","India","IND",19.091666666666665,72.86611111111111,"{""type"":""Point"",""coordinates"":[72.86611111111111,19.091666666666665]}"
"VISP","Sarsawa","Saharanpur","India","IND",29.993919444444444,77.42531111111111,"{""type"":""Point"",""coordinates"":[77.42531111111111,29.993919444444444]}"
"VABV","Bhavnagar","Bhavnagar","India","IND",21.754166666666666,72.19055555555556,"{""type"":""Point"",""coordinates"":[72.19055555555556,21.754166666666666]}"
"VITE","Thoise","Thoise","India","IND",34.65262222222222,77.37575277777778,"{""type"":""Point"",""coordinates"":[77.37575277777778,34.65262222222222]}"
"VANP","Dr. Ambedkar Intl","Nagpur","India","IND",21.091944444444444,79.04833333333333,"{""type"":""Point"",""coordinates"":[79.04833333333333,21.091944444444444]}"
"VEGK","Gorakhpur","Gorakhpur","India","IND",26.741666666666667,83.45166666666667,"{""type"":""Point"",""coordinates"":[83.45166666666667,26.741666666666667]}"
"VOPB","Port Blair","Port Blair","India","IND",11.641166666666667,92.72966666666667,"{""type"":""Point"",""coordinates"":[92.72966666666667,11.641166666666667]}"
"VAKP","Kolhapur","Kolhapur","India","IND",16.665277777777778,74.29138888888889,"{""type"":""Point"",""coordinates"":[74.29138888888889,16.665277777777778]}"
"VANY","Naliya","Naliya","India","IND",23.215883333333334,68.89105,"{""type"":""Point"",""coordinates"":[68.89105,23.215883333333334]}"
"VOMD","Madurai","Madurai","India","IND",9.835277777777778,78.08833333333332,"{""type"":""Point"",""coordinates"":[78.08833333333332,9.835277777777778]}"
"VAPO","Pune","Pune","India","IND",18.583333333333332,73.92,"{""type"":""Point"",""coordinates"":[73.92,18.583333333333332]}"
"VELR","Lilabari","Lilabari","India","IND",27.291111111111114,94.09341666666666,"{""type"":""Point"",""coordinates"":[94.09341666666666,27.291111111111114]}"
"VILD","Ludhiana","Ludhiana","India","IND",30.852583333333335,75.95666666666666,"{""type"":""Point"",""coordinates"":[75.95666666666666,30.852583333333335]}"
"VEDG","Durgapur","Durgapur","India","IND",23.624444444444446,87.2425,"{""type"":""Point"",""coordinates"":[87.2425,23.624444444444446]}"
"VICG","Chandigarh","Chandigarh","India","IND",30.673333333333336,76.78999999999999,"{""type"":""Point"",""coordinates"":[76.78999999999999,30.673333333333336]}"
"VADU","Diu","Diu","India","IND",20.71333333333333,70.92361111111111,"{""type"":""Point"",""coordinates"":[70.92361111111111,20.71333333333333]}"
"VEBS","Bhubaneshwar","Bhubaneshwar","India","IND",20.246666666666666,85.81861111111111,"{""type"":""Point"",""coordinates"":[85.81861111111111,20.246666666666666]}"
"VOBR","Bidar","Bidar","India","IND",17.908080555555554,77.48714166666667,"{""type"":""Point"",""coordinates"":[77.48714166666667,17.908080555555554]}"
"VAJB","Jabalpur","Jabalpur","India","IND",23.183333333333334,80.06055555555555,"{""type"":""Point"",""coordinates"":[80.06055555555555,23.183333333333334]}"
"VEAN","Along","Along","India","IND",28.1675,94.80555555555556,"{""type"":""Point"",""coordinates"":[94.80555555555556,28.1675]}"