"airportCode","airportName","cityName","countryName","countryCode","latitude","longitude","geometry"
"OIZS","Saravan","Saravan","Iran","IRN",27.40833333333333,62.32055555555556,"{""type"":""Point"",""coordinates"":[62.32055555555556,27.40833333333333]}"
"OIZB","Zabol","Zabol","Iran","IRN",31.098333333333333,61.54388888888889,"{""type"":""Point"",""coordinates"":[61.54388888888889,31.098333333333333]}"
"OIYY","Shahid Sadooghi Intl","Yazd","Iran","IRN",31.90611111111111,54.27638888888889,"{""type"":""Point"",""coordinates"":[54.27638888888889,31.90611111111111]}"
"OIZI","Iran Shahr","Iran Shahr","Iran","IRN",27.228888888888886,60.721111111111114,"{""type"":""Point"",""coordinates"":[60.721111111111114,27.228888888888886]}"
"OITZ","Zanjan","Zanjan","Iran","IRN",36.77472222222222,48.35916666666667,"{""type"":""Point"",""coordinates"":[48.35916666666667,36.77472222222222]}"
"OIZC","Konarak","Chah Bahar","Iran","IRN",25.444444444444446,60.38361111111111,"{""type"":""Point"",""coordinates"":[60.38361111111111,25.444444444444446]}"
"OITP","Parsabade Moghan","Parsabade Moghan","Iran","IRN",39.60527777777778,47.876111111111115,"{""type"":""Point"",""coordinates"":[47.876111111111115,39.60527777777778]}"
"OITK","Khoy","Khoy","Iran","IRN",38.42222222222222,44.97666666666667,"{""type"":""Point"",""coordinates"":[44.97666666666667,38.42222222222222]}"
"OISY","Yasouj","Yasouj","Iran","IRN",30.696944444444444,51.55,"{""type"":""Point"",""coordinates"":[51.55,30.696944444444444]}"
"OISJ","Jahrom","Jahrom","Iran","IRN",28.586666666666666,53.58111111111111,"{""type"":""Point"",""coordinates"":[53.58111111111111,28.586666666666666]}"
"OINR","Ramsar","Ramsar","Iran","IRN",36.909166666666664,50.68,"{""type"":""Point"",""coordinates"":[50.68,36.909166666666664]}"
"OIMT","Tabas","Tabas","Iran","IRN",33.668055555555554,56.89333333333333,"{""type"":""Point"",""coordinates"":[56.89333333333333,33.668055555555554]}"
"OIMS","Sabzevar","Sabzevar","Iran","IRN",36.16861111111111,57.59638888888889,"{""type"":""Point"",""coordinates"":[57.59638888888889,36.16861111111111]}"
"OIIE","Imam Khomaini Intl","Tehran","Iran","IRN",35.41611111111111,51.15222222222222,"{""type"":""Point"",""coordinates"":[51.15222222222222,35.41611111111111]}"
"OIMJ","Shahroud","Shahroud","Iran","IRN",36.42527777777777,55.10416666666667,"{""type"":""Point"",""coordinates"":[55.10416666666667,36.42527777777777]}"
"OICS","Sanandaj","Sanandaj","Iran","IRN",35.25083333333333,47.01111111111111,"{""type"":""Point"",""coordinates"":[47.01111111111111,35.25083333333333]}"
"OIBP","Persian Gulf","Pars Special Zone","Iran","IRN",27.379444444444445,52.73777777777778,"{""type"":""Point"",""coordinates"":[52.73777777777778,27.379444444444445]}"
"OIKM","Bam","Bam","Iran","IRN",29.084166666666665,58.44972222222222,"{""type"":""Point"",""coordinates"":[58.44972222222222,29.084166666666665]}"
"OIKJ","Jiroft","Jiroft","Iran","IRN",28.7275,57.67027777777778,"{""type"":""Point"",""coordinates"":[57.67027777777778,28.7275]}"
"OIKB","Bandar Abbass Intl","Bandar Abbass","Iran","IRN",27.21861111111111,56.37777777777778,"{""type"":""Point"",""coordinates"":[56.37777777777778,27.21861111111111]}"
"OIBK","Kish","Kish Island","Iran","IRN",26.5275,53.97916666666667,"{""type"":""Point"",""coordinates"":[53.97916666666667,26.5275]}"
"OIIS","Semnan","Semnan","Iran","IRN",35.611666666666665,53.498333333333335,"{""type"":""Point"",""coordinates"":[53.498333333333335,35.611666666666665]}"
"OIAA","Abadan","Abadan","Iran","IRN",30.371111111111112,48.22833333333333,"{""type"":""Point"",""coordinates"":[48.22833333333333,30.371111111111112]}"
"OIKP","Havadarya","Bandar Abbass","Iran","IRN",27.159444444444443,56.17194444444444,"{""type"":""Point"",""coordinates"":[56.17194444444444,27.159444444444443]}"
"OIIK","Ghazvin","Ghazvin","Iran","IRN",36.24111111111111,50.0425,"{""type"":""Point"",""coordinates"":[50.0425,36.24111111111111]}"
"OIKR","Rafsanjan","Rafsanjan","Iran","IRN",30.297500000000003,56.05083333333333,"{""type"":""Point"",""coordinates"":[56.05083333333333,30.297500000000003]}"
"OIII","Mehrabad Intl","Tehran","Iran","IRN",35.68888888888888,51.31472222222222,"{""type"":""Point"",""coordinates"":[51.31472222222222,35.68888888888888]}"
"OIBQ","Khark","Khark Island","Iran","IRN",29.260277777777777,50.323888888888895,"{""type"":""Point"",""coordinates"":[50.323888888888895,29.260277777777777]}"
"OIIP","Payam","Karaj","Iran","IRN",35.77972222222222,50.82277777777778,"{""type"":""Point"",""coordinates"":[50.82277777777778,35.77972222222222]}"
"OIAI","Shahid Asyaee","Masjed Soleiman","Iran","IRN",32.00222222222222,49.26861111111111,"{""type"":""Point"",""coordinates"":[49.26861111111111,32.00222222222222]}"
"OIIA","Azadi","Ghazvin","Iran","IRN",35.95166666666667,50.45277777777778,"{""type"":""Point"",""coordinates"":[50.45277777777778,35.95166666666667]}"
"OIMB","Birjand","Birjand","Iran","IRN",32.89805555555556,59.26611111111111,"{""type"":""Point"",""coordinates"":[59.26611111111111,32.89805555555556]}"
"OIHR","Arak","Arak","Iran","IRN",34.136944444444445,49.841944444444444,"{""type"":""Point"",""coordinates"":[49.841944444444444,34.136944444444445]}"
"OIGG","Sardar-E-Jangal","Rasht","Iran","IRN",37.32333333333334,49.617777777777775,"{""type"":""Point"",""coordinates"":[49.617777777777775,37.32333333333334]}"
"OIZH","Zahedan Intl","Zahedan","Iran","IRN",29.473333333333333,60.90333333333333,"{""type"":""Point"",""coordinates"":[60.90333333333333,29.473333333333333]}"
"OIKQ","Dayrestan","Gheshm Island","Iran","IRN",26.751944444444444,55.89722222222222,"{""type"":""Point"",""coordinates"":[55.89722222222222,26.751944444444444]}"
"OISR","Lamerd","Lamerd","Iran","IRN",27.373055555555556,53.18805555555555,"{""type"":""Point"",""coordinates"":[53.18805555555555,27.373055555555556]}"
"OIFM","Shahid Beheshti Intl","Esfahan","Iran","IRN",32.75083333333333,51.86277777777778,"{""type"":""Point"",""coordinates"":[51.86277777777778,32.75083333333333]}"
"OIAG","Aghajari","Aghajari","Iran","IRN",30.75,49.68333333333333,"{""type"":""Point"",""coordinates"":[49.68333333333333,30.75]}"
"OITR","Uromiyeh","Uromiyeh","Iran","IRN",37.671388888888885,45.06916666666667,"{""type"":""Point"",""coordinates"":[45.06916666666667,37.671388888888885]}"
"OIFK","Kashan","Kashan","Iran","IRN",33.89527777777778,51.57694444444445,"{""type"":""Point"",""coordinates"":[51.57694444444445,33.89527777777778]}"
"OINE","Kalaleh","Kalaleh","Iran","IRN",37.375,55.45194444444445,"{""type"":""Point"",""coordinates"":[55.45194444444445,37.375]}"
"OICC","Shahid Ashrafi Esfahani","Kermanshah","Iran","IRN",34.34805555555556,47.156666666666666,"{""type"":""Point"",""coordinates"":[47.156666666666666,34.34805555555556]}"
"OIMN","Bojnord","Bojnord","Iran","IRN",37.48916666666667,57.30638888888888,"{""type"":""Point"",""coordinates"":[57.30638888888888,37.48916666666667]}"
"OIFE","Hesa","Esfahan","Iran","IRN",32.928888888888885,51.56111111111111,"{""type"":""Point"",""coordinates"":[51.56111111111111,32.928888888888885]}"
"OINZ","Dasht-E-Naz","Sari","Iran","IRN",36.63583333333333,53.19361111111111,"{""type"":""Point"",""coordinates"":[53.19361111111111,36.63583333333333]}"
"OICI","Ilam","Ilam","Iran","IRN",33.58555555555556,46.404444444444444,"{""type"":""Point"",""coordinates"":[46.404444444444444,33.58555555555556]}"
"OIBI","Asaloyeh","Asaloyeh","Iran","IRN",27.481944444444444,52.61611111111111,"{""type"":""Point"",""coordinates"":[52.61611111111111,27.481944444444444]}"
"OISL","Lar","Lar","Iran","IRN",27.673055555555557,54.38722222222222,"{""type"":""Point"",""coordinates"":[54.38722222222222,27.673055555555557]}"
"OING","Gorgan","Gorgan","Iran","IRN",36.91138888888889,54.39805555555556,"{""type"":""Point"",""coordinates"":[54.39805555555556,36.91138888888889]}"
"OICK","Khoram Abad","Khoram Abad","Iran","IRN",33.43861111111111,48.28055555555555,"{""type"":""Point"",""coordinates"":[48.28055555555555,33.43861111111111]}"
"OIKK","Kerman","Kerman","Iran","IRN",30.274444444444445,56.95111111111111,"{""type"":""Point"",""coordinates"":[56.95111111111111,30.274444444444445]}"
"OIBV","Lavan","Lavan Island","Iran","IRN",26.810277777777777,53.35611111111111,"{""type"":""Point"",""coordinates"":[53.35611111111111,26.810277777777777]}"
"OIBS","Sirri","Sirri Island","Iran","IRN",25.90833333333333,54.541666666666664,"{""type"":""Point"",""coordinates"":[54.541666666666664,25.90833333333333]}"
"OIBA","Abumusa","Abumusa Island","Iran","IRN",25.87611111111111,55.031666666666666,"{""type"":""Point"",""coordinates"":[55.031666666666666,25.87611111111111]}"
"OIHH","Hamadan","Hamadan","Iran","IRN",34.86944444444445,48.550555555555555,"{""type"":""Point"",""coordinates"":[48.550555555555555,34.86944444444445]}"
"OITL","Ardabil","Ardabil","Iran","IRN",38.32666666666667,48.424166666666665,"{""type"":""Point"",""coordinates"":[48.424166666666665,38.32666666666667]}"
"OIBH","Bahregan","Bahregan","Iran","IRN",29.83972222222222,50.27222222222222,"{""type"":""Point"",""coordinates"":[50.27222222222222,29.83972222222222]}"
"OIBL","Bandar Lengeh","Bandar Lengeh","Iran","IRN",26.531388888888888,54.8275,"{""type"":""Point"",""coordinates"":[54.8275,26.531388888888888]}"
"OIFH","Shahid Vatan Pour AB","Esfahan","Iran","IRN",32.57083333333334,51.69583333333333,"{""type"":""Point"",""coordinates"":[51.69583333333333,32.57083333333334]}"
"OIAJ","Omidiyeh AB","Omidiyeh","Iran","IRN",30.833333333333332,49.53333333333333,"{""type"":""Point"",""coordinates"":[49.53333333333333,30.833333333333332]}"
"OIBB","Bushehr","Bushehr","Iran","IRN",28.949444444444445,50.83027777777778,"{""type"":""Point"",""coordinates"":[50.83027777777778,28.949444444444445]}"
"OIBJ","Jam","Jam","Iran","IRN",27.821944444444444,52.352222222222224,"{""type"":""Point"",""coordinates"":[52.352222222222224,27.821944444444444]}"
"OIMC","Sarakhs","Sarakhs","Iran","IRN",36.488055555555555,61.07,"{""type"":""Point"",""coordinates"":[61.07,36.488055555555555]}"
"OISS","Shahid Dastghaib Intl","Shiraz","Iran","IRN",29.540277777777778,52.58861111111111,"{""type"":""Point"",""coordinates"":[52.58861111111111,29.540277777777778]}"
"OIHS","Nogeh","Hamadan","Iran","IRN",35.20277777777778,48.666666666666664,"{""type"":""Point"",""coordinates"":[48.666666666666664,35.20277777777778]}"
"OIAW","Ahwaz","Ahwaz","Iran","IRN",31.3375,48.76027777777778,"{""type"":""Point"",""coordinates"":[48.76027777777778,31.3375]}"
"OITT","Tabriz Intl","Tabriz","Iran","IRN",38.13388888888889,46.235,"{""type"":""Point"",""coordinates"":[46.235,38.13388888888889]}"
"OINN","Noshahr","Noshahr","Iran","IRN",36.663333333333334,51.46472222222223,"{""type"":""Point"",""coordinates"":[51.46472222222223,36.663333333333334]}"
"OIAM","Mahshahr","Bandar Mahshahr","Iran","IRN",30.55888888888889,49.150555555555556,"{""type"":""Point"",""coordinates"":[49.150555555555556,30.55888888888889]}"
"OIKY","Sirjan","Sirjan","Iran","IRN",29.551111111111112,55.67166666666667,"{""type"":""Point"",""coordinates"":[55.67166666666667,29.551111111111112]}"
"OITM","Sahand","Maragheh","Iran","IRN",37.34805555555556,46.13305555555556,"{""type"":""Point"",""coordinates"":[46.13305555555556,37.34805555555556]}"
"OIFS","Shahre Kord","Shahre Kord","Iran","IRN",32.29722222222222,50.842222222222226,"{""type"":""Point"",""coordinates"":[50.842222222222226,32.29722222222222]}"
"OIAD","Dezful","Dezful","Iran","IRN",32.43333333333333,48.38333333333333,"{""type"":""Point"",""coordinates"":[48.38333333333333,32.43333333333333]}"
"OIAH","Gachsaran","Gachsaran","Iran","IRN",30.337777777777777,50.82805555555556,"{""type"":""Point"",""coordinates"":[50.82805555555556,30.337777777777777]}"
"OIFP","Badr AB","Esfahan","Iran","IRN",32.62,51.69027777777777,"{""type"":""Point"",""coordinates"":[51.69027777777777,32.62]}"
"OISF","Fasa","Fasa","Iran","IRN",28.892777777777777,53.72361111111111,"{""type"":""Point"",""coordinates"":[53.72361111111111,28.892777777777777]}"
"OIMM","Shahid Hashemi Nejad Intl","Mashhad","Iran","IRN",36.23416666666667,59.644999999999996,"{""type"":""Point"",""coordinates"":[59.644999999999996,36.23416666666667]}"