"airportCode","airportName","cityName","countryName","countryCode","latitude","longitude","geometry"
"LIVV","Vische","Vische","Italy","ITA",45.34722222222222,7.921388888888889,"{""type"":""Point"",""coordinates"":[7.921388888888889,45.34722222222222]}"
"LIRZ","San Francesco","Perugia","Italy","ITA",43.09722222222222,12.510277777777778,"{""type"":""Point"",""coordinates"":[12.510277777777778,43.09722222222222]}"
"LIRV","Viterbo","Viterbo","Italy","ITA",42.430277777777775,12.064166666666667,"{""type"":""Point"",""coordinates"":[12.064166666666667,42.430277777777775]}"
"LIRU","Urbe","Rome","Italy","ITA",41.95194444444445,12.500833333333333,"{""type"":""Point"",""coordinates"":[12.500833333333333,41.95194444444445]}"
"LIRN","Capodichino","Naples","Italy","ITA",40.88444444444444,14.290833333333333,"{""type"":""Point"",""coordinates"":[14.290833333333333,40.88444444444444]}"
"LIRM","Grazzanise","Grazzanise","Italy","ITA",41.06199722222222,14.082688888888889,"{""type"":""Point"",""coordinates"":[14.082688888888889,41.06199722222222]}"
"LIRJ","Marina Di Campo","Marina Di Campo","Italy","ITA",42.76111111111111,10.239722222222222,"{""type"":""Point"",""coordinates"":[10.239722222222222,42.76111111111111]}"
"LIRI","Pontecagnano","Salerno","Italy","ITA",40.62,14.9125,"{""type"":""Point"",""coordinates"":[14.9125,40.62]}"
"LIRH","Frosinone","Frosinone","Italy","ITA",41.644925,13.299022222222222,"{""type"":""Point"",""coordinates"":[13.299022222222222,41.644925]}"
"LIRG","Guidonia","Guidonia","Italy","ITA",41.99611111111111,12.73472222222222,"{""type"":""Point"",""coordinates"":[12.73472222222222,41.99611111111111]}"
"LIRF","Fiumicino","Rome","Italy","ITA",41.80027777777777,12.238888888888889,"{""type"":""Point"",""coordinates"":[12.238888888888889,41.80027777777777]}"
"LIRE","Pratica Di Mare","Pratica Di Mare","Italy","ITA",41.659372222222224,12.445155555555555,"{""type"":""Point"",""coordinates"":[12.445155555555555,41.659372222222224]}"
"LIRA","Ciampino","Rome","Italy","ITA",41.79944444444444,12.597222222222223,"{""type"":""Point"",""coordinates"":[12.597222222222223,41.79944444444444]}"
"LIKO","Guglielmo Zamboni","Ozzano Emilia","Italy","ITA",44.475,11.541666666666666,"{""type"":""Point"",""coordinates"":[11.541666666666666,44.475]}"
"LIPX","Villafranca","Verona","Italy","ITA",45.396388888888886,10.887777777777778,"{""type"":""Point"",""coordinates"":[10.887777777777778,45.396388888888886]}"
"LIMG","Albenga","Albenga","Italy","ITA",44.045833333333334,8.125555555555556,"{""type"":""Point"",""coordinates"":[8.125555555555556,44.045833333333334]}"
"LIEA","Fertilia","Alghero","Italy","ITA",40.63111111111111,8.288611111111111,"{""type"":""Point"",""coordinates"":[8.288611111111111,40.63111111111111]}"
"LIPR","Rimini","Rimini","Italy","ITA",44.019444444444446,12.609444444444444,"{""type"":""Point"",""coordinates"":[12.609444444444444,44.019444444444446]}"
"LILO","Caiolo","Sondrio","Italy","ITA",46.15,9.8,"{""type"":""Point"",""coordinates"":[9.8,46.15]}"
"LIPQ","Ronchi Dei Legionari","Trieste","Italy","ITA",45.8275,13.472222222222223,"{""type"":""Point"",""coordinates"":[13.472222222222223,45.8275]}"
"LI23","Bore Di Chienti","Corridonia","Italy","ITA",43.261,13.564666666666668,"{""type"":""Point"",""coordinates"":[13.564666666666668,43.261]}"
"LIPN","Boscomantico","Verona","Italy","ITA",45.473055555555554,10.926944444444445,"{""type"":""Point"",""coordinates"":[10.926944444444445,45.473055555555554]}"
"LIPL","Ghedi","Ghedi","Italy","ITA",45.435736111111105,10.270280555555557,"{""type"":""Point"",""coordinates"":[10.270280555555557,45.435736111111105]}"
"LIPI","Rivolto","Rivolto","Italy","ITA",45.980691666666665,13.0499,"{""type"":""Point"",""coordinates"":[13.0499,45.980691666666665]}"
"LIPG","Gorizia","Gorizia","Italy","ITA",45.906666666666666,13.599166666666667,"{""type"":""Point"",""coordinates"":[13.599166666666667,45.906666666666666]}"
"LIPF","Ferrara","Ferrara","Italy","ITA",44.81583333333333,11.613333333333333,"{""type"":""Point"",""coordinates"":[11.613333333333333,44.81583333333333]}"
"LINL","Lepore","Lecce","Italy","ITA",40.3575,18.29388888888889,"{""type"":""Point"",""coordinates"":[18.29388888888889,40.3575]}"
"LINB","Corte","Melpignano","Italy","ITA",40.10638888888889,18.2575,"{""type"":""Point"",""coordinates"":[18.2575,40.10638888888889]}"
"LIMZ","Levaldigi","Cuneo","Italy","ITA",44.5475,7.623055555555556,"{""type"":""Point"",""coordinates"":[7.623055555555556,44.5475]}"
"LIMW","Aosta","Aosta","Italy","ITA",45.73833333333334,7.3675,"{""type"":""Point"",""coordinates"":[7.3675,45.73833333333334]}"
"LI34","Mensanello","Mensanello","Italy","ITA",43.36972222222222,11.125,"{""type"":""Point"",""coordinates"":[11.125,43.36972222222222]}"
"LIKE","Alicaorle","Caorle","Italy","ITA",45.61194444444445,12.814611111111113,"{""type"":""Point"",""coordinates"":[12.814611111111113,45.61194444444445]}"
"LIMF","Caselle","Torino","Italy","ITA",45.2025,7.649444444444444,"{""type"":""Point"",""coordinates"":[7.649444444444444,45.2025]}"
"LIMA","Aeritalia","Torino","Italy","ITA",45.08444444444444,7.603055555555555,"{""type"":""Point"",""coordinates"":[7.603055555555555,45.08444444444444]}"
"LIMR","Novi Ligure","Novi Ligure","Italy","ITA",44.78,8.786388888888888,"{""type"":""Point"",""coordinates"":[8.786388888888888,44.78]}"
"LIMP","Parma","Parma","Italy","ITA",44.82222222222222,10.295277777777777,"{""type"":""Point"",""coordinates"":[10.295277777777777,44.82222222222222]}"
"LIPS","Istrana","Treviso","Italy","ITA",45.684866666666665,12.082880555555555,"{""type"":""Point"",""coordinates"":[12.082880555555555,45.684866666666665]}"
"LILV","Valbrembo","Valbrembo","Italy","ITA",45.720555555555556,9.593611111111112,"{""type"":""Point"",""coordinates"":[9.593611111111112,45.720555555555556]}"
"LIML","Linate","Milan","Italy","ITA",45.44944444444444,9.278333333333334,"{""type"":""Point"",""coordinates"":[9.278333333333334,45.44944444444444]}"
"LIAF","Foligno","Foligno","Italy","ITA",42.93277777777777,12.709999999999999,"{""type"":""Point"",""coordinates"":[12.709999999999999,42.93277777777777]}"
"LIMJ","Sestri","Genoa","Italy","ITA",44.413333333333334,8.8375,"{""type"":""Point"",""coordinates"":[8.8375,44.413333333333334]}"
"LIMN","Cameri","Cameri","Italy","ITA",45.531108333333336,8.665236111111112,"{""type"":""Point"",""coordinates"":[8.665236111111112,45.531108333333336]}"
"LIBR","Casale","Brindisi","Italy","ITA",40.660555555555554,17.948055555555555,"{""type"":""Point"",""coordinates"":[17.948055555555555,40.660555555555554]}"
"LICC","Fontanarossa","Catania","Italy","ITA",37.46666666666667,15.06388888888889,"{""type"":""Point"",""coordinates"":[15.06388888888889,37.46666666666667]}"
"LI28","Vigarolo","Vigarolo","Italy","ITA",45.218333333333334,9.468333333333334,"{""type"":""Point"",""coordinates"":[9.468333333333334,45.218333333333334]}"
"LILY","Como","Como","Italy","ITA",45.81472222222222,9.069722222222222,"{""type"":""Point"",""coordinates"":[9.069722222222222,45.81472222222222]}"
"LILR","Migliaro","Cremona","Italy","ITA",45.16722222222222,10.001944444444444,"{""type"":""Point"",""coordinates"":[10.001944444444444,45.16722222222222]}"
"LILN","Venegono","Varese","Italy","ITA",45.74138888888889,8.886666666666667,"{""type"":""Point"",""coordinates"":[8.886666666666667,45.74138888888889]}"
"LIPB","Bolzano","Bolzano","Italy","ITA",46.46027777777778,11.32638888888889,"{""type"":""Point"",""coordinates"":[11.32638888888889,46.46027777777778]}"
"LILG","Vergiate","Vergiate","Italy","ITA",45.714444444444446,8.699722222222222,"{""type"":""Point"",""coordinates"":[8.699722222222222,45.714444444444446]}"
"LICT","Birgi","Trapani","Italy","ITA",37.912058333333334,12.493438888888887,"{""type"":""Point"",""coordinates"":[12.493438888888887,37.912058333333334]}"
"LILF","Castelnuovo Don Bosco","Castelnuovo Don Bosco","Italy","ITA",45.02444444444444,7.966388888888889,"{""type"":""Point"",""coordinates"":[7.966388888888889,45.02444444444444]}"
"LI22","Il Gabbiano","San Vincenzo","Italy","ITA",43.05166666666666,10.5525,"{""type"":""Point"",""coordinates"":[10.5525,43.05166666666666]}"
"LI38","Parco Livenza","San Stino di Livenza","Italy","ITA",45.736666666666665,12.705555555555556,"{""type"":""Point"",""coordinates"":[12.705555555555556,45.736666666666665]}"
"LILE","Cerrione","Biella","Italy","ITA",45.49583333333334,8.1025,"{""type"":""Point"",""coordinates"":[8.1025,45.49583333333334]}"
"LILC","Calcinate del Pesce","Calcinate del Pesce","Italy","ITA",45.80972222222222,8.768055555555556,"{""type"":""Point"",""coordinates"":[8.768055555555556,45.80972222222222]}"
"LIQF","Palazzolo","Sansepolcro","Italy","ITA",43.56194444444444,12.154444444444445,"{""type"":""Point"",""coordinates"":[12.154444444444445,43.56194444444444]}"
"LICG","Pantelleria","Pantelleria","Italy","ITA",36.81305555555555,11.960833333333333,"{""type"":""Point"",""coordinates"":[11.960833333333333,36.81305555555555]}"
"LI30","Piacenza","Gragnano","Italy","ITA",45,9.583333333333334,"{""type"":""Point"",""coordinates"":[9.583333333333334,45]}"
"LILB","Alzate Brianza","Alzate Brianza","Italy","ITA",45.769999999999996,9.160833333333334,"{""type"":""Point"",""coordinates"":[9.160833333333334,45.769999999999996]}"
"LI12","Montalto Dora","Ivrea","Italy","ITA",45.48916666666667,7.841666666666667,"{""type"":""Point"",""coordinates"":[7.841666666666667,45.48916666666667]}"
"LIMS","Piacenza","Piacenza","Italy","ITA",44.91386388888889,9.72058611111111,"{""type"":""Point"",""coordinates"":[9.72058611111111,44.91386388888889]}"
"LIQN","Rieti","Rieti","Italy","ITA",42.42666666666666,12.85,"{""type"":""Point"",""coordinates"":[12.85,42.42666666666666]}"
"LICR","Reggio Calabria","Reggio Calabria","Italy","ITA",38.07194444444445,15.653611111111111,"{""type"":""Point"",""coordinates"":[15.653611111111111,38.07194444444445]}"
"LIRP","San Giusto","Pisa","Italy","ITA",43.68277777777777,10.395555555555555,"{""type"":""Point"",""coordinates"":[10.395555555555555,43.68277777777777]}"
"LIAU","Capua","Capua","Italy","ITA",41.115833333333335,14.178055555555554,"{""type"":""Point"",""coordinates"":[14.178055555555554,41.115833333333335]}"
"LIKL","Comina","Pordenone","Italy","ITA",45.99166666666667,12.654444444444445,"{""type"":""Point"",""coordinates"":[12.654444444444445,45.99166666666667]}"
"LI04","Celano","Celano","Italy","ITA",42.06666666666667,13.533333333333333,"{""type"":""Point"",""coordinates"":[13.533333333333333,42.06666666666667]}"
"LIMC","Malpensa","Milan","Italy","ITA",45.63,8.723055555555556,"{""type"":""Point"",""coordinates"":[8.723055555555556,45.63]}"
"LIEE","Elmas","Cagliari","Italy","ITA",39.24722222222222,9.056111111111111,"{""type"":""Point"",""coordinates"":[9.056111111111111,39.24722222222222]}"
"LIDV","Prati Vecchi Di Aguscello","Prati Vecchi Di Aguscello","Italy","ITA",44.790277777777774,11.669166666666666,"{""type"":""Point"",""coordinates"":[11.669166666666666,44.790277777777774]}"
"LI24","Valle Gaffaro","Valle Gaffaro","Italy","ITA",44.833333333333336,12.232222222222223,"{""type"":""Point"",""coordinates"":[12.232222222222223,44.833333333333336]}"
"LILM","Casale Monferrato","Casale Monferrato","Italy","ITA",45.111111111111114,8.45611111111111,"{""type"":""Point"",""coordinates"":[8.45611111111111,45.111111111111114]}"
"LIDU","Budrione","Carpi","Italy","ITA",44.835,10.871666666666668,"{""type"":""Point"",""coordinates"":[10.871666666666668,44.835]}"
"LIDP","Pavullo","Pavullo","Italy","ITA",44.32222222222222,10.831666666666667,"{""type"":""Point"",""coordinates"":[10.831666666666667,44.32222222222222]}"
"LIDA","Asiago","Asiago","Italy","ITA",45.88777777777778,11.516666666666667,"{""type"":""Point"",""coordinates"":[11.516666666666667,45.88777777777778]}"
"LIDW","Carrer","Salgareda","Italy","ITA",45.7,12.543055555555556,"{""type"":""Point"",""coordinates"":[12.543055555555556,45.7]}"
"LIAP","Parchi","L'Aquila","Italy","ITA",42.379444444444445,13.309444444444445,"{""type"":""Point"",""coordinates"":[13.309444444444445,42.379444444444445]}"
"LI40","Vallesanta","Rieti","Italy","ITA",42.42777777777778,12.80638888888889,"{""type"":""Point"",""coordinates"":[12.80638888888889,42.42777777777778]}"
"LIDG","Lugo Di Romagna","Lugo Di Romagna","Italy","ITA",44.39805555555556,11.854722222222222,"{""type"":""Point"",""coordinates"":[11.854722222222222,44.39805555555556]}"
"LI14","Molinella","Molinella","Italy","ITA",44.59277777777778,11.655555555555557,"{""type"":""Point"",""coordinates"":[11.655555555555557,44.59277777777778]}"
"LI26","Piancada","Piancada","Italy","ITA",45.76444444444444,13.072222222222223,"{""type"":""Point"",""coordinates"":[13.072222222222223,45.76444444444444]}"
"LIDE","Reggio Emilia","Reggio Emilia","Italy","ITA",44.69888888888889,10.6625,"{""type"":""Point"",""coordinates"":[10.6625,44.69888888888889]}"
"LIPV","Lido","Venice","Italy","ITA",45.428888888888885,12.387777777777778,"{""type"":""Point"",""coordinates"":[12.387777777777778,45.428888888888885]}"
"LIMB","Bresso","Milan","Italy","ITA",45.54138888888889,9.202222222222222,"{""type"":""Point"",""coordinates"":[9.202222222222222,45.54138888888889]}"
"","Dovera","Dovera","Italy","ITA",45.38055555555555,9.536666666666667,"{""type"":""Point"",""coordinates"":[9.536666666666667,45.38055555555555]}"
"LICZ","Sigonella","Catania","Italy","ITA",37.40588888888889,14.923908333333333,"{""type"":""Point"",""coordinates"":[14.923908333333333,37.40588888888889]}"
"LIPE","Borgo Panigale","Bologna","Italy","ITA",44.530833333333334,11.296944444444444,"{""type"":""Point"",""coordinates"":[11.296944444444444,44.530833333333334]}"
"LICP","Boccadifalco","Palermo","Italy","ITA",38.11083333333333,13.313333333333334,"{""type"":""Point"",""coordinates"":[13.313333333333334,38.11083333333333]}"
"LIPU","Padova","Padova","Italy","ITA",45.39611111111111,11.848055555555556,"{""type"":""Point"",""coordinates"":[11.848055555555556,45.39611111111111]}"
"LIBP","Pescara","Pescara","Italy","ITA",42.43722222222222,14.187222222222223,"{""type"":""Point"",""coordinates"":[14.187222222222223,42.43722222222222]}"
"LIDT","Mattarello","Trento","Italy","ITA",46.02333333333333,11.125,"{""type"":""Point"",""coordinates"":[11.125,46.02333333333333]}"
"LILA","Alessandria","Alessandria","Italy","ITA",44.925,8.625277777777779,"{""type"":""Point"",""coordinates"":[8.625277777777779,44.925]}"
"LIDH","Thiene","Thiene","Italy","ITA",45.675555555555555,11.496388888888887,"{""type"":""Point"",""coordinates"":[11.496388888888887,45.675555555555555]}"
"LI21","Sagrantino","Gualdo Cattaneo","Italy","ITA",42.89033333333333,12.533027777777779,"{""type"":""Point"",""coordinates"":[12.533027777777779,42.89033333333333]}"
"LIAL","Sant'Illuminato","Citta di Castello","Italy","ITA",43.35527777777778,12.218333333333334,"{""type"":""Point"",""coordinates"":[12.218333333333334,43.35527777777778]}"
"LICB","Comiso","Comiso","Italy","ITA",36.99583333333334,14.608888888888888,"{""type"":""Point"",""coordinates"":[14.608888888888888,36.99583333333334]}"
"LICA","Lamezia Terme","Lamezia Terme","Italy","ITA",38.90833333333333,16.241666666666667,"{""type"":""Point"",""coordinates"":[16.241666666666667,38.90833333333333]}"
"LIPO","Montichiari","Brescia","Italy","ITA",45.428888888888885,10.330555555555556,"{""type"":""Point"",""coordinates"":[10.330555555555556,45.428888888888885]}"
"LI50","L'Aquila","L'Aquila","Italy","ITA",42.30083333333333,13.516666666666667,"{""type"":""Point"",""coordinates"":[13.516666666666667,42.30083333333333]}"
"LIQW","Luni","Sarzana","Italy","ITA",44.08888888888889,9.988888888888889,"{""type"":""Point"",""coordinates"":[9.988888888888889,44.08888888888889]}"
"LIBC","Crotone","Crotone","Italy","ITA",38.99666666666667,17.079166666666666,"{""type"":""Point"",""coordinates"":[17.079166666666666,38.99666666666667]}"
"LI25","Monte Marenzo","Lecco","Italy","ITA",45.762,9.445,"{""type"":""Point"",""coordinates"":[9.445,45.762]}"
"LIBN","Galatina","Lecce","Italy","ITA",40.23922777777778,18.133325,"{""type"":""Point"",""coordinates"":[18.133325,40.23922777777778]}"
"LIBD","Palese","Bari","Italy","ITA",41.13805555555555,16.765,"{""type"":""Point"",""coordinates"":[16.765,41.13805555555555]}"
"LIBA","Amendola","Amendola","Italy","ITA",41.54139166666666,15.718083333333334,"{""type"":""Point"",""coordinates"":[15.718083333333334,41.54139166666666]}"
"LIBV","Gioia Del Colle","Gioia Del Colle","Italy","ITA",40.7697,16.933016666666667,"{""type"":""Point"",""coordinates"":[16.933016666666667,40.7697]}"
"LI27","La Speziana","Spessa","Italy","ITA",45.12861111111111,9.363055555555555,"{""type"":""Point"",""coordinates"":[9.363055555555555,45.12861111111111]}"
"LIME","Orio Al Serio","Bergamo","Italy","ITA",45.66888888888889,9.700277777777776,"{""type"":""Point"",""coordinates"":[9.700277777777776,45.66888888888889]}"
"LILQ","Cinquale","Massa","Italy","ITA",43.98583333333333,10.142777777777777,"{""type"":""Point"",""coordinates"":[10.142777777777777,43.98583333333333]}"
"LIBF","Gino Lisa","Foggia","Italy","ITA",41.43333333333333,15.534722222222221,"{""type"":""Point"",""coordinates"":[15.534722222222221,41.43333333333333]}"
"LIAT","Valdera","Valdera","Italy","ITA",43.591944444444444,10.695555555555556,"{""type"":""Point"",""coordinates"":[10.695555555555556,43.591944444444444]}"
"LIBG","Grottaglie","Taranto","Italy","ITA",40.51722222222222,17.399722222222223,"{""type"":""Point"",""coordinates"":[17.399722222222223,40.51722222222222]}"
"LIPZ","Tessera","Venice","Italy","ITA",45.50527777777778,12.351944444444444,"{""type"":""Point"",""coordinates"":[12.351944444444444,45.50527777777778]}"
"LI11","San Giustino Valdarno","Il Borro","Italy","ITA",43.54083333333333,11.702499999999999,"{""type"":""Point"",""coordinates"":[11.702499999999999,43.54083333333333]}"
"LI06","Monteverdi M.","Consalvo","Italy","ITA",43.11666666666667,10.733333333333333,"{""type"":""Point"",""coordinates"":[10.733333333333333,43.11666666666667]}"
"LI31","Sabaudia","Sabaudia","Italy","ITA",41.33361111111111,13.02138888888889,"{""type"":""Point"",""coordinates"":[13.02138888888889,41.33361111111111]}"
"LI49","Boglietto","Boglietto","Italy","ITA",44.75863888888889,8.18325,"{""type"":""Point"",""coordinates"":[8.18325,44.75863888888889]}"
"LIAQ","Aquino","Aquino","Italy","ITA",41.486111111111114,13.71861111111111,"{""type"":""Point"",""coordinates"":[13.71861111111111,41.486111111111114]}"
"LIRS","Grosseto","Grosseto","Italy","ITA",42.75972222222222,11.071944444444444,"{""type"":""Point"",""coordinates"":[11.071944444444444,42.75972222222222]}"
"LIDL","Legnago","Legnago","Italy","ITA",45.13305555555556,11.292222222222222,"{""type"":""Point"",""coordinates"":[11.292222222222222,45.13305555555556]}"
"LIQQ","Castiglion Fiorentino","Serristori","Italy","ITA",43.3325,11.858055555555556,"{""type"":""Point"",""coordinates"":[11.858055555555556,43.3325]}"
"LI35","S. Apollonia","Montecchio-Podere","Italy","ITA",43.29527777777778,11.903333333333334,"{""type"":""Point"",""coordinates"":[11.903333333333334,43.29527777777778]}"
"LIRL","Latina","Latina","Italy","ITA",41.54694444444444,12.908333333333333,"{""type"":""Point"",""coordinates"":[12.908333333333333,41.54694444444444]}"
"LIPD","Campoformido","Udine","Italy","ITA",46.03194444444444,13.186666666666667,"{""type"":""Point"",""coordinates"":[13.186666666666667,46.03194444444444]}"
"LI37","Sant Apollinare","Sant Apollinare","Italy","ITA",45.03425,11.822944444444444,"{""type"":""Point"",""coordinates"":[11.822944444444444,45.03425]}"
"LIPY","Falconara","Ancona","Italy","ITA",43.61666666666667,13.360277777777778,"{""type"":""Point"",""coordinates"":[13.360277777777778,43.61666666666667]}"
"LI03","Alfina","Castel Viscardo","Italy","ITA",42.733333333333334,11.966666666666667,"{""type"":""Point"",""coordinates"":[11.966666666666667,42.733333333333334]}"
"LIQS","Ampugnano","Siena","Italy","ITA",43.25861111111111,11.255,"{""type"":""Point"",""coordinates"":[11.255,43.25861111111111]}"
"LICJ","Punta Raisi","Palermo","Italy","ITA",38.18194444444444,13.099444444444446,"{""type"":""Point"",""coordinates"":[13.099444444444446,38.18194444444444]}"
"LIQB","Arezzo","Arezzo","Italy","ITA",43.45583333333334,11.846944444444444,"{""type"":""Point"",""coordinates"":[11.846944444444444,43.45583333333334]}"
"LI17","Baialupo","Baialupo","Italy","ITA",45.55333333333333,9.505555555555556,"{""type"":""Point"",""coordinates"":[9.505555555555556,45.55333333333333]}"
"LIDB","Belluno","Belluno","Italy","ITA",46.16722222222222,12.247777777777777,"{""type"":""Point"",""coordinates"":[12.247777777777777,46.16722222222222]}"
"LILI","Vercelli","Vercelli","Italy","ITA",45.31111111111111,8.417499999999999,"{""type"":""Point"",""coordinates"":[8.417499999999999,45.31111111111111]}"
"LIKH","Avro","Rivoli","Italy","ITA",46.23583333333333,13.073333333333332,"{""type"":""Point"",""coordinates"":[13.073333333333332,46.23583333333333]}"
"LIRQ","Peretola","Florence","Italy","ITA",43.808611111111105,11.202777777777778,"{""type"":""Point"",""coordinates"":[11.202777777777778,43.808611111111105]}"
"LIEO","Costa Smeralda","Olbia","Italy","ITA",40.89861111111111,9.517777777777779,"{""type"":""Point"",""coordinates"":[9.517777777777779,40.89861111111111]}"
"LI13","Masera","Masera","Italy","ITA",46.13583333333333,8.31,"{""type"":""Point"",""coordinates"":[8.31,46.13583333333333]}"
"LI18","Pratello","Peccioli","Italy","ITA",43.55416666666667,10.7525,"{""type"":""Point"",""coordinates"":[10.7525,43.55416666666667]}"
"LIED","Decimomannu","Decimomannu","Italy","ITA",39.35385,8.971725,"{""type"":""Point"",""coordinates"":[8.971725,39.35385]}"
"LIPM","Marzaglia","Modena","Italy","ITA",44.63472222222222,10.81027777777778,"{""type"":""Point"",""coordinates"":[10.81027777777778,44.63472222222222]}"
"LI47","Grecciano","Livorno","Italy","ITA",43.62861111111111,10.482777777777779,"{""type"":""Point"",""coordinates"":[10.482777777777779,43.62861111111111]}"
"LIQL","Tassignano","Lucca","Italy","ITA",43.82972222222222,10.578888888888889,"{""type"":""Point"",""coordinates"":[10.578888888888889,43.82972222222222]}"
"LIPC","Cervia","Cervia","Italy","ITA",44.22176666666667,12.317561111111111,"{""type"":""Point"",""coordinates"":[12.317561111111111,44.22176666666667]}"
"LIER","Fenosu","Oristano","Italy","ITA",39.894999999999996,8.643055555555556,"{""type"":""Point"",""coordinates"":[8.643055555555556,39.894999999999996]}"
"LIPA","Aviano AB","Aviano","Italy","ITA",46.031077777777774,12.59646388888889,"{""type"":""Point"",""coordinates"":[12.59646388888889,46.031077777777774]}"
"LI09","Francavilla Bisio","Francavilla Bisio","Italy","ITA",44.730555555555554,8.730555555555556,"{""type"":""Point"",""coordinates"":[8.730555555555556,44.730555555555554]}"
"LIDF","Fano","Fano","Italy","ITA",43.825833333333335,13.027500000000002,"{""type"":""Point"",""coordinates"":[13.027500000000002,43.825833333333335]}"
"LIPH","S.Angelo","Treviso","Italy","ITA",45.65083333333333,12.197777777777778,"{""type"":""Point"",""coordinates"":[12.197777777777778,45.65083333333333]}"
"LIDR","Ravenna","Ravenna","Italy","ITA",44.364444444444445,12.224722222222223,"{""type"":""Point"",""coordinates"":[12.224722222222223,44.364444444444445]}"
"LILH","Rivanazzano","Voghera","Italy","ITA",44.96027777777778,9.009722222222223,"{""type"":""Point"",""coordinates"":[9.009722222222223,44.96027777777778]}"
"LI07","Costa D'Argento","Costa D'Argento","Italy","ITA",42.49527777777778,11.239444444444443,"{""type"":""Point"",""coordinates"":[11.239444444444443,42.49527777777778]}"
"LICD","Lampedusa","Lampedusa","Italy","ITA",35.49805555555556,12.618333333333334,"{""type"":""Point"",""coordinates"":[12.618333333333334,35.49805555555556]}"
"LIPK","Forli","Forli","Italy","ITA",44.19555555555555,12.069722222222222,"{""type"":""Point"",""coordinates"":[12.069722222222222,44.19555555555555]}"
"LI05","Ceresara","Ceresara","Italy","ITA",45.264722222222225,10.583333333333334,"{""type"":""Point"",""coordinates"":[10.583333333333334,45.264722222222225]}"