"airportCode","airportName","cityName","countryName","countryCode","latitude","longitude","geometry"
"RORY","Yoron","Yoron","Japan","JPN",27.04388888888889,128.40166666666667,"{""type"":""Point"",""coordinates"":[128.40166666666667,27.04388888888889]}"
"RORT","Tarama","Tarama","Japan","JPN",24.653888888888886,124.67527777777778,"{""type"":""Point"",""coordinates"":[124.67527777777778,24.653888888888886]}"
"RORS","Shimojishima","Shimojishima","Japan","JPN",24.826666666666668,125.14472222222223,"{""type"":""Point"",""coordinates"":[125.14472222222223,24.826666666666668]}"
"RORE","Iejima","Iejima","Japan","JPN",26.722499999999997,127.78694444444444,"{""type"":""Point"",""coordinates"":[127.78694444444444,26.722499999999997]}"
"ROKR","Kerama","Kerama","Japan","JPN",26.168333333333333,127.29333333333334,"{""type"":""Point"",""coordinates"":[127.29333333333334,26.168333333333333]}"
"ROIG","New Ishigaki","Ishigaki I","Japan","JPN",24.39638888888889,124.245,"{""type"":""Point"",""coordinates"":[124.245,24.39638888888889]}"
"ROKJ","Kumejima","Kumejima","Japan","JPN",26.363611111111112,126.71388888888889,"{""type"":""Point"",""coordinates"":[126.71388888888889,26.363611111111112]}"
"RODE","Ie Shima Aux AB","Ie Shima I.","Japan","JPN",26.72833333333333,127.76166666666667,"{""type"":""Point"",""coordinates"":[127.76166666666667,26.72833333333333]}"
"ROAH","Naha","Naha","Japan","JPN",26.195833333333333,127.64583333333334,"{""type"":""Point"",""coordinates"":[127.64583333333334,26.195833333333333]}"
"RJTT","Tokyo (Haneda) Intl","Tokyo","Japan","JPN",35.55333333333333,139.78111111111113,"{""type"":""Point"",""coordinates"":[139.78111111111113,35.55333333333333]}"
"RJTR","Kastner AHP","Camp Zama","Japan","JPN",35.513666666666666,139.39366666666666,"{""type"":""Point"",""coordinates"":[139.39366666666666,35.513666666666666]}"
"RJTQ","Miyake","Miyakejima","Japan","JPN",34.07361111111111,139.5602777777778,"{""type"":""Point"",""coordinates"":[139.5602777777778,34.07361111111111]}"
"RJSS","Sendai","Sendai","Japan","JPN",38.13972222222222,140.91694444444443,"{""type"":""Point"",""coordinates"":[140.91694444444443,38.13972222222222]}"
"RJSO","Ominato","Ominato","Japan","JPN",41.23277777777778,141.13222222222223,"{""type"":""Point"",""coordinates"":[141.13222222222223,41.23277777777778]}"
"RJSK","Akita","Akita","Japan","JPN",39.61555555555556,140.2186111111111,"{""type"":""Point"",""coordinates"":[140.2186111111111,39.61555555555556]}"
"RJSI","Hanamaki","Hanamaki","Japan","JPN",39.42861111111111,141.13527777777776,"{""type"":""Point"",""coordinates"":[141.13527777777776,39.42861111111111]}"
"RJSH","Hachinohe","Hachinohe","Japan","JPN",40.551944444444445,141.46722222222223,"{""type"":""Point"",""coordinates"":[141.46722222222223,40.551944444444445]}"
"RORA","Aguni","Aguni","Japan","JPN",26.592777777777776,127.24027777777778,"{""type"":""Point"",""coordinates"":[127.24027777777778,26.592777777777776]}"
"RJTC","Tachikawa","Tachikawa","Japan","JPN",35.71083333333333,139.40305555555557,"{""type"":""Point"",""coordinates"":[139.40305555555557,35.71083333333333]}"
"RJSD","Sado","Sado","Japan","JPN",38.06111111111111,138.41416666666666,"{""type"":""Point"",""coordinates"":[138.41416666666666,38.06111111111111]}"
"RJSM","Misawa AB","Misawa","Japan","JPN",40.70321388888889,141.3683638888889,"{""type"":""Point"",""coordinates"":[141.3683638888889,40.70321388888889]}"
"RJSC","Yamagata","Yamagata","Japan","JPN",38.411944444444444,140.3711111111111,"{""type"":""Point"",""coordinates"":[140.3711111111111,38.411944444444444]}"
"RJSA","Aomori","Aomori","Japan","JPN",40.733333333333334,140.68861111111113,"{""type"":""Point"",""coordinates"":[140.68861111111113,40.733333333333334]}"
"RJOZ","Ozuki","Shimonoseki","Japan","JPN",34.04694444444444,131.05222222222224,"{""type"":""Point"",""coordinates"":[131.05222222222224,34.04694444444444]}"
"RJOW","Iwami","Iwami","Japan","JPN",34.67638888888889,131.7902777777778,"{""type"":""Point"",""coordinates"":[131.7902777777778,34.67638888888889]}"
"RJOS","Tokushima","Tokushima","Japan","JPN",34.132222222222225,134.60916666666665,"{""type"":""Point"",""coordinates"":[134.60916666666665,34.132222222222225]}"
"RJFE","Fukue","Fukue","Japan","JPN",32.66638888888889,128.83277777777778,"{""type"":""Point"",""coordinates"":[128.83277777777778,32.66638888888889]}"
"RJOO","Osaka Intl","Osaka","Japan","JPN",34.78444444444444,135.43916666666667,"{""type"":""Point"",""coordinates"":[135.43916666666667,34.78444444444444]}"
"RJOM","Matsuyama","Matsuyama","Japan","JPN",33.827222222222225,132.69972222222222,"{""type"":""Point"",""coordinates"":[132.69972222222222,33.827222222222225]}"
"RJFN","Nyutabaru","Nyutabaru","Japan","JPN",32.08361111111111,131.45138888888889,"{""type"":""Point"",""coordinates"":[131.45138888888889,32.08361111111111]}"
"RJEC","Asahikawa","Asahikawa","Japan","JPN",43.670833333333334,142.4475,"{""type"":""Point"",""coordinates"":[142.4475,43.670833333333334]}"
"RJOH","Miho","Yonago","Japan","JPN",35.49333333333333,133.23916666666665,"{""type"":""Point"",""coordinates"":[133.23916666666665,35.49333333333333]}"
"RJNA","Nagoya","Nagoya","Japan","JPN",35.255,136.92444444444445,"{""type"":""Point"",""coordinates"":[136.92444444444445,35.255]}"
"RJOF","Hofu","Hofu","Japan","JPN",34.03444444444444,131.54638888888888,"{""type"":""Point"",""coordinates"":[131.54638888888888,34.03444444444444]}"
"ROMD","Minamidaito","Minamidaito","Japan","JPN",25.846666666666664,131.26361111111112,"{""type"":""Point"",""coordinates"":[131.26361111111112,25.846666666666664]}"
"RJOC","Izumo","Izumo","Japan","JPN",35.41361111111111,132.89,"{""type"":""Point"",""coordinates"":[132.89,35.41361111111111]}"
"RJCC","New Chitose","Sapporo","Japan","JPN",42.775277777777774,141.6925,"{""type"":""Point"",""coordinates"":[141.6925,42.775277777777774]}"
"RJOA","Hiroshima","Hiroshima","Japan","JPN",34.43611111111111,132.91944444444442,"{""type"":""Point"",""coordinates"":[132.91944444444442,34.43611111111111]}"
"RJNY","Shizuhama","Yaizu","Japan","JPN",34.812777777777775,138.29805555555555,"{""type"":""Point"",""coordinates"":[138.29805555555555,34.812777777777775]}"
"RJTU","Utsunomiya","Utsunomiya","Japan","JPN",36.51444444444444,139.87083333333334,"{""type"":""Point"",""coordinates"":[139.87083333333334,36.51444444444444]}"
"RJCN","Nakashibetsu","Nakashibetsu","Japan","JPN",43.5775,144.95999999999998,"{""type"":""Point"",""coordinates"":[144.95999999999998,43.5775]}"
"RJNK","Komatsu","Komatsu","Japan","JPN",36.39388888888889,136.4075,"{""type"":""Point"",""coordinates"":[136.4075,36.39388888888889]}"
"RJCT","Tokachi","Tokachi","Japan","JPN",42.890277777777776,143.15833333333333,"{""type"":""Point"",""coordinates"":[143.15833333333333,42.890277777777776]}"
"RJOI","Iwakuni MCAS","Iwakuni","Japan","JPN",34.14491666666667,132.246975,"{""type"":""Point"",""coordinates"":[132.246975,34.14491666666667]}"
"RJNH","Hamamatsu","Hamamatsu","Japan","JPN",34.750277777777775,137.70305555555555,"{""type"":""Point"",""coordinates"":[137.70305555555555,34.750277777777775]}"
"RJTY","Yokota AB","Tokyo","Japan","JPN",35.748491666666666,139.34848333333335,"{""type"":""Point"",""coordinates"":[139.34848333333335,35.748491666666666]}"
"RJNG","Gifu","Gifu","Japan","JPN",35.394444444444446,136.86944444444444,"{""type"":""Point"",""coordinates"":[136.86944444444444,35.394444444444446]}"
2055,"Oitakenou","Oitakenou, Japan","Japan","JPN",33.02611111111111,131.50555555555556,"{""type"":""Point"",""coordinates"":[131.50555555555556,33.02611111111111]}"
"RJFY","Kanoya","Kanoya","Japan","JPN",31.368055555555557,130.83805555555557,"{""type"":""Point"",""coordinates"":[130.83805555555557,31.368055555555557]}"
"RJKN","Tokunoshima","Tokunoshima","Japan","JPN",27.836388888888887,128.8813888888889,"{""type"":""Point"",""coordinates"":[128.8813888888889,27.836388888888887]}"
"RJNS","Shizuoka","Shizuoka","Japan","JPN",34.79611111111111,138.18944444444446,"{""type"":""Point"",""coordinates"":[138.18944444444446,34.79611111111111]}"
"RJTK","Kisarazu","Kisarazu","Japan","JPN",35.39828055555556,139.90981666666667,"{""type"":""Point"",""coordinates"":[139.90981666666667,35.39828055555556]}"
"RJKB","Okierabu","Okierabu I","Japan","JPN",27.43166666666667,128.70555555555555,"{""type"":""Point"",""coordinates"":[128.70555555555555,27.43166666666667]}"
"RJKA","Amami","Amami","Japan","JPN",28.430833333333336,129.71249999999998,"{""type"":""Point"",""coordinates"":[129.71249999999998,28.430833333333336]}"
"RJFU","Nagasaki","Nagasaki","Japan","JPN",32.91694444444444,129.91361111111112,"{""type"":""Point"",""coordinates"":[129.91361111111112,32.91694444444444]}"
"RJFZ","Tsuiki","Nakatsu","Japan","JPN",33.684999999999995,131.0402777777778,"{""type"":""Point"",""coordinates"":[131.0402777777778,33.684999999999995]}"
"RJST","Matsushima","Matsushima","Japan","JPN",38.403055555555554,141.21194444444444,"{""type"":""Point"",""coordinates"":[141.21194444444444,38.403055555555554]}"
"RJOR","Tottori","Tottori","Japan","JPN",35.53,134.165,"{""type"":""Point"",""coordinates"":[134.165,35.53]}"
"RJNO","Oki","Oki","Japan","JPN",36.17833333333333,133.32333333333332,"{""type"":""Point"",""coordinates"":[133.32333333333332,36.17833333333333]}"
"RJFT","Kumamoto","Kumamoto","Japan","JPN",32.83722222222222,130.8552777777778,"{""type"":""Point"",""coordinates"":[130.8552777777778,32.83722222222222]}"
"RJAW","Iwoto","Iwoto","Japan","JPN",24.784166666666668,141.3227777777778,"{""type"":""Point"",""coordinates"":[141.3227777777778,24.784166666666668]}"
"RJFS","Saga","Saga","Japan","JPN",33.14972222222222,130.30222222222224,"{""type"":""Point"",""coordinates"":[130.30222222222224,33.14972222222222]}"
"RJOB","Okayama","Okayama","Japan","JPN",34.75694444444444,133.8552777777778,"{""type"":""Point"",""coordinates"":[133.8552777777778,34.75694444444444]}"
"RODN","Kadena AB","Okinawa I","Japan","JPN",26.355611111111113,127.76763888888888,"{""type"":""Point"",""coordinates"":[127.76763888888888,26.355611111111113]}"
"RJFR","Kitakyushu","Kitakyushu","Japan","JPN",33.845555555555556,131.035,"{""type"":""Point"",""coordinates"":[131.035,33.845555555555556]}"
"RJCK","Kushiro","Kushiro","Japan","JPN",43.04083333333333,144.19305555555556,"{""type"":""Point"",""coordinates"":[144.19305555555556,43.04083333333333]}"
"RJFK","Kagoshima","Kagoshima","Japan","JPN",31.803333333333335,130.71944444444443,"{""type"":""Point"",""coordinates"":[130.71944444444443,31.803333333333335]}"
"RJFA","Ashiya","Ashiya","Japan","JPN",33.88138888888889,130.65166666666667,"{""type"":""Point"",""coordinates"":[130.65166666666667,33.88138888888889]}"
"RJCA","Asahikawa","Asahikawa","Japan","JPN",43.794444444444444,142.36499999999998,"{""type"":""Point"",""coordinates"":[142.36499999999998,43.794444444444444]}"
"RJFG","Tanegashima","Tanegashima","Japan","JPN",30.605,130.99166666666665,"{""type"":""Point"",""coordinates"":[130.99166666666665,30.605]}"
"RJTO","Oshima","Oshima","Japan","JPN",34.78194444444444,139.36027777777778,"{""type"":""Point"",""coordinates"":[139.36027777777778,34.78194444444444]}"
"RJTH","Hachijojima","Hachijojima","Japan","JPN",33.115,139.78583333333333,"{""type"":""Point"",""coordinates"":[139.78583333333333,33.115]}"
"RJEO","Okushiri","Okushiri","Japan","JPN",42.07166666666667,139.43277777777777,"{""type"":""Point"",""coordinates"":[139.43277777777777,42.07166666666667]}"
"RJAH","Hyakuri","Hyakuri","Japan","JPN",36.181666666666665,140.41472222222222,"{""type"":""Point"",""coordinates"":[140.41472222222222,36.181666666666665]}"
"RJFC","Yakushima","Yakushima","Japan","JPN",30.385555555555555,130.65916666666666,"{""type"":""Point"",""coordinates"":[130.65916666666666,30.385555555555555]}"
"RJNF","Fukui","Fukui","Japan","JPN",36.14277777777778,136.2238888888889,"{""type"":""Point"",""coordinates"":[136.2238888888889,36.14277777777778]}"
"RJOT","Takamatsu","Takamatsu","Japan","JPN",34.21416666666667,134.01555555555555,"{""type"":""Point"",""coordinates"":[134.01555555555555,34.21416666666667]}"
"RJNT","Toyama","Toyama","Japan","JPN",36.64833333333333,137.1875,"{""type"":""Point"",""coordinates"":[137.1875,36.64833333333333]}"
"RJAZ","Kozushima","Kozushima","Japan","JPN",34.18944444444444,139.1336111111111,"{""type"":""Point"",""coordinates"":[139.1336111111111,34.18944444444444]}"
"RJDM","Metabaru","Metabaru","Japan","JPN",33.32527777777778,130.41361111111112,"{""type"":""Point"",""coordinates"":[130.41361111111112,33.32527777777778]}"
"RJCJ","Chitose","Sapporo","Japan","JPN",42.794444444444444,141.6663888888889,"{""type"":""Point"",""coordinates"":[141.6663888888889,42.794444444444444]}"
"RJSF","Fukushima","Fukushima","Japan","JPN",37.2275,140.42805555555555,"{""type"":""Point"",""coordinates"":[140.42805555555555,37.2275]}"
"RJEB","Monbetsu","Monbetsu","Japan","JPN",44.30416666666667,143.40416666666667,"{""type"":""Point"",""coordinates"":[143.40416666666667,44.30416666666667]}"
"RORK","Kitadaito","Kitadaito I","Japan","JPN",25.94472222222222,131.32694444444445,"{""type"":""Point"",""coordinates"":[131.32694444444445,25.94472222222222]}"
"RJGG","Chubu Centrair Intl","Nagoya","Japan","JPN",34.858333333333334,136.8052777777778,"{""type"":""Point"",""coordinates"":[136.8052777777778,34.858333333333334]}"
"RJDO","Ojika","Ojika","Japan","JPN",33.19083333333333,129.0902777777778,"{""type"":""Point"",""coordinates"":[129.0902777777778,33.19083333333333]}"
"RJAK","Kasumigaura","Kasumigaura","Japan","JPN",36.03472222222222,140.1927777777778,"{""type"":""Point"",""coordinates"":[140.1927777777778,36.03472222222222]}"
"RJFF","Fukuoka","Fukuoka","Japan","JPN",33.58444444444444,130.45166666666665,"{""type"":""Point"",""coordinates"":[130.45166666666665,33.58444444444444]}"
"RJDK","Kamigoto","Kamigoto","Japan","JPN",33.01361111111111,129.1925,"{""type"":""Point"",""coordinates"":[129.1925,33.01361111111111]}"
"RJTA","Atsugi","Atsugi","Japan","JPN",35.45472222222222,139.45,"{""type"":""Point"",""coordinates"":[139.45,35.45472222222222]}"
"RJOK","Kochi","Kochi","Japan","JPN",33.54611111111111,133.66944444444442,"{""type"":""Point"",""coordinates"":[133.66944444444442,33.54611111111111]}"
"RJAA","Narita Intl","Tokyo","Japan","JPN",35.765277777777776,140.38555555555556,"{""type"":""Point"",""coordinates"":[140.38555555555556,35.765277777777776]}"
"RJFO","Oita","Oita","Japan","JPN",33.47944444444445,131.73722222222221,"{""type"":""Point"",""coordinates"":[131.73722222222221,33.47944444444445]}"
"RJCO","Sapporo","Sapporo","Japan","JPN",43.1175,141.3813888888889,"{""type"":""Point"",""coordinates"":[141.3813888888889,43.1175]}"
"RJSR","Odate-Noshiro","Odate-Noshiro","Japan","JPN",40.19194444444444,140.37166666666667,"{""type"":""Point"",""coordinates"":[140.37166666666667,40.19194444444444]}"
"RJOP","Komatsushima","Tokushima","Japan","JPN",34.00527777777778,134.6263888888889,"{""type"":""Point"",""coordinates"":[134.6263888888889,34.00527777777778]}"
"RJFM","Miyazaki","Miyazaki","Japan","JPN",31.877222222222223,131.44861111111112,"{""type"":""Point"",""coordinates"":[131.44861111111112,31.877222222222223]}"
"RJNW","Noto","Noto","Japan","JPN",37.29333333333333,136.9622222222222,"{""type"":""Point"",""coordinates"":[136.9622222222222,37.29333333333333]}"
"RJKI","Kikai","Kikai","Japan","JPN",28.32138888888889,129.92805555555555,"{""type"":""Point"",""coordinates"":[129.92805555555555,28.32138888888889]}"
"ROTM","Futenma MCAS","Okinawa I","Japan","JPN",26.274272222222223,127.7565,"{""type"":""Point"",""coordinates"":[127.7565,26.274272222222223]}"
"RJDC","Yamaguchi-Ube","Ube","Japan","JPN",33.93,131.27861111111113,"{""type"":""Point"",""coordinates"":[131.27861111111113,33.93]}"
"RJCM","Memanbetsu","Memanbetsu","Japan","JPN",43.88055555555555,144.16416666666666,"{""type"":""Point"",""coordinates"":[144.16416666666666,43.88055555555555]}"
"RJCH","Hakodate","Hakodate","Japan","JPN",41.769999999999996,140.82194444444445,"{""type"":""Point"",""coordinates"":[140.82194444444445,41.769999999999996]}"
"RJDA","Amakusa","Amakusa","Japan","JPN",32.48222222222223,130.1588888888889,"{""type"":""Point"",""coordinates"":[130.1588888888889,32.48222222222223]}"
"ROYN","Yonaguni","Yonaguni I","Japan","JPN",24.467499999999998,122.97972222222222,"{""type"":""Point"",""coordinates"":[122.97972222222222,24.467499999999998]}"
"RJTL","Shimofusa","Matsudo","Japan","JPN",35.79888888888889,140.01222222222222,"{""type"":""Point"",""coordinates"":[140.01222222222222,35.79888888888889]}"
"RJBE","Kobe","Kobe","Japan","JPN",34.632777777777775,135.2238888888889,"{""type"":""Point"",""coordinates"":[135.2238888888889,34.632777777777775]}"
"RJBB","Kansai Intl","Osaka","Japan","JPN",34.43416666666666,135.23277777777778,"{""type"":""Point"",""coordinates"":[135.23277777777778,34.43416666666666]}"
"RJOY","Yao","Yao","Japan","JPN",34.59666666666667,135.60055555555556,"{""type"":""Point"",""coordinates"":[135.60055555555556,34.59666666666667]}"
"RJOE","Akeno","Akeno","Japan","JPN",34.53333333333333,136.67222222222222,"{""type"":""Point"",""coordinates"":[136.67222222222222,34.53333333333333]}"
"RORH","Hateruma","Hateruma","Japan","JPN",24.058333333333334,123.80388888888889,"{""type"":""Point"",""coordinates"":[123.80388888888889,24.058333333333334]}"
"RJBD","Nanki-Shirahama","Nanki-Shirahama","Japan","JPN",33.66222222222222,135.36444444444444,"{""type"":""Point"",""coordinates"":[135.36444444444444,33.66222222222222]}"
"RJER","Rishiri","Rishiri","Japan","JPN",45.24194444444444,141.1875,"{""type"":""Point"",""coordinates"":[141.1875,45.24194444444444]}"
"RJBT","Tajima","Tajima","Japan","JPN",35.51277777777778,134.78694444444443,"{""type"":""Point"",""coordinates"":[134.78694444444443,35.51277777777778]}"
"RJSN","Niigata","Niigata","Japan","JPN",37.95583333333334,139.11166666666665,"{""type"":""Point"",""coordinates"":[139.11166666666665,37.95583333333334]}"
"RJDT","Tsushima","Tsushima","Japan","JPN",34.285,129.33055555555555,"{""type"":""Point"",""coordinates"":[129.33055555555555,34.285]}"
"RJDB","Iki","Ikishima","Japan","JPN",33.74916666666667,129.78583333333333,"{""type"":""Point"",""coordinates"":[129.78583333333333,33.74916666666667]}"
"RJCW","Wakkanai","Wakkanai","Japan","JPN",45.404444444444444,141.80222222222224,"{""type"":""Point"",""coordinates"":[141.80222222222224,45.404444444444444]}"
"ROMY","Miyako","Miyakojima","Japan","JPN",24.782777777777778,125.295,"{""type"":""Point"",""coordinates"":[125.295,24.782777777777778]}"
"RJSU","Kasuminome","Sendai","Japan","JPN",38.23555555555556,140.92305555555555,"{""type"":""Point"",""coordinates"":[140.92305555555555,38.23555555555556]}"
"RJAF","Matsumoto","Matsumoto","Japan","JPN",36.166666666666664,137.92277777777778,"{""type"":""Point"",""coordinates"":[137.92277777777778,36.166666666666664]}"
"RJTJ","Iruma","Iruma","Japan","JPN",35.841944444444444,139.41055555555556,"{""type"":""Point"",""coordinates"":[139.41055555555556,35.841944444444444]}"
"RJCB","Obihiro","Obihiro","Japan","JPN",42.733333333333334,143.21722222222223,"{""type"":""Point"",""coordinates"":[143.21722222222223,42.733333333333334]}"
"RJSY","Shonai","Shonai","Japan","JPN",38.81222222222222,139.78722222222223,"{""type"":""Point"",""coordinates"":[139.78722222222223,38.81222222222222]}"
"RJAM","Minami Torishima","Minami Torishima","Japan","JPN",24.289722222222224,153.97916666666666,"{""type"":""Point"",""coordinates"":[153.97916666666666,24.289722222222224]}"
"RJBK","Kohnan","Okayama","Japan","JPN",34.59138888888889,133.93333333333334,"{""type"":""Point"",""coordinates"":[133.93333333333334,34.59138888888889]}"
"RJTF","Chofu","Chofu","Japan","JPN",35.67166666666667,139.52805555555557,"{""type"":""Point"",""coordinates"":[139.52805555555557,35.67166666666667]}"
"RJAN","Niijima","Niijima","Japan","JPN",34.36944444444445,139.2686111111111,"{""type"":""Point"",""coordinates"":[139.2686111111111,34.36944444444445]}"
"RJDU","Omura","Omura","Japan","JPN",32.92805555555555,129.93416666666667,"{""type"":""Point"",""coordinates"":[129.93416666666667,32.92805555555555]}"