"airportCode","airportName","cityName","countryName","countryCode","latitude","longitude","geometry"
"HLZU","Zueitina Oxyl","Zueitina Oxyl","Libyan Arab Jamahiriya","LBY",30.87,20.075555555555557,"{""type"":""Point"",""coordinates"":[20.075555555555557,30.87]}"
"HLZT","Zelten S22","Zelten S22","Libyan Arab Jamahiriya","LBY",28.953333333333333,19.771666666666665,"{""type"":""Point"",""coordinates"":[19.771666666666665,28.953333333333333]}"
"HLZG","Oxy 103A","Oxy 103A","Libyan Arab Jamahiriya","LBY",29.045,20.781666666666666,"{""type"":""Point"",""coordinates"":[20.781666666666666,29.045]}"
"HLUB","Ubari","Ubari","Libyan Arab Jamahiriya","LBY",26.567633333333333,12.823116666666666,"{""type"":""Point"",""coordinates"":[12.823116666666666,26.567633333333333]}"
"HLTS","Tebisty V9","Tebisty V9","Libyan Arab Jamahiriya","LBY",28.605,19.305,"{""type"":""Point"",""coordinates"":[19.305,28.605]}"
"HLSD","Essider OJ","Essider OJ","Libyan Arab Jamahiriya","LBY",30.625,18.35138888888889,"{""type"":""Point"",""coordinates"":[18.35138888888889,30.625]}"
"HLTD","Ghadames","Ghadames","Libyan Arab Jamahiriya","LBY",30.151666666666664,9.715333333333332,"{""type"":""Point"",""coordinates"":[9.715333333333332,30.151666666666664]}"
"HLSH","Sahil","Sahil","Libyan Arab Jamahiriya","LBY",29.540000000000003,20.17,"{""type"":""Point"",""coordinates"":[20.17,29.540000000000003]}"
"HLZA","Zella Z74","Zella Z74","Libyan Arab Jamahiriya","LBY",28.58888888888889,17.301111111111112,"{""type"":""Point"",""coordinates"":[17.301111111111112,28.58888888888889]}"
"HLRA","Dahra WH32","Dahra WH32","Libyan Arab Jamahiriya","LBY",29.473333333333333,17.958333333333332,"{""type"":""Point"",""coordinates"":[17.958333333333332,29.473333333333333]}"
"HLMS","Misrata Intl","Misrata","Libyan Arab Jamahiriya","LBY",32.32416666666667,15.061944444444444,"{""type"":""Point"",""coordinates"":[15.061944444444444,32.32416666666667]}"
"HLTQ","Tobruk","Tobruk","Libyan Arab Jamahiriya","LBY",31.86003888888889,23.90630833333333,"{""type"":""Point"",""coordinates"":[23.90630833333333,31.86003888888889]}"
"HLLB","Benina Intl","Benghazi","Libyan Arab Jamahiriya","LBY",32.096805555555555,20.26956111111111,"{""type"":""Point"",""coordinates"":[20.26956111111111,32.096805555555555]}"
"HLBD","Beda M3","Beda M3","Libyan Arab Jamahiriya","LBY",28.483333333333334,19,"{""type"":""Point"",""coordinates"":[19,28.483333333333334]}"
"HLMB","Marsa Brega S21","Marsa Brega S21","Libyan Arab Jamahiriya","LBY",30.384999999999998,19.573333333333334,"{""type"":""Point"",""coordinates"":[19.573333333333334,30.384999999999998]}"
"HLML","Messla 5ALV","Messla 5ALV","Libyan Arab Jamahiriya","LBY",27.974999999999998,22.358333333333334,"{""type"":""Point"",""coordinates"":[22.358333333333334,27.974999999999998]}"
"HLGL","Gialo WH59E","Gialo WH59E","Libyan Arab Jamahiriya","LBY",28.668055555555558,21.441666666666666,"{""type"":""Point"",""coordinates"":[21.441666666666666,28.668055555555558]}"
"HLNM","Hamada NC8","Hamada NC8","Libyan Arab Jamahiriya","LBY",29.513333333333332,12.945,"{""type"":""Point"",""coordinates"":[12.945,29.513333333333332]}"
"HLWA","Waha WH59A","Waha WH59A","Libyan Arab Jamahiriya","LBY",28.290000000000003,19.946666666666665,"{""type"":""Point"",""coordinates"":[19.946666666666665,28.290000000000003]}"
"HLLQ","Labraq","El Beida","Libyan Arab Jamahiriya","LBY",32.78861111111111,21.964444444444442,"{""type"":""Point"",""coordinates"":[21.964444444444442,32.78861111111111]}"
"HLLM","Mitiga Intl","Tripoli","Libyan Arab Jamahiriya","LBY",32.894444444444446,13.277777777777779,"{""type"":""Point"",""coordinates"":[13.277777777777779,32.894444444444446]}"
"HLWF","Wafa","Wafa","Libyan Arab Jamahiriya","LBY",28.903055555555554,10.081666666666667,"{""type"":""Point"",""coordinates"":[10.081666666666667,28.903055555555554]}"
"HLKF","Kufra","Kufra","Libyan Arab Jamahiriya","LBY",24.178250000000002,23.31505,"{""type"":""Point"",""coordinates"":[23.31505,24.178250000000002]}"
"HLLT","Tripoli Intl","Tripoli","Libyan Arab Jamahiriya","LBY",32.66358888888889,13.15916111111111,"{""type"":""Point"",""coordinates"":[13.15916111111111,32.66358888888889]}"
"HLAM","Amal V12","Amal V12","Libyan Arab Jamahiriya","LBY",29.493333333333336,21.108333333333334,"{""type"":""Point"",""coordinates"":[21.108333333333334,29.493333333333336]}"
"HLGT","Ghat","Ghat","Libyan Arab Jamahiriya","LBY",25.13355,10.134033333333333,"{""type"":""Point"",""coordinates"":[10.134033333333333,25.13355]}"
"HLHM","Hamada NC5","Hamada NC5","Libyan Arab Jamahiriya","LBY",30.70138888888889,12.486666666666666,"{""type"":""Point"",""coordinates"":[12.486666666666666,30.70138888888889]}"
"HLLS","Sebha","Sebha","Libyan Arab Jamahiriya","LBY",26.987033333333333,14.472583333333333,"{""type"":""Point"",""coordinates"":[14.472583333333333,26.987033333333333]}"
"HLSA","Sarir C4/5ALZ","Sarir C4/5ALZ","Libyan Arab Jamahiriya","LBY",27.65833333333333,22.508333333333333,"{""type"":""Point"",""coordinates"":[22.508333333333333,27.65833333333333]}"
"HLS1","Sharara","Sharara","Libyan Arab Jamahiriya","LBY",26.55,12.231666666666667,"{""type"":""Point"",""coordinates"":[12.231666666666667,26.55]}"
"HLNR","Nafoora M4","Nafoora M4","Libyan Arab Jamahiriya","LBY",29.21833333333333,21.59,"{""type"":""Point"",""coordinates"":[21.59,29.21833333333333]}"
"HLDB","Eddib V7","Eddib V7","Libyan Arab Jamahiriya","LBY",28.974999999999998,17.586666666666666,"{""type"":""Point"",""coordinates"":[17.586666666666666,28.974999999999998]}"
"HLFL","Bu-Attifl A100","Bu-Attifl A100","Libyan Arab Jamahiriya","LBY",28.78638888888889,22.08722222222222,"{""type"":""Point"",""coordinates"":[22.08722222222222,28.78638888888889]}"
"HLGD","Ghardabiya Intl","Sirte","Libyan Arab Jamahiriya","LBY",31.060055555555557,16.591808333333333,"{""type"":""Point"",""coordinates"":[16.591808333333333,31.060055555555557]}"
"HLNF","Raslanuf V40","Raslanuf V40","Libyan Arab Jamahiriya","LBY",30.5,18.52722222222222,"{""type"":""Point"",""coordinates"":[18.52722222222222,30.5]}"
"HLZW","Zwara","Zwara","Libyan Arab Jamahiriya","LBY",32.9525,12.015277777777778,"{""type"":""Point"",""coordinates"":[12.015277777777778,32.9525]}"
"HLBK","Kambut","Burdi","Libyan Arab Jamahiriya","LBY",31.83511111111111,24.60552777777778,"{""type"":""Point"",""coordinates"":[24.60552777777778,31.83511111111111]}"
"","Tagrift","Tagrift","Libyan Arab Jamahiriya","LBY",29.371666666666666,18.003333333333334,"{""type"":""Point"",""coordinates"":[18.003333333333334,29.371666666666666]}"