"airportCode","airportName","cityName","countryName","countryCode","latitude","longitude","geometry"
"PPC","Punta Pescadero","Punta Pescadero","Mexico","MEX",23.798055555555557,-109.70555555555556,"{""type"":""Point"",""coordinates"":[-109.70555555555556,23.798055555555557]}"
"MMZO","Playa De Oro Intl","Manzanillo","Mexico","MEX",19.14476388888889,-104.558475,"{""type"":""Point"",""coordinates"":[-104.558475,19.14476388888889]}"
"MMZM","Zamora","Zamora","Mexico","MEX",20.044444444444448,-102.27555555555556,"{""type"":""Point"",""coordinates"":[-102.27555555555556,20.044444444444448]}"
"MMVR","Gen Heriberto Jara Intl","Veracruz","Mexico","MEX",19.145780555555554,-96.1873638888889,"{""type"":""Point"",""coordinates"":[-96.1873638888889,19.145780555555554]}"
"MMVA","C P A Carlos Rovirosa Intl","Villahermosa","Mexico","MEX",17.997019444444444,-92.81481388888889,"{""type"":""Point"",""coordinates"":[-92.81481388888889,17.997019444444444]}"
"MMMX","Benito Juarez Intl","Mexico City","Mexico","MEX",19.436394444444446,-99.07196944444443,"{""type"":""Point"",""coordinates"":[-99.07196944444443,19.436394444444446]}"
"MMPL","Punta Colorada","Punta Colorada","Mexico","MEX",23.566666666666666,-109.53333333333333,"{""type"":""Point"",""coordinates"":[-109.53333333333333,23.566666666666666]}"
"MMTJ","Gen Abelardo L Rodriguez Intl","Tijuana","Mexico","MEX",32.54105555555555,-116.96995833333334,"{""type"":""Point"",""coordinates"":[-116.96995833333334,32.54105555555555]}"
"MMTB","Gral de Div P A Angel H Corzo Molina","Teran","Mexico","MEX",16.739977777777778,-93.17323333333334,"{""type"":""Point"",""coordinates"":[-93.17323333333334,16.739977777777778]}"
"MMSD","Los Cabos Intl","San Jose Del Cabo","Mexico","MEX",23.152075,-109.72074166666667,"{""type"":""Point"",""coordinates"":[-109.72074166666667,23.152075]}"
"MMRX","Gen Lucio Blanco Intl","Reynosa","Mexico","MEX",26.00858611111111,-98.22824722222222,"{""type"":""Point"",""coordinates"":[-98.22824722222222,26.00858611111111]}"
"MMGR","Guerrero Negro","Guerrero Negro","Mexico","MEX",28.02615833333333,-114.02398611111111,"{""type"":""Point"",""coordinates"":[-114.02398611111111,28.02615833333333]}"
"MMPC","Ing Juan Guillermo Villasana","Pachuca","Mexico","MEX",20.07361111111111,-98.78333333333333,"{""type"":""Point"",""coordinates"":[-98.78333333333333,20.07361111111111]}"
"MMQT","Queretaro Intl","Queretaro","Mexico","MEX",20.617372222222222,-100.18566111111112,"{""type"":""Point"",""coordinates"":[-100.18566111111112,20.617372222222222]}"
"MMPT","Puerto Cortes","Puerto Cortes","Mexico","MEX",24.483333333333334,-111.83333333333333,"{""type"":""Point"",""coordinates"":[-111.83333333333333,24.483333333333334]}"
"MMCS","Abraham Gonzalez Intl","Ciudad Juarez","Mexico","MEX",31.636358333333334,-106.42876111111111,"{""type"":""Point"",""coordinates"":[-106.42876111111111,31.636358333333334]}"
"MMPR","Lic Gustavo Diaz Ordaz Intl","Puerto Vallarta","Mexico","MEX",20.680072222222222,-105.2542,"{""type"":""Point"",""coordinates"":[-105.2542,20.680072222222222]}"
"MMPQ","Aeropuerto de Palenque","Palenque","Mexico","MEX",17.53301388888889,-92.01558888888889,"{""type"":""Point"",""coordinates"":[-92.01558888888889,17.53301388888889]}"
"MMSB","San Blas","San Blas","Mexico","MEX",21.583333333333332,-105.33333333333333,"{""type"":""Point"",""coordinates"":[-105.33333333333333,21.583333333333332]}"
"MMPN","Lic and Gen Ignacio Lopez Rayon","Uruapan","Mexico","MEX",19.396452777777778,-102.03888611111111,"{""type"":""Point"",""coordinates"":[-102.03888611111111,19.396452777777778]}"
"MMTM","Gen Francisco Javier Mina Intl","Tampico","Mexico","MEX",22.289819444444447,-97.86441388888888,"{""type"":""Point"",""coordinates"":[-97.86441388888888,22.289819444444447]}"
"MMMV","Monclova Intl","Monclova","Mexico","MEX",26.9555,-101.47103888888888,"{""type"":""Point"",""coordinates"":[-101.47103888888888,26.9555]}"
"MMAS","Jesus Teran Intl","Aguascalientes","Mexico","MEX",21.70548611111111,-102.31789444444443,"{""type"":""Point"",""coordinates"":[-102.31789444444443,21.70548611111111]}"
"MMDO","Durango Intl","Durango","Mexico","MEX",24.126033333333332,-104.52746111111111,"{""type"":""Point"",""coordinates"":[-104.52746111111111,24.126033333333332]}"
"MMOX","Xoxocotlan Intl","Oaxaca","Mexico","MEX",16.998586111111113,-96.7260388888889,"{""type"":""Point"",""coordinates"":[-96.7260388888889,16.998586111111113]}"
"MMNL","Quetzalcoatl Intl","Nuevo Laredo","Mexico","MEX",27.44336388888889,-99.56991666666666,"{""type"":""Point"",""coordinates"":[-99.56991666666666,27.44336388888889]}"
"MMMY","Gen Mariano Escobedo Intl","Monterrey","Mexico","MEX",25.775858333333332,-100.10694444444444,"{""type"":""Point"",""coordinates"":[-100.10694444444444,25.775858333333332]}"
"MMBT","Bahias De Huatulco Intl","Bahias De Huatulco","Mexico","MEX",15.775327777777779,-96.26255277777778,"{""type"":""Point"",""coordinates"":[-96.26255277777778,15.775327777777779]}"
"MMML","Gen Rodolfo Sanchez Taboada Intl","Mexicali","Mexico","MEX",32.63068888888889,-115.24191111111111,"{""type"":""Point"",""coordinates"":[-115.24191111111111,32.63068888888889]}"
"MMSF","San Felipe Intl","San Felipe","Mexico","MEX",30.93138888888889,-114.80888888888889,"{""type"":""Point"",""coordinates"":[-114.80888888888889,30.93138888888889]}"
"MMMT","Minatitlan Intl","Minatitlan","Mexico","MEX",18.10334166666667,-94.58061388888889,"{""type"":""Point"",""coordinates"":[-94.58061388888889,18.10334166666667]}"
"MMTO","Lic Adolfo Lopez Mateos Intl","Toluca","Mexico","MEX",19.337083333333332,-99.56603333333334,"{""type"":""Point"",""coordinates"":[-99.56603333333334,19.337083333333332]}"
"MMNG","Nogales Intl","Nogales","Mexico","MEX",31.226388888888888,-110.97666666666667,"{""type"":""Point"",""coordinates"":[-110.97666666666667,31.226388888888888]}"
"MMPE","Del Mar de Cortes Intl","Puerto Penasco","Mexico","MEX",31.351897222222224,-113.30539999999999,"{""type"":""Point"",""coordinates"":[-113.30539999999999,31.351897222222224]}"
"MMPS","Puerto Escondido Intl","Puerto Escondido","Mexico","MEX",15.876916666666666,-97.08908333333333,"{""type"":""Point"",""coordinates"":[-97.08908333333333,15.876916666666666]}"
"MMGM","Gen Jose Ma Yanez Intl","Guaymas","Mexico","MEX",27.96932222222222,-110.92371666666668,"{""type"":""Point"",""coordinates"":[-110.92371666666668,27.96932222222222]}"
"MMMA","Gen Servando Canales Intl","Matamoros","Mexico","MEX",25.76994722222222,-97.52523333333333,"{""type"":""Point"",""coordinates"":[-97.52523333333333,25.76994722222222]}"
"MMCU","Gen Div P A Roberto Fierro Villalobos Intl","Chihuahua","Mexico","MEX",28.70232777777778,-105.9629638888889,"{""type"":""Point"",""coordinates"":[-105.9629638888889,28.70232777777778]}"
"MMIO","Plan De Guadalupe Intl","Saltillo","Mexico","MEX",25.549786111111114,-100.92835277777779,"{""type"":""Point"",""coordinates"":[-100.92835277777779,25.549786111111114]}"
"MMMZ","Gen Rafael Buelna Intl","Mazatlan","Mexico","MEX",23.161483333333333,-106.26455833333333,"{""type"":""Point"",""coordinates"":[-106.26455833333333,23.161483333333333]}"
"MMLT","Loreto Intl","Loreto","Mexico","MEX",25.989877777777778,-111.34696666666666,"{""type"":""Point"",""coordinates"":[-111.34696666666666,25.989877777777778]}"
"MMSL","Cabo San Lucas Intl","Cabo San Lucas","Mexico","MEX",22.948258333333335,-109.938325,"{""type"":""Point"",""coordinates"":[-109.938325,22.948258333333335]}"
"MMPG","Piedras Negras Intl","Piedras Negras","Mexico","MEX",28.627369444444444,-100.53440555555555,"{""type"":""Point"",""coordinates"":[-100.53440555555555,28.627369444444444]}"
"MMDA","Ciudad Constitucion","Ciudad Constitucion","Mexico","MEX",25.058333333333334,-111.60833333333333,"{""type"":""Point"",""coordinates"":[-111.60833333333333,25.058333333333334]}"
"MMPB","Hermanos Serdan Intl","Puebla","Mexico","MEX",19.15813611111111,-98.3715,"{""type"":""Point"",""coordinates"":[-98.3715,19.15813611111111]}"
"MMLP","Gen Manuel Marquez De Leon","La Paz","Mexico","MEX",24.072744444444446,-110.36254166666666,"{""type"":""Point"",""coordinates"":[-110.36254166666666,24.072744444444446]}"
"MMUN","Cancun Intl","Cancun","Mexico","MEX",21.04277777777778,-86.87333333333332,"{""type"":""Point"",""coordinates"":[-86.87333333333332,21.04277777777778]}"
"MMLO","De Guanajuato Intl","Leon","Mexico","MEX",20.993305555555555,-101.4809638888889,"{""type"":""Point"",""coordinates"":[-101.4809638888889,20.993305555555555]}"
"MMCL","Culiacan Intl","Culiacan","Mexico","MEX",24.765058333333332,-107.47515,"{""type"":""Point"",""coordinates"":[-107.47515,24.765058333333332]}"
"MMLM","Valle Del Fuerte International","Los Mochis","Mexico","MEX",25.68608888888889,-109.0812,"{""type"":""Point"",""coordinates"":[-109.0812,25.68608888888889]}"
"MMIA","Colima","Colima","Mexico","MEX",19.277016666666665,-103.57759999999999,"{""type"":""Point"",""coordinates"":[-103.57759999999999,19.277016666666665]}"
"MMCY","Celaya","Celaya","Mexico","MEX",20.545941666666668,-100.88643055555556,"{""type"":""Point"",""coordinates"":[-100.88643055555556,20.545941666666668]}"
"MMCE","Ciudad Del Carmen Intl","Ciudad Del Carmen","Mexico","MEX",18.651963888888886,-91.79954166666667,"{""type"":""Point"",""coordinates"":[-91.79954166666667,18.651963888888886]}"
"MMCT","Chichen-Itza Intl","Chichen-Itza","Mexico","MEX",20.64133888888889,-88.44621666666667,"{""type"":""Point"",""coordinates"":[-88.44621666666667,20.64133888888889]}"
"MMHC","Tehuacan","Tehuacan","Mexico","MEX",18.5,-97.41666666666667,"{""type"":""Point"",""coordinates"":[-97.41666666666667,18.5]}"
"MMCM","Chetumal Intl","Chetumal","Mexico","MEX",18.50463611111111,-88.32679444444445,"{""type"":""Point"",""coordinates"":[-88.32679444444445,18.50463611111111]}"
"MMCB","Gen Mariano Matamoros","Cuernavaca","Mexico","MEX",18.834508333333332,-99.26159166666666,"{""type"":""Point"",""coordinates"":[-99.26159166666666,18.834508333333332]}"
"MMCC","Ciudad Acuna Intl","Ciudad Acuna","Mexico","MEX",29.334999999999997,-101.10333333333332,"{""type"":""Point"",""coordinates"":[-101.10333333333332,29.334999999999997]}"
"MMGL","Miguel Hidalgo Y Costilla Intl","Guadalajara","Mexico","MEX",20.521833333333333,-103.31114444444444,"{""type"":""Point"",""coordinates"":[-103.31114444444444,20.521833333333333]}"
"MMTN","Tamuin","Tamuin","Mexico","MEX",22.03777777777778,-98.80666666666666,"{""type"":""Point"",""coordinates"":[-98.80666666666666,22.03777777777778]}"
"MMPA","Tajin","Poza Rica","Mexico","MEX",20.602094444444447,-97.46059166666667,"{""type"":""Point"",""coordinates"":[-97.46059166666667,20.602094444444447]}"
"MMSP","Ponciano Arriaga Intl","San Luis Potosi","Mexico","MEX",22.254261111111113,-100.93075833333334,"{""type"":""Point"",""coordinates"":[-100.93075833333334,22.254261111111113]}"
"MMMD","Lic Manuel Crescencio Rejon Intl","Merida","Mexico","MEX",20.93702222222222,-89.65769444444445,"{""type"":""Point"",""coordinates"":[-89.65769444444445,20.93702222222222]}"
"MMJC","Atizapan de Zaragoza","Atizapan de Zaragoza","Mexico","MEX",19.574816666666667,-99.28891666666667,"{""type"":""Point"",""coordinates"":[-99.28891666666667,19.574816666666667]}"
"MMJA","Lencero","Jalapa","Mexico","MEX",19.475055555555553,-96.79750555555556,"{""type"":""Point"",""coordinates"":[-96.79750555555556,19.475055555555553]}"
"MMZH","Ixtapa-Zihuatanejo Intl","Ixtapa-Zihuatanejo","Mexico","MEX",17.601622222222225,-101.46055,"{""type"":""Point"",""coordinates"":[-101.46055,17.601622222222225]}"
"MMIM","Isla Mujeres","Isla Mujeres","Mexico","MEX",21.245,-86.74,"{""type"":""Point"",""coordinates"":[-86.74,21.245]}"
"MMCZ","Cozumel Intl","Cozumel","Mexico","MEX",20.522063888888887,-86.92927777777778,"{""type"":""Point"",""coordinates"":[-86.92927777777778,20.522063888888887]}"
"MMES","Gen Div P A A L Salinas Carranza","Ensenada","Mexico","MEX",31.795250000000003,-116.60370833333333,"{""type"":""Point"",""coordinates"":[-116.60370833333333,31.795250000000003]}"
"MMAN","Del Norte Intl","Monterrey","Mexico","MEX",25.865605555555558,-100.23721111111111,"{""type"":""Point"",""coordinates"":[-100.23721111111111,25.865605555555558]}"
"MMCP","Alberto Acuna Ongay","Campeche","Mexico","MEX",19.816805555555554,-90.50030555555556,"{""type"":""Point"",""coordinates"":[-90.50030555555556,19.816805555555554]}"
"MMCO","Comitan (Copalar)","Comitan","Mexico","MEX",16.176680555555556,-92.05059722222222,"{""type"":""Point"",""coordinates"":[-92.05059722222222,16.176680555555556]}"
"MMCN","Ciudad Obregon Intl","Ciudad Obregon","Mexico","MEX",27.393044444444445,-109.83338333333333,"{""type"":""Point"",""coordinates"":[-109.83338333333333,27.393044444444445]}"
"MMZC","Gen Leobardo C Ruiz Intl","Zacatecas","Mexico","MEX",22.897394444444444,-102.68576944444445,"{""type"":""Point"",""coordinates"":[-102.68576944444445,22.897394444444444]}"
"MMEP","Tepic","Tepic","Mexico","MEX",21.41942777777778,-104.84256388888889,"{""type"":""Point"",""coordinates"":[-104.84256388888889,21.41942777777778]}"
"MMAG","Pablo L Sidar","Apatzingan","Mexico","MEX",19.1,-102.36666666666666,"{""type"":""Point"",""coordinates"":[-102.36666666666666,19.1]}"
"MMCV","Gen Pedro Jose Mendez Intl","Ciudad Victoria","Mexico","MEX",23.703430555555556,-98.95644444444444,"{""type"":""Point"",""coordinates"":[-98.95644444444444,23.703430555555556]}"
"MMTC","Torreon Intl","Torreon","Mexico","MEX",25.56828888888889,-103.41066944444445,"{""type"":""Point"",""coordinates"":[-103.41066944444445,25.56828888888889]}"
"MMAL","Agualeguas","Agualeguas","Mexico","MEX",26.335555555555555,-99.54444444444444,"{""type"":""Point"",""coordinates"":[-99.54444444444444,26.335555555555555]}"
"MMMM","Gen Francisco J Mujica Intl","Morelia","Mexico","MEX",19.849869444444444,-101.025375,"{""type"":""Point"",""coordinates"":[-101.025375,19.849869444444444]}"
"MMTP","Tapachula Intl","Tapachula","Mexico","MEX",14.79435,-92.36996666666666,"{""type"":""Point"",""coordinates"":[-92.36996666666666,14.79435]}"
"MMHO","Gen Ignacio Pesqueira Garcia","Hermosillo","Mexico","MEX",29.095816666666664,-111.04785277777778,"{""type"":""Point"",""coordinates"":[-111.04785277777778,29.095816666666664]}"
"MMCG","Nuevo Casas Grandes","Nuevo Casas Grandes","Mexico","MEX",30.4,-107.88333333333334,"{""type"":""Point"",""coordinates"":[-107.88333333333334,30.4]}"
"MMTU","Estacion Aeronaval","Tulum","Mexico","MEX",20.226666666666667,-87.4325,"{""type"":""Point"",""coordinates"":[-87.4325,20.226666666666667]}"
"MMLC","Lazaro Cardenas","Lazaro Cardenas","Mexico","MEX",17.983333333333334,-102.21666666666667,"{""type"":""Point"",""coordinates"":[-102.21666666666667,17.983333333333334]}"
"MMTG","Angel Albino Corzo","Tuxtla Gutierrez","Mexico","MEX",16.561819444444446,-93.02608055555555,"{""type"":""Point"",""coordinates"":[-93.02608055555555,16.561819444444446]}"
"MMAA","Gen Juan N Alvarez Intl","Acapulco","Mexico","MEX",16.75709722222222,-99.75381944444445,"{""type"":""Point"",""coordinates"":[-99.75381944444445,16.75709722222222]}"