"airportCode","airportName","cityName","countryName","countryCode","latitude","longitude","geometry"
"ENTY","Tynset","Tynset","Norway","NOR",62.25694444444444,10.669444444444444,"{""type"":""Point"",""coordinates"":[10.669444444444444,62.25694444444444]}"
"ENTS","Saeterasen","Trysil","Norway","NOR",61.230000000000004,12.266666666666667,"{""type"":""Point"",""coordinates"":[12.266666666666667,61.230000000000004]}"
"ENVD","Vadso","Vadso","Norway","NOR",70.06527777777778,29.84472222222222,"{""type"":""Point"",""coordinates"":[29.84472222222222,70.06527777777778]}"
"ENTO","Torp","Sandefjord","Norway","NOR",59.18666666666666,10.258611111111112,"{""type"":""Point"",""coordinates"":[10.258611111111112,59.18666666666666]}"
"ENSN","Geiteryggen","Skien","Norway","NOR",59.184999999999995,9.566944444444443,"{""type"":""Point"",""coordinates"":[9.566944444444443,59.184999999999995]}"
"ENSK","Skagen","Stokmarknes","Norway","NOR",68.58083333333333,15.026111111111112,"{""type"":""Point"",""coordinates"":[15.026111111111112,68.58083333333333]}"
"ENRY","Rygge","Moss","Norway","NOR",59.37888888888889,10.785555555555556,"{""type"":""Point"",""coordinates"":[10.785555555555556,59.37888888888889]}"
"ENRV","Reinsvoll","Reinsvoll","Norway","NOR",60.67222222222222,10.567499999999999,"{""type"":""Point"",""coordinates"":[10.567499999999999,60.67222222222222]}"
"ENRS","Rost","Rost","Norway","NOR",67.52777777777777,12.103333333333333,"{""type"":""Point"",""coordinates"":[12.103333333333333,67.52777777777777]}"
"ENHT","Hattfjelldal","Hattfjelldal","Norway","NOR",65.59472222222222,13.989166666666666,"{""type"":""Point"",""coordinates"":[13.989166666666666,65.59472222222222]}"
"ENSA","Svea","Svea","Norway","NOR",77.89694444444446,16.724999999999998,"{""type"":""Point"",""coordinates"":[16.724999999999998,77.89694444444446]}"
"ENSG","Haukasen","Sogndal","Norway","NOR",61.15611111111111,7.137777777777778,"{""type"":""Point"",""coordinates"":[7.137777777777778,61.15611111111111]}"
"ENRO","Roros","Roros","Norway","NOR",62.57888888888889,11.345,"{""type"":""Point"",""coordinates"":[11.345,62.57888888888889]}"
"ENSB","Longyear","Svalbard","Norway","NOR",78.2461111111111,15.465555555555556,"{""type"":""Point"",""coordinates"":[15.465555555555556,78.2461111111111]}"
"ENRM","Ryum","Rorvik","Norway","NOR",64.83833333333332,11.14611111111111,"{""type"":""Point"",""coordinates"":[11.14611111111111,64.83833333333332]}"
"ENML","Aro","Molde","Norway","NOR",62.74472222222222,7.2625,"{""type"":""Point"",""coordinates"":[7.2625,62.74472222222222]}"
"ENRI","Frya","Frya","Norway","NOR",61.54722222222222,10.061111111111112,"{""type"":""Point"",""coordinates"":[10.061111111111112,61.54722222222222]}"
"ENRG","Rognan","Rognan","Norway","NOR",67.1,15.413055555555555,"{""type"":""Point"",""coordinates"":[15.413055555555555,67.1]}"
"ENNO","Tuven","Notodden","Norway","NOR",59.565555555555555,9.212222222222222,"{""type"":""Point"",""coordinates"":[9.212222222222222,59.565555555555555]}"
"EN21","Wadahl","Wadahl","Norway","NOR",61.49916666666667,9.7975,"{""type"":""Point"",""coordinates"":[9.7975,61.49916666666667]}"
"ENNM","Namsos","Namsos","Norway","NOR",64.47222222222223,11.57861111111111,"{""type"":""Point"",""coordinates"":[11.57861111111111,64.47222222222223]}"
"ENNK","Framnes","Narvik","Norway","NOR",68.43694444444445,17.386666666666667,"{""type"":""Point"",""coordinates"":[17.386666666666667,68.43694444444445]}"
"ENNA","Banak","Lakselv","Norway","NOR",70.06666666666666,24.973888888888887,"{""type"":""Point"",""coordinates"":[24.973888888888887,70.06666666666666]}"
"ENMH","Mehamn","Mehamn","Norway","NOR",71.02972222222222,27.826666666666668,"{""type"":""Point"",""coordinates"":[27.826666666666668,71.02972222222222]}"
"ENLU","Nome","Lunde","Norway","NOR",59.29805555555556,9.133055555555556,"{""type"":""Point"",""coordinates"":[9.133055555555556,59.29805555555556]}"
"ENHV","Valan","Honningsvag","Norway","NOR",71.00972222222222,25.983611111111113,"{""type"":""Point"",""coordinates"":[25.983611111111113,71.00972222222222]}"
"ENKL","Klanten","Klanten","Norway","NOR",60.79083333333333,9.050555555555556,"{""type"":""Point"",""coordinates"":[9.050555555555556,60.79083333333333]}"
"ENKB","Kvernberget","Kristiansund","Norway","NOR",63.11194444444445,7.826111111111111,"{""type"":""Point"",""coordinates"":[7.826111111111111,63.11194444444445]}"
"ENHF","Hammerfest","Hammerfest","Norway","NOR",70.67972222222222,23.66861111111111,"{""type"":""Point"",""coordinates"":[23.66861111111111,70.67972222222222]}"
"ENHK","Hasvik","Hasvik","Norway","NOR",70.48666666666666,22.139722222222222,"{""type"":""Point"",""coordinates"":[22.139722222222222,70.48666666666666]}"
"ENRK","Astorp","Rakkestad","Norway","NOR",59.3975,11.346944444444444,"{""type"":""Point"",""coordinates"":[11.346944444444444,59.3975]}"
"ENDO","Thomlevold","Dokka","Norway","NOR",60.833333333333336,9.916666666666666,"{""type"":""Point"",""coordinates"":[9.916666666666666,60.833333333333336]}"
"ENJA","Jan Mayen","Jan Mayen","Norway","NOR",70.94388888888889,-8.651388888888889,"{""type"":""Point"",""coordinates"":[-8.651388888888889,70.94388888888889]}"
"EN09","Haga","Haga","Norway","NOR",60.021388888888886,11.382222222222223,"{""type"":""Point"",""coordinates"":[11.382222222222223,60.021388888888886]}"
"ENGM","Gardermoen","Oslo","Norway","NOR",60.20277777777778,11.08388888888889,"{""type"":""Point"",""coordinates"":[11.08388888888889,60.20277777777778]}"
"ENHD","Karmoy","Haugesund","Norway","NOR",59.343333333333334,5.2125,"{""type"":""Point"",""coordinates"":[5.2125,59.343333333333334]}"
"ENBO","Bodo","Bodo","Norway","NOR",67.26916666666666,14.365277777777777,"{""type"":""Point"",""coordinates"":[14.365277777777777,67.26916666666666]}"
"ENAS","Hamnerabben","Ny Alesund","Norway","NOR",78.92777777777778,11.874722222222223,"{""type"":""Point"",""coordinates"":[11.874722222222223,78.92777777777778]}"
"ENHA","Stafsberg","Hamar","Norway","NOR",60.81805555555556,11.068055555555555,"{""type"":""Point"",""coordinates"":[11.068055555555555,60.81805555555556]}"
"EN02","Atna","Atna","Norway","NOR",61.72916666666667,10.83888888888889,"{""type"":""Point"",""coordinates"":[10.83888888888889,61.72916666666667]}"
"ENCN","Kjevik","Kristiansand","Norway","NOR",58.20388888888889,8.085,"{""type"":""Point"",""coordinates"":[8.085,58.20388888888889]}"
"ENGN","Grimsmoen","Folldal","Norway","NOR",62.1175,10.110833333333334,"{""type"":""Point"",""coordinates"":[10.110833333333334,62.1175]}"
"ENOV","Hovden","Orsta-Volda","Norway","NOR",62.18,6.074166666666667,"{""type"":""Point"",""coordinates"":[6.074166666666667,62.18]}"
"EN05","Fiske","Fiske","Norway","NOR",63.016666666666666,9.05,"{""type"":""Point"",""coordinates"":[9.05,63.016666666666666]}"
"ENAL","Vigra","Alesund","Norway","NOR",62.5625,6.119722222222221,"{""type"":""Point"",""coordinates"":[6.119722222222221,62.5625]}"
"ENLK","Leknes","Leknes","Norway","NOR",68.1525,13.609444444444444,"{""type"":""Point"",""coordinates"":[13.609444444444444,68.1525]}"
"ENFL","Floro","Floro","Norway","NOR",61.58361111111111,5.0247222222222225,"{""type"":""Point"",""coordinates"":[5.0247222222222225,61.58361111111111]}"
"ENFG","Leirin","Fagernes","Norway","NOR",61.01555555555556,9.288055555555555,"{""type"":""Point"",""coordinates"":[9.288055555555555,61.01555555555556]}"
"ENSH","Helle","Svolvaer","Norway","NOR",68.24333333333334,14.669166666666666,"{""type"":""Point"",""coordinates"":[14.669166666666666,68.24333333333334]}"
"ENSD","Anda","Sandane","Norway","NOR",61.830000000000005,6.105833333333333,"{""type"":""Point"",""coordinates"":[6.105833333333333,61.830000000000005]}"
"ENOL","Orland","Orland","Norway","NOR",63.69916666666666,9.60388888888889,"{""type"":""Point"",""coordinates"":[9.60388888888889,63.69916666666666]}"
"ENLI","Lista","Farsund","Norway","NOR",58.10027777777778,6.625000000000001,"{""type"":""Point"",""coordinates"":[6.625000000000001,58.10027777777778]}"
"ENFA","Flatval","Froya","Norway","NOR",63.70055555555556,8.760555555555555,"{""type"":""Point"",""coordinates"":[8.760555555555555,63.70055555555556]}"
"ENOP","Fagerhaug","Oppdal","Norway","NOR",62.651849999999996,9.854775,"{""type"":""Point"",""coordinates"":[9.854775,62.651849999999996]}"
"ENSM","Starmoen","Elverum","Norway","NOR",60.88,11.673055555555555,"{""type"":""Point"",""coordinates"":[11.673055555555555,60.88]}"
"ENEN","Gradussan","Engeloy","Norway","NOR",67.96719444444444,14.99261111111111,"{""type"":""Point"",""coordinates"":[14.99261111111111,67.96719444444444]}"
"ENRA","Rossvoll","Mo I Rana","Norway","NOR",66.36388888888888,14.301388888888889,"{""type"":""Point"",""coordinates"":[14.301388888888889,66.36388888888888]}"
"ENBV","Berlevag","Berlevag","Norway","NOR",70.87138888888889,29.034166666666668,"{""type"":""Point"",""coordinates"":[29.034166666666668,70.87138888888889]}"
"ENBS","Batsfjord","Batsfjord","Norway","NOR",70.60027777777778,29.6925,"{""type"":""Point"",""coordinates"":[29.6925,70.60027777777778]}"
"ENJB","Jarlsberg","Jarlsberg","Norway","NOR",59.29805555555556,10.370000000000001,"{""type"":""Point"",""coordinates"":[10.370000000000001,59.29805555555556]}"
"ENAE","Ostre Aera","Ostre Aera","Norway","NOR",61.25833333333333,11.670555555555556,"{""type"":""Point"",""coordinates"":[11.670555555555556,61.25833333333333]}"
"ENVE","Araksoyene","Valle","Norway","NOR",59.03194444444444,7.553055555555555,"{""type"":""Point"",""coordinates"":[7.553055555555555,59.03194444444444]}"
"ENBR","Flesland","Bergen","Norway","NOR",60.29361111111111,5.218055555555556,"{""type"":""Point"",""coordinates"":[5.218055555555556,60.29361111111111]}"
"EN24","Oian","Oian","Norway","NOR",63.37361111111111,11.816666666666666,"{""type"":""Point"",""coordinates"":[11.816666666666666,63.37361111111111]}"
"EN07","Gossen","Gossen","Norway","NOR",62.835,6.83,"{""type"":""Point"",""coordinates"":[6.83,62.835]}"
"ENGS","Gronora","Snasa","Norway","NOR",64.18333333333334,12.171666666666667,"{""type"":""Point"",""coordinates"":[12.171666666666667,64.18333333333334]}"
"ENBN","Bronnoy","Bronnoysund","Norway","NOR",65.46111111111111,12.2175,"{""type"":""Point"",""coordinates"":[12.2175,65.46111111111111]}"
"ENBL","Bringeland","Forde","Norway","NOR",61.39111111111111,5.756944444444445,"{""type"":""Point"",""coordinates"":[5.756944444444445,61.39111111111111]}"
"ENAT","Alta","Alta","Norway","NOR",69.97611111111111,23.371666666666666,"{""type"":""Point"",""coordinates"":[23.371666666666666,69.97611111111111]}"
"ENSS","Svartnes","Vardo","Norway","NOR",70.35527777777777,31.045,"{""type"":""Point"",""coordinates"":[31.045,70.35527777777777]}"
"EN08","Bjorgan","Grong","Norway","NOR",64.39527777777778,12.341944444444445,"{""type"":""Point"",""coordinates"":[12.341944444444445,64.39527777777778]}"
"ENUL","Vaksinen","Os","Norway","NOR",60.19222222222222,5.4225,"{""type"":""Point"",""coordinates"":[5.4225,60.19222222222222]}"
"EN10","Haslemoen","Haslemoen","Norway","NOR",60.653888888888886,11.911944444444444,"{""type"":""Point"",""coordinates"":[11.911944444444444,60.653888888888886]}"
"EN25","Solenstua","Solenstua","Norway","NOR",61.83638888888889,11.726111111111111,"{""type"":""Point"",""coordinates"":[11.726111111111111,61.83638888888889]}"
"ENKR","Hoybuktmoen","Kirkenes","Norway","NOR",69.72500000000001,29.887777777777778,"{""type"":""Point"",""coordinates"":[29.887777777777778,69.72500000000001]}"
"ENVA","Vaernes","Trondheim","Norway","NOR",63.4575,10.924166666666666,"{""type"":""Point"",""coordinates"":[10.924166666666666,63.4575]}"
"ENEV","Evenes","Harstad-Narvik","Norway","NOR",68.4888888888889,16.678333333333335,"{""type"":""Point"",""coordinates"":[16.678333333333335,68.4888888888889]}"
"ENDU","Bardufoss","Bardufoss","Norway","NOR",69.05583333333333,18.540277777777778,"{""type"":""Point"",""coordinates"":[18.540277777777778,69.05583333333333]}"
"ENHS","Hokksund","Hokksund","Norway","NOR",59.76694444444444,9.911388888888888,"{""type"":""Point"",""coordinates"":[9.911388888888888,59.76694444444444]}"
"ENDI","Dagali","Geilo","Norway","NOR",60.416666666666664,8.512777777777778,"{""type"":""Point"",""coordinates"":[8.512777777777778,60.416666666666664]}"
"ENGK","Gullknapp","Gullknapp","Norway","NOR",58.516666666666666,8.7,"{""type"":""Point"",""coordinates"":[8.7,58.516666666666666]}"
"ENZV","Sola","Stavanger","Norway","NOR",58.876666666666665,5.637777777777777,"{""type"":""Point"",""coordinates"":[5.637777777777777,58.876666666666665]}"
"ENTC","Langnes","Tromso","Norway","NOR",69.68138888888889,18.91777777777778,"{""type"":""Point"",""coordinates"":[18.91777777777778,69.68138888888889]}"
"ENMS","Kjaerstad","Mosjoen","Norway","NOR",65.78361111111111,13.215277777777777,"{""type"":""Point"",""coordinates"":[13.215277777777777,65.78361111111111]}"
"ENST","Stokka","Sandnessjoen","Norway","NOR",65.95971388888888,12.472216666666666,"{""type"":""Point"",""coordinates"":[12.472216666666666,65.95971388888888]}"
"ENAN","Andoya","Andenes","Norway","NOR",69.2925,16.144166666666667,"{""type"":""Point"",""coordinates"":[16.144166666666667,69.2925]}"
"ENSR","Sorkjosen","Sorkjosen","Norway","NOR",69.78666666666666,20.959722222222222,"{""type"":""Point"",""coordinates"":[20.959722222222222,69.78666666666666]}"
"EN15","Maarud","Maarud","Norway","NOR",60.181666666666665,11.565833333333334,"{""type"":""Point"",""coordinates"":[11.565833333333334,60.181666666666665]}"
"ENFY","Fyresdal","Fyresdal","Norway","NOR",59.2,8.083333333333334,"{""type"":""Point"",""coordinates"":[8.083333333333334,59.2]}"
"ENKJ","Kjeller AB","Kjeller","Norway","NOR",59.96944444444445,11.03888888888889,"{""type"":""Point"",""coordinates"":[11.03888888888889,59.96944444444445]}"
"ENEG","Eggemoen","Eggemoen","Norway","NOR",60.217222222222226,10.323888888888888,"{""type"":""Point"",""coordinates"":[10.323888888888888,60.217222222222226]}"
"ENBM","Bomoen","Bomoen","Norway","NOR",60.63881666666666,6.5015,"{""type"":""Point"",""coordinates"":[6.5015,60.63881666666666]}"
"ENLB","Bjorli","Bjorli","Norway","NOR",62.23555555555556,8.246666666666666,"{""type"":""Point"",""coordinates"":[8.246666666666666,62.23555555555556]}"
"ENSU","Vinnu","Sunndal","Norway","NOR",62.657,8.68,"{""type"":""Point"",""coordinates"":[8.68,62.657]}"
"ENSO","Sorstokken","Stord","Norway","NOR",59.79277777777778,5.339722222222222,"{""type"":""Point"",""coordinates"":[5.339722222222222,59.79277777777778]}"
"EN13","Gjolstad","Kongsvinger","Norway","NOR",60.266666666666666,12.016666666666667,"{""type"":""Point"",""coordinates"":[12.016666666666667,60.266666666666666]}"