"airportCode","airportName","cityName","countryName","countryCode","latitude","longitude","geometry"
"NZYP","Waipukurau","Waipukurau","New Zealand","NZL",-39.99666666666667,176.53694444444443,"{""type"":""Point"",""coordinates"":[176.53694444444443,-39.99666666666667]}"
"NZWV","Waihi Beach","Waihi Beach","New Zealand","NZL",-37.43,175.95194444444442,"{""type"":""Point"",""coordinates"":[175.95194444444442,-37.43]}"
"NZWR","Whangarei","Whangarei","New Zealand","NZL",-35.76833333333333,174.36499999999998,"{""type"":""Point"",""coordinates"":[174.36499999999998,-35.76833333333333]}"
"NZWO","Wairoa","Wairoa","New Zealand","NZL",-39.00694444444444,177.40666666666667,"{""type"":""Point"",""coordinates"":[177.40666666666667,-39.00694444444444]}"
"NZWM","Waimate","Waimate","New Zealand","NZL",-44.79,171.09166666666667,"{""type"":""Point"",""coordinates"":[171.09166666666667,-44.79]}"
"NZWF","Wanaka","Wanaka","New Zealand","NZL",-44.72222222222222,169.24555555555554,"{""type"":""Point"",""coordinates"":[169.24555555555554,-44.72222222222222]}"
"NZWD","Williams Field","McMurdo Station","New Zealand","NZL",-77.87638888888888,167.03777777777776,"{""type"":""Point"",""coordinates"":[167.03777777777776,-77.87638888888888]}"
"NZWB","Woodbourne (Military)","Blenheim","New Zealand","NZL",-41.51833333333333,173.87027777777777,"{""type"":""Point"",""coordinates"":[173.87027777777777,-41.51833333333333]}"
"NZVL","Mandeville","Mandeville","New Zealand","NZL",-45.99027777777778,168.81222222222223,"{""type"":""Point"",""coordinates"":[168.81222222222223,-45.99027777777778]}"
"NZUN","Pauanui Beach","Pauanui Beach","New Zealand","NZL",-37.02166666666667,175.8636111111111,"{""type"":""Point"",""coordinates"":[175.8636111111111,-37.02166666666667]}"
"NZTO","Tokoroa","Tokoroa","New Zealand","NZL",-38.236666666666665,175.89277777777778,"{""type"":""Point"",""coordinates"":[175.89277777777778,-38.236666666666665]}"
"NZTL","Tekapo","Tekapo","New Zealand","NZL",-44.005,170.44166666666666,"{""type"":""Point"",""coordinates"":[170.44166666666666,-44.005]}"
"NZTI","Taieri","Taieri","New Zealand","NZL",-45.86,170.35833333333332,"{""type"":""Point"",""coordinates"":[170.35833333333332,-45.86]}"
"NZTH","Thames","Thames","New Zealand","NZL",-37.15653888888889,175.5501888888889,"{""type"":""Point"",""coordinates"":[175.5501888888889,-37.15653888888889]}"
"NZTG","Tauranga","Tauranga","New Zealand","NZL",-37.67194444444444,176.19611111111112,"{""type"":""Point"",""coordinates"":[176.19611111111112,-37.67194444444444]}"
"NZTM","Taumarunui","Taumarunui","New Zealand","NZL",-38.843333333333334,175.2552777777778,"{""type"":""Point"",""coordinates"":[175.2552777777778,-38.843333333333334]}"
"NZTE","Te Kowhai","Te Kowhai","New Zealand","NZL",-37.745,175.15861111111113,"{""type"":""Point"",""coordinates"":[175.15861111111113,-37.745]}"
"NZWN","Wellington Intl","Wellington","New Zealand","NZL",-41.327222222222225,174.8052777777778,"{""type"":""Point"",""coordinates"":[174.8052777777778,-41.327222222222225]}"
"NZSL","Springhill","Springhill","New Zealand","NZL",-36.325,174.55555555555557,"{""type"":""Point"",""coordinates"":[174.55555555555557,-36.325]}"
"NZSD","Stratford","Stratford","New Zealand","NZL",-39.31888888888889,174.3102777777778,"{""type"":""Point"",""coordinates"":[174.3102777777778,-39.31888888888889]}"
"NZRW","Ruawai","Ruawai","New Zealand","NZL",-36.09583333333334,173.9752777777778,"{""type"":""Point"",""coordinates"":[173.9752777777778,-36.09583333333334]}"
"NZRT","Rangiora","Rangiora","New Zealand","NZL",-43.29,172.54166666666666,"{""type"":""Point"",""coordinates"":[172.54166666666666,-43.29]}"
"NZRO","Rotorua","Rotorua","New Zealand","NZL",-38.10916666666667,176.31722222222223,"{""type"":""Point"",""coordinates"":[176.31722222222223,-38.10916666666667]}"
"NZWU","Wanganui","Wanganui","New Zealand","NZL",-39.96222222222222,175.0252777777778,"{""type"":""Point"",""coordinates"":[175.0252777777778,-39.96222222222222]}"
"NZRK","Rangitaiki","Taupo","New Zealand","NZL",-38.88666666666666,176.3636111111111,"{""type"":""Point"",""coordinates"":[176.3636111111111,-38.88666666666666]}"
"NZRC","Ryans Creek","Invercargill","New Zealand","NZL",-46.89972222222222,168.10194444444443,"{""type"":""Point"",""coordinates"":[168.10194444444443,-46.89972222222222]}"
"NZPM","Palmerston North","Palmerston North","New Zealand","NZL",-40.32055555555556,175.61694444444444,"{""type"":""Point"",""coordinates"":[175.61694444444444,-40.32055555555556]}"
"NZGB","Great Barrier","Great Barrier","New Zealand","NZL",-36.24138888888889,175.47194444444446,"{""type"":""Point"",""coordinates"":[175.47194444444446,-36.24138888888889]}"
"NZPI","Parakai","Parakai","New Zealand","NZL",-36.651666666666664,174.43333333333334,"{""type"":""Point"",""coordinates"":[174.43333333333334,-36.651666666666664]}"
"NZKY","Kowhai","Waipawa","New Zealand","NZL",-39.84527777777778,176.42138888888888,"{""type"":""Point"",""coordinates"":[176.42138888888888,-39.84527777777778]}"
"NZOP","Opotiki","Opotiki","New Zealand","NZL",-38.0225,177.30722222222224,"{""type"":""Point"",""coordinates"":[177.30722222222224,-38.0225]}"
"NZOM","Omaka","Blenheim","New Zealand","NZL",-41.54,173.92194444444445,"{""type"":""Point"",""coordinates"":[173.92194444444445,-41.54]}"
"NZSF","Springfield","Springfield","New Zealand","NZL",-43.38361111111111,171.91111111111113,"{""type"":""Point"",""coordinates"":[171.91111111111113,-43.38361111111111]}"
"NZNR","Napier","Napier","New Zealand","NZL",-39.465833333333336,176.87,"{""type"":""Point"",""coordinates"":[176.87,-39.465833333333336]}"
"NZMC","Mount Cook","Mount Cook","New Zealand","NZL",-43.765,170.13333333333333,"{""type"":""Point"",""coordinates"":[170.13333333333333,-43.765]}"
"NZNF","Norfolk","Inglewood","New Zealand","NZL",-39.20447222222222,174.22333333333333,"{""type"":""Point"",""coordinates"":[174.22333333333333,-39.20447222222222]}"
"NZOT","Otaki","Otaki","New Zealand","NZL",-40.78361111111111,175.1511111111111,"{""type"":""Point"",""coordinates"":[175.1511111111111,-40.78361111111111]}"
"NZMF","Milford Sound","Milford Sound","New Zealand","NZL",-44.67333333333333,167.92333333333332,"{""type"":""Point"",""coordinates"":[167.92333333333332,-44.67333333333333]}"
"NZMS","Masterton","Masterton","New Zealand","NZL",-40.973333333333336,175.6336111111111,"{""type"":""Point"",""coordinates"":[175.6336111111111,-40.973333333333336]}"
"NZPP","Paraparaumu","Paraparaumu","New Zealand","NZL",-40.904624999999996,174.98903888888887,"{""type"":""Point"",""coordinates"":[174.98903888888887,-40.904624999999996]}"
"NZHT","Haast","Haast","New Zealand","NZL",-43.86666666666667,169.0402777777778,"{""type"":""Point"",""coordinates"":[169.0402777777778,-43.86666666666667]}"
"NZOF","Omaha Flats","Omaha","New Zealand","NZL",-36.34616666666667,174.76033333333334,"{""type"":""Point"",""coordinates"":[174.76033333333334,-36.34616666666667]}"
"NZUK","Pukaki","Pukaki","New Zealand","NZL",-44.235,170.11833333333334,"{""type"":""Point"",""coordinates"":[170.11833333333334,-44.235]}"
"NZMR","Murchison","Murchison","New Zealand","NZL",-41.79666666666667,172.315,"{""type"":""Point"",""coordinates"":[172.315,-41.79666666666667]}"
"NZMO","Te Anau/Manapouri","Manapouri","New Zealand","NZL",-45.533055555555556,167.65,"{""type"":""Point"",""coordinates"":[167.65,-45.533055555555556]}"
"NZFJ","Franz Josef","Franz Josef","New Zealand","NZL",-43.363055555555555,170.13444444444443,"{""type"":""Point"",""coordinates"":[170.13444444444443,-43.363055555555555]}"
"NZMK","Motueka","Motueka","New Zealand","NZL",-41.123333333333335,172.9886111111111,"{""type"":""Point"",""coordinates"":[172.9886111111111,-41.123333333333335]}"
"NZFL","Flat Hills","Hunterville","New Zealand","NZL",-39.89555555555555,175.65333333333334,"{""type"":""Point"",""coordinates"":[175.65333333333334,-39.89555555555555]}"
"NZMT","Martinborough","Martinborough","New Zealand","NZL",-41.212500000000006,175.4861111111111,"{""type"":""Point"",""coordinates"":[175.4861111111111,-41.212500000000006]}"
"NZKM","Karamea","Karamea","New Zealand","NZL",-41.236666666666665,172.105,"{""type"":""Point"",""coordinates"":[172.105,-41.236666666666665]}"
"NZGA","Galatea","Galatea","New Zealand","NZL",-38.40861111111111,176.74194444444444,"{""type"":""Point"",""coordinates"":[176.74194444444444,-38.40861111111111]}"
"NZKT","Kaitaia","Kaitaia","New Zealand","NZL",-35.07002777777778,173.285175,"{""type"":""Point"",""coordinates"":[173.285175,-35.07002777777778]}"
"NZLE","Lake Station/Nelson Lakes","Lake Station/Nelson Lakes","New Zealand","NZL",-41.759166666666665,172.7458333333333,"{""type"":""Point"",""coordinates"":[172.7458333333333,-41.759166666666665]}"
"NZKK","Kerikeri","Kerikeri","New Zealand","NZL",-35.26273333333334,173.9119777777778,"{""type"":""Point"",""coordinates"":[173.9119777777778,-35.26273333333334]}"
"NZCG","Centennial Park","Centennial Park","New Zealand","NZL",-38.665277777777774,176.13472222222222,"{""type"":""Point"",""coordinates"":[176.13472222222222,-38.665277777777774]}"
"NZRA","Raglan","Raglan","New Zealand","NZL",-37.80472222222222,174.85999999999999,"{""type"":""Point"",""coordinates"":[174.85999999999999,-37.80472222222222]}"
"NZHS","Hastings","Hastings","New Zealand","NZL",-39.64666666666667,176.76694444444445,"{""type"":""Point"",""coordinates"":[176.76694444444445,-39.64666666666667]}"
"NZRX","Roxburgh","Roxburgh","New Zealand","NZL",-45.51166666666666,169.31666666666666,"{""type"":""Point"",""coordinates"":[169.31666666666666,-45.51166666666666]}"
"NZAA","Auckland Intl","Auckland","New Zealand","NZL",-37.00805555555556,174.79166666666666,"{""type"":""Point"",""coordinates"":[174.79166666666666,-37.00805555555556]}"
"NZCI","Chatham Is/Tuuta","Chatham Is","New Zealand","NZL",-43.81004166666666,-176.45730833333332,"{""type"":""Point"",""coordinates"":[-176.45730833333332,-43.81004166666666]}"
"NZKP","Koputaroa","Levin","New Zealand","NZL",-40.559444444444445,175.33305555555555,"{""type"":""Point"",""coordinates"":[175.33305555555555,-40.559444444444445]}"
"NZHP","Lake Haupiri","Lake Haupiri","New Zealand","NZL",-42.60111111111111,171.69916666666668,"{""type"":""Point"",""coordinates"":[171.69916666666668,-42.60111111111111]}"
"NZES","Wharepapa South","Wharepapa South","New Zealand","NZL",-38.14388888888889,175.55027777777778,"{""type"":""Point"",""coordinates"":[175.55027777777778,-38.14388888888889]}"
"NZOA","Omarama","Omarama","New Zealand","NZL",-44.486666666666665,169.9861111111111,"{""type"":""Point"",""coordinates"":[169.9861111111111,-44.486666666666665]}"
"NZFE","Fernside Fields","Rangiora","New Zealand","NZL",-43.3175,172.51166666666666,"{""type"":""Point"",""coordinates"":[172.51166666666666,-43.3175]}"
"NZHN","Hamilton","Hamilton","New Zealand","NZL",-37.86638888888889,175.33527777777778,"{""type"":""Point"",""coordinates"":[175.33527777777778,-37.86638888888889]}"
"NZNE","North Shore","North Shore","New Zealand","NZL",-36.656666666666666,174.6552777777778,"{""type"":""Point"",""coordinates"":[174.6552777777778,-36.656666666666666]}"
"NZKI","Kaikoura","Kaikoura","New Zealand","NZL",-42.425,173.6052777777778,"{""type"":""Point"",""coordinates"":[173.6052777777778,-42.425]}"
"NZTK","Takaka","Takaka","New Zealand","NZL",-40.81333333333333,172.7752777777778,"{""type"":""Point"",""coordinates"":[172.7752777777778,-40.81333333333333]}"
"NZQN","Queenstown","Queenstown","New Zealand","NZL",-45.02111111111111,168.73916666666665,"{""type"":""Point"",""coordinates"":[168.73916666666665,-45.02111111111111]}"
"NZHK","Hokitika","Hokitika","New Zealand","NZL",-42.71361111111111,170.98527777777775,"{""type"":""Point"",""coordinates"":[170.98527777777775,-42.71361111111111]}"
"NZDN","Dunedin","Dunedin","New Zealand","NZL",-45.92805555555555,170.19833333333332,"{""type"":""Point"",""coordinates"":[170.19833333333332,-45.92805555555555]}"
"NZFT","Flat Point","Flat Point","New Zealand","NZL",-41.24305555555556,175.96027777777778,"{""type"":""Point"",""coordinates"":[175.96027777777778,-41.24305555555556]}"
"NZHA","Hawera","Hawera","New Zealand","NZL",-39.55333333333333,174.26694444444445,"{""type"":""Point"",""coordinates"":[174.26694444444445,-39.55333333333333]}"
"NZHR","Hanmer Springs","Hanmer Springs","New Zealand","NZL",-42.55083333333333,172.82666666666665,"{""type"":""Point"",""coordinates"":[172.82666666666665,-42.55083333333333]}"
"NZAS","Ashburton","Ashburton","New Zealand","NZL",-43.90333333333333,171.79666666666665,"{""type"":""Point"",""coordinates"":[171.79666666666665,-43.90333333333333]}"
"NZFF","Forest Field","Cust","New Zealand","NZL",-43.38583333333333,172.36055555555555,"{""type"":""Point"",""coordinates"":[172.36055555555555,-43.38583333333333]}"
"NZPH","Pudding Hill","Methven","New Zealand","NZL",-43.58722222222222,171.5277777777778,"{""type"":""Point"",""coordinates"":[171.5277777777778,-43.58722222222222]}"
"NZGT","Glentanner","Glentanner","New Zealand","NZL",-43.907716666666666,170.1290277777778,"{""type"":""Point"",""coordinates"":[170.1290277777778,-43.907716666666666]}"
"NZGY","Glenorchy","Glenorchy","New Zealand","NZL",-44.87166666666667,168.39749999999998,"{""type"":""Point"",""coordinates"":[168.39749999999998,-44.87166666666667]}"
"NZOX","Okiwi Station","Okiwi","New Zealand","NZL",-36.146388888888886,175.4186111111111,"{""type"":""Point"",""coordinates"":[175.4186111111111,-36.146388888888886]}"
"NZGS","Gisborne","Gisborne","New Zealand","NZL",-38.663333333333334,177.97833333333332,"{""type"":""Point"",""coordinates"":[177.97833333333332,-38.663333333333334]}"
"NZOU","Oamaru","Oamaru","New Zealand","NZL",-44.97,171.08166666666665,"{""type"":""Point"",""coordinates"":[171.08166666666665,-44.97]}"
"NZDV","Dannevirke","Dannevirke","New Zealand","NZL",-40.22833333333333,176.07861111111112,"{""type"":""Point"",""coordinates"":[176.07861111111112,-40.22833333333333]}"
"NZCS","Cromwell Racecourse","Cromwell Racecourse","New Zealand","NZL",-45.04861111111111,169.17055555555555,"{""type"":""Point"",""coordinates"":[169.17055555555555,-45.04861111111111]}"
"NZNS","Nelson","Nelson","New Zealand","NZL",-41.29833333333333,173.2211111111111,"{""type"":""Point"",""coordinates"":[173.2211111111111,-41.29833333333333]}"
"NZNP","New Plymouth","New Plymouth","New Zealand","NZL",-39.00861111111111,174.17916666666665,"{""type"":""Point"",""coordinates"":[174.17916666666665,-39.00861111111111]}"
"NZDA","Dargaville","Dargaville","New Zealand","NZL",-35.939722222222215,173.8936111111111,"{""type"":""Point"",""coordinates"":[173.8936111111111,-35.939722222222215]}"
"NZWP","Whenuapai (Military)","Auckland","New Zealand","NZL",-36.78777777777778,174.6302777777778,"{""type"":""Point"",""coordinates"":[174.6302777777778,-36.78777777777778]}"
"NZGM","Greymouth","Greymouth","New Zealand","NZL",-42.461666666666666,171.19,"{""type"":""Point"",""coordinates"":[171.19,-42.461666666666666]}"
"NZFP","Foxpine","Foxpine","New Zealand","NZL",-40.45666666666667,175.27027777777778,"{""type"":""Point"",""coordinates"":[175.27027777777778,-40.45666666666667]}"
"NZKF","Kaipara Flats","Kaipara Flats","New Zealand","NZL",-36.406388888888884,174.58722222222224,"{""type"":""Point"",""coordinates"":[174.58722222222224,-36.406388888888884]}"
"NZMW","Makarora","Makarora","New Zealand","NZL",-44.23166666666667,169.2302777777778,"{""type"":""Point"",""coordinates"":[169.2302777777778,-44.23166666666667]}"
"NZWS","Westport","Westport","New Zealand","NZL",-41.73801111111111,171.58095555555556,"{""type"":""Point"",""coordinates"":[171.58095555555556,-41.73801111111111]}"
"NZCH","Christchurch Intl","Christchurch","New Zealand","NZL",-43.489444444444445,172.53444444444443,"{""type"":""Point"",""coordinates"":[172.53444444444443,-43.489444444444445]}"
"NZMA","Matamata","Matamata","New Zealand","NZL",-37.73444444444444,175.74194444444444,"{""type"":""Point"",""coordinates"":[175.74194444444444,-37.73444444444444]}"
"NZME","Mercer","Mercer","New Zealand","NZL",-37.2575,175.11499999999998,"{""type"":""Point"",""coordinates"":[175.11499999999998,-37.2575]}"
"NZOH","Ohakea (Military)","Ohakea","New Zealand","NZL",-40.20666666666667,175.38694444444442,"{""type"":""Point"",""coordinates"":[175.38694444444442,-40.20666666666667]}"
"NZWY","Wyndale","Wyndale","New Zealand","NZL",-43.38333333333333,171.9,"{""type"":""Point"",""coordinates"":[171.9,-43.38333333333333]}"
"NZRU","Waiouru","Waiouru","New Zealand","NZL",-39.44638888888888,175.65833333333333,"{""type"":""Point"",""coordinates"":[175.65833333333333,-39.44638888888888]}"
"NZMJ","Martins Bay","Martins Bay","New Zealand","NZL",-44.36361111111111,168.01916666666668,"{""type"":""Point"",""coordinates"":[168.01916666666668,-44.36361111111111]}"
"NZNV","Invercargill","Invercargill","New Zealand","NZL",-46.415,168.32,"{""type"":""Point"",""coordinates"":[168.32,-46.415]}"
"NZTT","Te Kuiti","Te Kuiti","New Zealand","NZL",-38.30333333333333,175.14694444444444,"{""type"":""Point"",""coordinates"":[175.14694444444444,-38.30333333333333]}"
"NZAP","Taupo","Taupo","New Zealand","NZL",-38.73972222222222,176.08444444444444,"{""type"":""Point"",""coordinates"":[176.08444444444444,-38.73972222222222]}"
"NZFI","Feilding","Feilding","New Zealand","NZL",-40.255833333333335,175.60583333333332,"{""type"":""Point"",""coordinates"":[175.60583333333332,-40.255833333333335]}"
"NZLX","Alexandra","Alexandra","New Zealand","NZL",-45.211666666666666,169.37333333333333,"{""type"":""Point"",""coordinates"":[169.37333333333333,-45.211666666666666]}"
"NZCX","Coromandel","Coromandel","New Zealand","NZL",-36.791666666666664,175.50861111111112,"{""type"":""Point"",""coordinates"":[175.50861111111112,-36.791666666666664]}"
"NZWK","Whakatane","Whakatane","New Zealand","NZL",-37.92055555555555,176.91416666666666,"{""type"":""Point"",""coordinates"":[176.91416666666666,-37.92055555555555]}"
"NZTU","Timaru","Timaru","New Zealand","NZL",-44.30290833333333,171.22532777777778,"{""type"":""Point"",""coordinates"":[171.22532777777778,-44.30290833333333]}"
"NZGC","Gore","Gore","New Zealand","NZL",-46.156666666666666,168.8983333333333,"{""type"":""Point"",""coordinates"":[168.8983333333333,-46.156666666666666]}"
"NZKO","Kaikohe","Kaikohe","New Zealand","NZL",-35.45111111111111,173.81722222222223,"{""type"":""Point"",""coordinates"":[173.81722222222223,-35.45111111111111]}"
"NZTN","Turangi","Turangi","New Zealand","NZL",-38.968333333333334,175.81361111111113,"{""type"":""Point"",""coordinates"":[175.81361111111113,-38.968333333333334]}"
"NZPO","Porangahau","Porangahau","New Zealand","NZL",-40.280833333333334,176.6525,"{""type"":""Point"",""coordinates"":[176.6525,-40.280833333333334]}"
"NZWL","West Melton","West Melton","New Zealand","NZL",-43.47666666666667,172.39666666666665,"{""type"":""Point"",""coordinates"":[172.39666666666665,-43.47666666666667]}"
"NZCW","Cromwell","Cromwell","New Zealand","NZL",-44.980000000000004,169.21833333333333,"{""type"":""Point"",""coordinates"":[169.21833333333333,-44.980000000000004]}"
"NZKD","Motu Kaikoura Island","Port Fitzroy","New Zealand","NZL",-36.17805555555555,175.32444444444445,"{""type"":""Point"",""coordinates"":[175.32444444444445,-36.17805555555555]}"
"NZAR","Ardmore","Auckland","New Zealand","NZL",-37.02972222222222,174.97333333333333,"{""type"":""Point"",""coordinates"":[174.97333333333333,-37.02972222222222]}"
"NZWT","Whitianga","Whitianga","New Zealand","NZL",-36.83166666666667,175.6786111111111,"{""type"":""Point"",""coordinates"":[175.6786111111111,-36.83166666666667]}"
"NZVR","Taihape","Taihape","New Zealand","NZL",-39.684999999999995,175.78861111111112,"{""type"":""Point"",""coordinates"":[175.78861111111112,-39.684999999999995]}"
"NZKE","Waiheke","Waiheke","New Zealand","NZL",-36.80833333333333,175.08527777777778,"{""type"":""Point"",""coordinates"":[175.08527777777778,-36.80833333333333]}"
"NZCB","Centre Bush","Winton","New Zealand","NZL",-46.04,168.31166666666667,"{""type"":""Point"",""coordinates"":[168.31166666666667,-46.04]}"
"NZBA","Balclutha","Balclutha","New Zealand","NZL",-46.24333333333333,169.75,"{""type"":""Point"",""coordinates"":[169.75,-46.24333333333333]}"