"airportCode","airportName","cityName","countryName","countryCode","latitude","longitude","geometry"
"SPZA","Maria Reiche Neuman","Nazca","Peru","PER",-14.854138888888889,-74.96177222222222,"{""type"":""Point"",""coordinates"":[-74.96177222222222,-14.854138888888889]}"
"SPVN","Vilcashuaman","Vilcashuaman","Peru","PER",-13.678194444444443,-73.92708333333334,"{""type"":""Point"",""coordinates"":[-73.92708333333334,-13.678194444444443]}"
"SPTN","Col Carlos Ciriani Santa Rosa","Tacna","Peru","PER",-18.05328888888889,-70.27582222222222,"{""type"":""Point"",""coordinates"":[-70.27582222222222,-18.05328888888889]}"
"SPSO","Pisco","Pisco","Peru","PER",-13.7448,-76.22041111111112,"{""type"":""Point"",""coordinates"":[-76.22041111111112,-13.7448]}"
"SPSE","Sepahua","Sepahua","Peru","PER",-11.142222222222221,-73.03416666666666,"{""type"":""Point"",""coordinates"":[-73.03416666666666,-11.142222222222221]}"
"SPRU","Cap Carlos Martinez De Pinillos Intl","Trujillo","Peru","PER",-8.081708333333333,-79.10864722222222,"{""type"":""Point"",""coordinates"":[-79.10864722222222,-8.081708333333333]}"
"SPQU","Rodriguez Ballon","Arequipa","Peru","PER",-16.340577777777778,-71.57080277777777,"{""type"":""Point"",""coordinates"":[-71.57080277777777,-16.340577777777778]}"
"SPPY","Chachapoyas","Chachapoyas","Peru","PER",-6.201944444444445,-77.8561111111111,"{""type"":""Point"",""coordinates"":[-77.8561111111111,-6.201944444444445]}"
"SPPN","Palmas Del Espino","Palmas Del Espino","Peru","PER",-8.343722222222222,-76.48934722222222,"{""type"":""Point"",""coordinates"":[-76.48934722222222,-8.343722222222222]}"
"SPRM","Capitan Alvarino","San Ramon","Peru","PER",-11.108333333333333,-75.33333333333333,"{""type"":""Point"",""coordinates"":[-75.33333333333333,-11.108333333333333]}"
"SPON","Orellana","Orellana","Peru","PER",-6.8966666666666665,-75.15305555555557,"{""type"":""Point"",""coordinates"":[-75.15305555555557,-6.8966666666666665]}"
"SPOR","Minas Buenaventura","Orcopampa","Peru","PER",-15.31488888888889,-72.35199999999999,"{""type"":""Point"",""coordinates"":[-72.35199999999999,-15.31488888888889]}"
"SPNU","Manu","Manu","Peru","PER",-12.289277777777778,-70.89016666666667,"{""type"":""Point"",""coordinates"":[-70.89016666666667,-12.289277777777778]}"
"SPUR","Capt Guillermo Concha Iberico","Piura","Peru","PER",-5.20575,-80.61638888888888,"{""type"":""Point"",""coordinates"":[-80.61638888888888,-5.20575]}"
"SPNM","Nuevo Mundo","Nuevo Mundo","Peru","PER",-11.542358333333333,-73.14234444444445,"{""type"":""Point"",""coordinates"":[-73.14234444444445,-11.542358333333333]}"
"SPMS","Moises Benzaquen Rengifo","Yurimaguas","Peru","PER",-5.8936111111111105,-76.11805555555554,"{""type"":""Point"",""coordinates"":[-76.11805555555554,-5.8936111111111105]}"
"SPTU","Padre Jose Aldamiz","Puerto Maldonado","Peru","PER",-12.613830555555555,-69.22867777777778,"{""type"":""Point"",""coordinates"":[-69.22867777777778,-12.613830555555555]}"
"SPIR","Patria","Patria","Peru","PER",-12.967302777777778,-71.42912222222223,"{""type"":""Point"",""coordinates"":[-71.42912222222223,-12.967302777777778]}"
"SPMF","Major PNP Nancy Flores Paucar","Mazamari","Peru","PER",-11.325516666666667,-74.53582777777778,"{""type"":""Point"",""coordinates"":[-74.53582777777778,-11.325516666666667]}"
"SPUC","Huamachuco","Huamachuco","Peru","PER",-7.666666666666667,-78.08333333333333,"{""type"":""Point"",""coordinates"":[-78.08333333333333,-7.666666666666667]}"
"SPDN","Colonia Angamos","Colonia Angamos","Peru","PER",-5.137125,-72.86788888888888,"{""type"":""Point"",""coordinates"":[-72.86788888888888,-5.137125]}"
"SPME","Pedro Canga","Tumbes","Peru","PER",-3.5522638888888887,-80.38106944444444,"{""type"":""Point"",""coordinates"":[-80.38106944444444,-3.5522638888888887]}"
"SPLP","Las Palmas","Lima","Peru","PER",-12.160125,-76.99877777777778,"{""type"":""Point"",""coordinates"":[-76.99877777777778,-12.160125]}"
"SPQT","Col Francisco Secada Vignetta","Iquitos","Peru","PER",-3.7847388888888887,-73.30880555555555,"{""type"":""Point"",""coordinates"":[-73.30880555555555,-3.7847388888888887]}"
"SPEQ","Moquegua","Moquegua","Peru","PER",-17.177500000000002,-70.93472222222222,"{""type"":""Point"",""coordinates"":[-70.93472222222222,-17.177500000000002]}"
"SPLN","San Nicolas","Rodriguez De Mendoza","Peru","PER",-6.392222222222222,-77.50138888888888,"{""type"":""Point"",""coordinates"":[-77.50138888888888,-6.392222222222222]}"
"SPID","Teniente Bergerie","Teniente Bergerie","Peru","PER",-3.74225,-73.26033333333334,"{""type"":""Point"",""coordinates"":[-73.26033333333334,-3.74225]}"
"SPJR","Gen Armando Revoredo Iglesias","Cajamarca","Peru","PER",-7.139222222222223,-78.48952777777778,"{""type"":""Point"",""coordinates"":[-78.48952777777778,-7.139222222222223]}"
"SPRF","San Rafael","San Rafael","Peru","PER",-14.282194444444444,-70.37969444444444,"{""type"":""Point"",""coordinates"":[-70.37969444444444,-14.282194444444444]}"
"SPLX","Lib Mandy Metropolitano","Lima","Peru","PER",-12.389,-76.75806944444444,"{""type"":""Point"",""coordinates"":[-76.75806944444444,-12.389]}"
"SPCL","Cap FAP David Armando Abensur Rengifo Intl","Pucallpa","Peru","PER",-8.377941666666667,-74.5743,"{""type"":""Point"",""coordinates"":[-74.5743,-8.377941666666667]}"
"SPJL","Inca Manco Capac Intl","Juliaca","Peru","PER",-15.466858333333333,-70.15788333333334,"{""type"":""Point"",""coordinates"":[-70.15788333333334,-15.466858333333333]}"
"SPZO","Tnte FAP Alejandro Velazco Astete Intl","Cusco","Peru","PER",-13.535722222222223,-71.93878055555555,"{""type"":""Point"",""coordinates"":[-71.93878055555555,-13.535722222222223]}"
"SPTE","San Francisco","Teresita","Peru","PER",-12.533333333333333,-73.8,"{""type"":""Point"",""coordinates"":[-73.8,-12.533333333333333]}"
"SPOY","Atico","Atico","Peru","PER",-16.232694444444444,-73.60605555555556,"{""type"":""Point"",""coordinates"":[-73.60605555555556,-16.232694444444444]}"
"SPWT","Las Malvinas","Las Malvinas","Peru","PER",-11.854941666666667,-72.93933611111112,"{""type"":""Point"",""coordinates"":[-72.93933611111112,-11.854941666666667]}"
"SPJJ","Francisco Carle","Jauja","Peru","PER",-11.780277777777778,-75.46861111111112,"{""type"":""Point"",""coordinates"":[-75.46861111111112,-11.780277777777778]}"
"SPPH","Pampa Hermosa","Pampa Hermosa","Peru","PER",-7.2,-75.3,"{""type"":""Point"",""coordinates"":[-75.3,-7.2]}"
"SPEP","Puerto Esperanza","Puerto Esperanza","Peru","PER",-9.770277777777778,-70.70916666666668,"{""type"":""Point"",""coordinates"":[-70.70916666666668,-9.770277777777778]}"
"SPJI","Juanjui","Juanjui","Peru","PER",-7.169722222222222,-76.72916666666667,"{""type"":""Point"",""coordinates"":[-76.72916666666667,-7.169722222222222]}"
"SPJE","Shumba","Jaen","Peru","PER",-5.591388888888889,-78.7713888888889,"{""type"":""Point"",""coordinates"":[-78.7713888888889,-5.591388888888889]}"
"SPJA","Rioja","Rioja","Peru","PER",-6.0677916666666665,-77.15980555555556,"{""type"":""Point"",""coordinates"":[-77.15980555555556,-6.0677916666666665]}"
"SPEN","Iscozasin","Iscozasin","Peru","PER",-10.183333333333334,-75.15,"{""type"":""Point"",""coordinates"":[-75.15,-10.183333333333334]}"
"SPHY","Andahuaylas","Andahuaylas","Peru","PER",-13.708819444444444,-73.35155555555555,"{""type"":""Point"",""coordinates"":[-73.35155555555555,-13.708819444444444]}"
"SPHI","Capt FAP J A Quinones Gonzalez INTL","Chiclayo","Peru","PER",-6.787477777777777,-79.82809999999999,"{""type"":""Point"",""coordinates"":[-79.82809999999999,-6.787477777777777]}"
"SPNC","Alferez David Figueroa Fernandini","Huanuco","Peru","PER",-9.878680555555556,-76.20456944444445,"{""type"":""Point"",""coordinates"":[-76.20456944444445,-9.878680555555556]}"
"SPIN","Inapari","Inapari","Peru","PER",-10.980555555555556,-69.5625,"{""type"":""Point"",""coordinates"":[-69.5625,-10.980555555555556]}"
"SPHZ","Comandante German Arias Grazziani","Anta Huaraz","Peru","PER",-9.3475,-77.59833333333333,"{""type"":""Point"",""coordinates"":[-77.59833333333333,-9.3475]}"
"SPHO","Col Alfredo Mendivil Duarte","Ayacucho","Peru","PER",-13.154836111111111,-74.20441666666667,"{""type"":""Point"",""coordinates"":[-74.20441666666667,-13.154836111111111]}"
"SPBC","Caballococha","Caballococha","Peru","PER",-3.9333333333333336,-70.5,"{""type"":""Point"",""coordinates"":[-70.5,-3.9333333333333336]}"
"SPGP","Gueppi","Gueppi","Peru","PER",-0.11916666666666667,-75.24777777777778,"{""type"":""Point"",""coordinates"":[-75.24777777777778,-0.11916666666666667]}"
"SPLO","ILO","ILO","Peru","PER",-17.695027777777778,-71.34393055555554,"{""type"":""Point"",""coordinates"":[-71.34393055555554,-17.695027777777778]}"
"SPST","CAP FAP Guillermo del Castillo","Tarapoto","Peru","PER",-6.50875,-76.37325,"{""type"":""Point"",""coordinates"":[-76.37325,-6.50875]}"
"SPGM","Tingo Maria","Tingo Maria","Peru","PER",-9.289666666666667,-76.00505555555556,"{""type"":""Point"",""coordinates"":[-76.00505555555556,-9.289666666666667]}"
"SPBL","Bolognesi","Bolognesi","Peru","PER",-10.029555555555556,-73.943375,"{""type"":""Point"",""coordinates"":[-73.943375,-10.029555555555556]}"
"SPOV","Shiringayoc O Hda Mejia","Leon Velarde","Peru","PER",-11.9,-69.16666666666667,"{""type"":""Point"",""coordinates"":[-69.16666666666667,-11.9]}"
"SPAC","Ciro Alegria","Ciro Alegria","Peru","PER",-4.607222222222222,-77.94055555555556,"{""type"":""Point"",""coordinates"":[-77.94055555555556,-4.607222222222222]}"
"SPIY","Yauri","Yauri, Peru","Peru","PER",-14.80638888888889,-71.43194444444445,"{""type"":""Point"",""coordinates"":[-71.43194444444445,-14.80638888888889]}"
"SPGB","Galilea","Galilea","Peru","PER",-4.031666666666666,-77.75027777777778,"{""type"":""Point"",""coordinates"":[-77.75027777777778,-4.031666666666666]}"
"SPJN","San Juan De Marcona","San Juan De Marcona","Peru","PER",-15.35,-75.15,"{""type"":""Point"",""coordinates"":[-75.15,-15.35]}"
"SPYL","Capitan Montes Intl","Talara","Peru","PER",-4.576611111111111,-81.25405833333333,"{""type"":""Point"",""coordinates"":[-81.25405833333333,-4.576611111111111]}"
"SPEO","Tte Fap Jaime De Montreuil","Chimbote","Peru","PER",-9.14975,-78.52361111111111,"{""type"":""Point"",""coordinates"":[-78.52361111111111,-9.14975]}"
"SPEE","EL ESTRECHO","GALILEA","Peru","PER",-2.4511111111111115,-72.66777777777779,"{""type"":""Point"",""coordinates"":[-72.66777777777779,-2.4511111111111115]}"
"SPKI","Kiteni","Kiteni","Peru","PER",-12.648633333333333,-73.03659722222223,"{""type"":""Point"",""coordinates"":[-73.03659722222223,-12.648633333333333]}"
"SPAS","ALF. FAP Vladimir Sara Bauer","Andoas","Peru","PER",-2.796108333333333,-76.46659722222222,"{""type"":""Point"",""coordinates"":[-76.46659722222222,-2.796108333333333]}"
"SPPB","Tipishsa","Puerto Breu","Peru","PER",-9.54111111111111,-72.75444444444445,"{""type"":""Point"",""coordinates"":[-72.75444444444445,-9.54111111111111]}"
"SPAY","Atalaya","Atalaya","Peru","PER",-10.72861111111111,-73.76611111111112,"{""type"":""Point"",""coordinates"":[-73.76611111111112,-10.72861111111111]}"
"SPDR","Trompeteros","Trompeteros","Peru","PER",-3.8055,-75.03990277777777,"{""type"":""Point"",""coordinates"":[-75.03990277777777,-3.8055]}"
"SPQN","Requena","Requena","Peru","PER",-5.0785,-73.85624999999999,"{""type"":""Point"",""coordinates"":[-73.85624999999999,-5.0785]}"
"SPBT","Oventeni","Oventeni","Peru","PER",-10.754166666666666,-74.22169444444445,"{""type"":""Point"",""coordinates"":[-74.22169444444445,-10.754166666666666]}"
"SPDO","Mollendo","Mollendo","Peru","PER",-17.044116666666667,-71.984575,"{""type"":""Point"",""coordinates"":[-71.984575,-17.044116666666667]}"
"SPYO","Pacasmayo","Pacasmayo","Peru","PER",-7.406944444444445,-79.56888888888888,"{""type"":""Point"",""coordinates"":[-79.56888888888888,-7.406944444444445]}"
"SPVI","Vicco","Vicco","Peru","PER",-10.848791666666667,-76.24683611111111,"{""type"":""Point"",""coordinates"":[-76.24683611111111,-10.848791666666667]}"
"SPIL","Quincemil","Quincemil","Peru","PER",-13.266666666666667,-70.68333333333334,"{""type"":""Point"",""coordinates"":[-70.68333333333334,-13.266666666666667]}"
"SPJC","Jorge Chavez Intl","Lima-Callao","Peru","PER",-12.021886111111112,-77.11431666666667,"{""type"":""Point"",""coordinates"":[-77.11431666666667,-12.021886111111112]}"
"SPCH","Tocache","Tocache","Peru","PER",-8.195444444444444,-76.52866666666667,"{""type"":""Point"",""coordinates"":[-76.52866666666667,-8.195444444444444]}"
"SPAR","Alerta","Alerta","Peru","PER",-11.683333333333334,-69.33333333333333,"{""type"":""Point"",""coordinates"":[-69.33333333333333,-11.683333333333334]}"