"airportCode","airportName","cityName","countryName","countryCode","latitude","longitude","geometry"
"RPVZ","Siquijor Community","Siquijor","Philippines","PHL",9.211722222222221,123.47112777777778,"{""type"":""Point"",""coordinates"":[123.47112777777778,9.211722222222221]}"
"RPVY","Catbalogan Community","Catbalogan","Philippines","PHL",11.804775000000001,124.83084722222222,"{""type"":""Point"",""coordinates"":[124.83084722222222,11.804775000000001]}"
"RPVV","Francisco B. Reyes Principal","Busuanga","Philippines","PHL",12.121944444444445,120.1007361111111,"{""type"":""Point"",""coordinates"":[120.1007361111111,12.121944444444445]}"
"RPVS","Antique","San Jose de Buenavista","Philippines","PHL",10.766388888888889,121.9323888888889,"{""type"":""Point"",""coordinates"":[121.9323888888889,10.766388888888889]}"
"RPVR","Roxas","Roxas","Philippines","PHL",11.597555555555557,122.7529611111111,"{""type"":""Point"",""coordinates"":[122.7529611111111,11.597555555555557]}"
"RPVP","Puerto Princesa Intl","Puerto Princesa","Philippines","PHL",9.742119444444443,118.75872777777778,"{""type"":""Point"",""coordinates"":[118.75872777777778,9.742119444444443]}"
"RPVM","Lapu Lapu/Mactan-Cebu Intl","Lapu-Lapu","Philippines","PHL",10.307544444444446,123.97941944444445,"{""type"":""Point"",""coordinates"":[123.97941944444445,10.307544444444446]}"
"RPVK","Kalibo","Kalibo","Philippines","PHL",11.680363888888888,122.37647222222222,"{""type"":""Point"",""coordinates"":[122.37647222222222,11.680363888888888]}"
"RPVJ","Masbate Principal","Masbate","Philippines","PHL",12.3653,123.61807499999999,"{""type"":""Point"",""coordinates"":[123.61807499999999,12.3653]}"
"RPVF","Catarman","Catarman","Philippines","PHL",12.502230555555556,124.63585277777779,"{""type"":""Point"",""coordinates"":[124.63585277777779,12.502230555555556]}"
"RPVW","Borongan Community","San Julian","Philippines","PHL",11.673669444444444,125.48084722222222,"{""type"":""Point"",""coordinates"":[125.48084722222222,11.673669444444444]}"
"RPVA","Daniel Z Romualdez","Tacloban","Philippines","PHL",11.227625,125.02775555555556,"{""type"":""Point"",""coordinates"":[125.02775555555556,11.227625]}"
"RPVD","Dumaguete","Dumaguete","Philippines","PHL",9.334175,123.30208055555555,"{""type"":""Point"",""coordinates"":[123.30208055555555,9.334175]}"
"RPVC","Calbayog Principal","Calbayog","Philippines","PHL",12.076980555555556,124.54779444444445,"{""type"":""Point"",""coordinates"":[124.54779444444445,12.076980555555556]}"
"RPVB","Bacolod","Silay","Philippines","PHL",10.776602777777779,123.0191,"{""type"":""Point"",""coordinates"":[123.0191,10.776602777777779]}"
"RPUM","Mamburao Community","Mamburao","Philippines","PHL",13.204149999999998,120.60780555555554,"{""type"":""Point"",""coordinates"":[120.60780555555554,13.204149999999998]}"
"RPUZ","Bagabag Community","Bagabag","Philippines","PHL",16.619097222222223,121.25234722222223,"{""type"":""Point"",""coordinates"":[121.25234722222223,16.619097222222223]}"
"RPUY","Cauayan Community","Cauayan","Philippines","PHL",16.92977777777778,121.75330833333334,"{""type"":""Point"",""coordinates"":[121.75330833333334,16.92977777777778]}"
"RPUW","Marinduque","Gasan","Philippines","PHL",13.32718888888889,121.84863888888889,"{""type"":""Point"",""coordinates"":[121.84863888888889,13.32718888888889]}"
"RPUU","Bulan Community","Bulan","Philippines","PHL",12.684722222222222,123.86168888888888,"{""type"":""Point"",""coordinates"":[123.86168888888888,12.684722222222222]}"
"RPMF","Bislig Community","Bislig","Philippines","PHL",8.188452777777778,126.32695,"{""type"":""Point"",""coordinates"":[126.32695,8.188452777777778]}"
"RPUR","Baler Community","Baler","Philippines","PHL",15.72953888888889,121.50365555555555,"{""type"":""Point"",""coordinates"":[121.50365555555555,15.72953888888889]}"
"RPUQ","Vigan Community","Vigan","Philippines","PHL",17.553880555555555,120.35144722222222,"{""type"":""Point"",""coordinates"":[120.35144722222222,17.553880555555555]}"
"RPUL","Fernando AB","Lipa","Philippines","PHL",13.955,121.125,"{""type"":""Point"",""coordinates"":[121.125,13.955]}"
"RPUK","Calapan Community","Calapan","Philippines","PHL",13.416775,121.20179166666667,"{""type"":""Point"",""coordinates"":[121.20179166666667,13.416775]}"
"RPUI","Iba Community","Iba","Philippines","PHL",15.331616666666667,119.96810555555555,"{""type"":""Point"",""coordinates"":[119.96810555555555,15.331616666666667]}"
"RPUH","San Jose","San Jose","Philippines","PHL",12.361541666666666,121.04655833333334,"{""type"":""Point"",""coordinates"":[121.04655833333334,12.361541666666666]}"
"RPMZ","Zamboanga Intl","Zamboanga","Philippines","PHL",6.9224194444444445,122.05963333333332,"{""type"":""Point"",""coordinates"":[122.05963333333332,6.9224194444444445]}"
"RPUE","Lucena","Lucena","Philippines","PHL",13.947705555555556,121.60114166666666,"{""type"":""Point"",""coordinates"":[121.60114166666666,13.947705555555556]}"
"RPUD","Daet Community","Daet","Philippines","PHL",14.131852777777778,122.98753055555555,"{""type"":""Point"",""coordinates"":[122.98753055555555,14.131852777777778]}"
"RPVT","Tagbilaran","Tagbilaran","Philippines","PHL",9.664188888888889,123.85362777777777,"{""type"":""Point"",""coordinates"":[123.85362777777777,9.664188888888889]}"
"RPMJ","Jolo","Jolo","Philippines","PHL",6.053066666666666,121.00973055555555,"{""type"":""Point"",""coordinates"":[121.00973055555555,6.053066666666666]}"
"RPLI","Laoag Intl","Laoag","Philippines","PHL",18.177775,120.53126388888889,"{""type"":""Point"",""coordinates"":[120.53126388888889,18.177775]}"
"RPUV","Virac","Virac","Philippines","PHL",13.575769444444445,124.215025,"{""type"":""Point"",""coordinates"":[124.215025,13.575769444444445]}"
"RPUB","Baguio Principal Airport","Baguio","Philippines","PHL",16.375086111111113,120.61894166666666,"{""type"":""Point"",""coordinates"":[120.61894166666666,16.375086111111113]}"
"RPSM","Maasin Community","Maasin","Philippines","PHL",10.187108333333333,124.78290555555556,"{""type"":""Point"",""coordinates"":[124.78290555555556,10.187108333333333]}"
"RPLV","Fort Magsaysay","Fort Magsaysay Apt","Philippines","PHL",15.434722222222222,121.0911111111111,"{""type"":""Point"",""coordinates"":[121.0911111111111,15.434722222222222]}"
"RPSB","Bantayan Community","Bantayan Island","Philippines","PHL",11.162472222222222,123.78469166666666,"{""type"":""Point"",""coordinates"":[123.78469166666666,11.162472222222222]}"
2022,"Tarumpitao","Tarumpitao Point","Philippines","PHL",9.05,117.63333333333334,"{""type"":""Point"",""coordinates"":[117.63333333333334,9.05]}"
"RPLY","Alabat Community","Alabat","Philippines","PHL",14.23296388888889,121.92864444444444,"{""type"":""Point"",""coordinates"":[121.92864444444444,14.23296388888889]}"
"RPLZ","Bacon Community","Bacon","Philippines","PHL",12.998588888888888,124.01807777777778,"{""type"":""Point"",""coordinates"":[124.01807777777778,12.998588888888888]}"
"RPMW","Tandag","Tandag","Philippines","PHL",9.065333333333333,126.16806666666668,"{""type"":""Point"",""coordinates"":[126.16806666666668,9.065333333333333]}"
"RPVI","Iloilo","Iloilo","Philippines","PHL",10.833016666666666,122.49335555555555,"{""type"":""Point"",""coordinates"":[122.49335555555555,10.833016666666666]}"
"RPMY","Laguindingan","Cagayan de Oro","Philippines","PHL",8.612202777777778,124.45649444444444,"{""type"":""Point"",""coordinates"":[124.45649444444444,8.612202777777778]}"
"RPMU","Cagayan de Sulu Community","Cagayan de Sulu","Philippines","PHL",7.012727777777778,118.49528611111111,"{""type"":""Point"",""coordinates"":[118.49528611111111,7.012727777777778]}"
"RPMO","Ozamis Community","Ozamis","Philippines","PHL",8.179475,123.84203055555555,"{""type"":""Point"",""coordinates"":[123.84203055555555,8.179475]}"
"RPML","Cagayan De Oro","Cagayan De Oro","Philippines","PHL",8.416211111111112,124.61135555555555,"{""type"":""Point"",""coordinates"":[124.61135555555555,8.416211111111112]}"
"RPMX","Liloy Community","Liloy","Philippines","PHL",8.148744444444445,122.66806944444446,"{""type"":""Point"",""coordinates"":[122.66806944444446,8.148744444444445]}"
"RPMN","Sanga Sanga Principal","Bongao","Philippines","PHL",5.048669444444444,119.74354722222222,"{""type"":""Point"",""coordinates"":[119.74354722222222,5.048669444444444]}"
"RPUO","Basco","Basco","Philippines","PHL",20.451452777777778,121.98022777777778,"{""type"":""Point"",""coordinates"":[121.98022777777778,20.451452777777778]}"
"RPMM","Malabang Community","Malabang","Philippines","PHL",7.617111111111112,124.05570555555555,"{""type"":""Point"",""coordinates"":[124.05570555555555,7.617111111111112]}"
"RPVO","Ormoc","Ormoc","Philippines","PHL",11.056519444444445,124.56554722222222,"{""type"":""Point"",""coordinates"":[124.56554722222222,11.056519444444445]}"
"RPMR","Tambler Natl","General Santos City","Philippines","PHL",6.058122222222222,125.09619722222222,"{""type"":""Point"",""coordinates"":[125.09619722222222,6.058122222222222]}"
"RPSN","Ubay Community","Ubay","Philippines","PHL",10.04878888888889,124.46806388888889,"{""type"":""Point"",""coordinates"":[124.46806388888889,10.04878888888889]}"
"RPVH","Hilongos Community","Hilongos","Philippines","PHL",10.37631388888889,124.7611111111111,"{""type"":""Point"",""coordinates"":[124.7611111111111,10.37631388888889]}"
"RPLO","Cuyo","Cuyo","Philippines","PHL",10.861247222222222,121.06806944444445,"{""type"":""Point"",""coordinates"":[121.06806944444445,10.861247222222222]}"
"RPLC","Diosdado Macapagal Intl","Angeles City","Philippines","PHL",15.18598888888889,120.56032222222223,"{""type"":""Point"",""coordinates"":[120.56032222222223,15.18598888888889]}"
"RPMH","Camiguin","Mambajao","Philippines","PHL",9.253786111111111,124.70847777777779,"{""type"":""Point"",""coordinates"":[124.70847777777779,9.253786111111111]}"
"RPUX","Plaridel Community","Plaridel","Philippines","PHL",14.891538888888888,120.85309444444444,"{""type"":""Point"",""coordinates"":[120.85309444444444,14.891538888888888]}"
"RPMG","Dipolog Principal","Dipolog","Philippines","PHL",8.601508333333333,123.34177222222222,"{""type"":""Point"",""coordinates"":[123.34177222222222,8.601508333333333]}"
"RPMC","Cotabato","Cotabato","Philippines","PHL",7.164733333333333,124.21034166666666,"{""type"":""Point"",""coordinates"":[124.21034166666666,7.164733333333333]}"
"RPVE","Godofredo P. Ramos","Malay","Philippines","PHL",11.926305555555555,121.95753055555556,"{""type"":""Point"",""coordinates"":[121.95753055555556,11.926305555555555]}"
"RPMA","Allah Valley Community","Surallah","Philippines","PHL",6.333591666666666,124.75139444444444,"{""type"":""Point"",""coordinates"":[124.75139444444444,6.333591666666666]}"
"RPMP","Pagadian","Pagadian","Philippines","PHL",7.828766666666667,123.4764,"{""type"":""Point"",""coordinates"":[123.4764,7.828766666666667]}"
"RPUG","Lingayen Community","Lingayen","Philippines","PHL",16.03452777777778,120.24671111111111,"{""type"":""Point"",""coordinates"":[120.24671111111111,16.03452777777778]}"
"RPMQ","Mati Community","Mati","Philippines","PHL",6.955763888888889,126.21583611111112,"{""type"":""Point"",""coordinates"":[126.21583611111112,6.955763888888889]}"
"RPME","Butuan","Butuan","Philippines","PHL",8.951849999999999,125.47811944444445,"{""type"":""Point"",""coordinates"":[125.47811944444445,8.951849999999999]}"
"RPLG","Wasig Community","Mansalay","Philippines","PHL",12.534661111111111,121.4828,"{""type"":""Point"",""coordinates"":[121.4828,12.534661111111111]}"
"RPLL","Ninoy Aquino Intl","Manila","Philippines","PHL",14.509905555555555,121.01369166666667,"{""type"":""Point"",""coordinates"":[121.01369166666667,14.509905555555555]}"
"RPLT","Itbayat Community","Itbayat","Philippines","PHL",20.720633333333332,121.82647222222222,"{""type"":""Point"",""coordinates"":[121.82647222222222,20.720633333333332]}"
"RPMI","Iligan Community","Iligan City","Philippines","PHL",8.148738888888888,124.20973333333333,"{""type"":""Point"",""coordinates"":[124.20973333333333,8.148738888888888]}"
"RPMD","Bangoy Intl","Davao","Philippines","PHL",7.125522222222222,125.64577777777778,"{""type"":""Point"",""coordinates"":[125.64577777777778,7.125522222222222]}"
"RPMS","Surigao","Surigao","Philippines","PHL",9.757816666666667,125.48107222222222,"{""type"":""Point"",""coordinates"":[125.48107222222222,9.757816666666667]}"
"RPVG","Guiuan Community","Guiuan","Philippines","PHL",11.036586111111111,125.74279722222222,"{""type"":""Point"",""coordinates"":[125.74279722222222,11.036586111111111]}"
"RPUT","Tuguegarao","Tuguegarao","Philippines","PHL",17.643533333333334,121.73313611111111,"{""type"":""Point"",""coordinates"":[121.73313611111111,17.643533333333334]}"
"RPVU","Romblon","Tablas Island","Philippines","PHL",12.309294444444445,122.07620833333333,"{""type"":""Point"",""coordinates"":[122.07620833333333,12.309294444444445]}"
"RPLR","Rosales Community","Rosales","Philippines","PHL",15.881755555555555,120.6181,"{""type"":""Point"",""coordinates"":[120.6181,15.881755555555555]}"
"RPLS","Sangley AB","Manila","Philippines","PHL",14.495,120.905,"{""type"":""Point"",""coordinates"":[120.905,14.495]}"
"RPUF","Basa AB","Floridablanca","Philippines","PHL",14.986666666666666,120.49333333333334,"{""type"":""Point"",""coordinates"":[120.49333333333334,14.986666666666666]}"
"RPLA","Pinamalayan Community","Pinamalayan","Philippines","PHL",12.97615,121.42410000000001,"{""type"":""Point"",""coordinates"":[121.42410000000001,12.97615]}"
"RPNS","Siargao Natl","Del Carmen","Philippines","PHL",9.859347222222222,126.01533611111111,"{""type"":""Point"",""coordinates"":[126.01533611111111,9.859347222222222]}"
2020,"Siargao","Siargao Is","Philippines","PHL",9.877777777777778,125.96777777777778,"{""type"":""Point"",""coordinates"":[125.96777777777778,9.877777777777778]}"
"RPLP","Legazpi","Legazpi","Philippines","PHL",13.161983333333334,123.7345611111111,"{""type"":""Point"",""coordinates"":[123.7345611111111,13.161983333333334]}"
"RPLN","Palanan Community","Palanan","Philippines","PHL",17.06333888888889,122.432275,"{""type"":""Point"",""coordinates"":[122.432275,17.06333888888889]}"
"RPLJ","Jomalig Community","Jomalig","Philippines","PHL",14.723483333333334,122.401425,"{""type"":""Point"",""coordinates"":[122.401425,14.723483333333334]}"
2024,"Misamis Or.","Camiguin","Philippines","PHL",9.255833333333333,124.70305555555557,"{""type"":""Point"",""coordinates"":[124.70305555555557,9.255833333333333]}"
"RPUS","San Fernando Community","San Fernando","Philippines","PHL",16.594502777777777,120.30312222222221,"{""type"":""Point"",""coordinates"":[120.30312222222221,16.594502777777777]}"
"RPLB","Subic Bay Intl","Subic Bay","Philippines","PHL",14.794447222222223,120.27136388888889,"{""type"":""Point"",""coordinates"":[120.27136388888889,14.794447222222223]}"
"RPNO","Siocon Community","Siocon","Philippines","PHL",7.707111111111112,122.16473333333334,"{""type"":""Point"",""coordinates"":[122.16473333333334,7.707111111111112]}"
"RPUN","Naga","Pili","Philippines","PHL",13.581052777777778,123.26197222222223,"{""type"":""Point"",""coordinates"":[123.26197222222223,13.581052777777778]}"
2017,"Dolores","Dolores","Philippines","PHL",12.043333333333333,125.47500000000001,"{""type"":""Point"",""coordinates"":[125.47500000000001,12.043333333333333]}"
"RPMV","Ipil Community","Ipil","Philippines","PHL",7.793216666666667,122.60695555555554,"{""type"":""Point"",""coordinates"":[122.60695555555554,7.793216666666667]}"
"RPVQ","Biliran Community","Naval","Philippines","PHL",11.562811111111111,124.41396666666667,"{""type"":""Point"",""coordinates"":[124.41396666666667,11.562811111111111]}"
"RPLM","Camp Capinpin","Tanay","Philippines","PHL",14.503055555555555,121.36305555555555,"{""type"":""Point"",""coordinates"":[121.36305555555555,14.503055555555555]}"
"RPLU","Lubang Community","Lubang","Philippines","PHL",13.858552777777778,120.10641944444444,"{""type"":""Point"",""coordinates"":[120.10641944444444,13.858552777777778]}"
2016,"Maj. Danilo Atienza,Sangley AB","Cavite City, Philippines","Philippines","PHL",14.661666666666667,120.905,"{""type"":""Point"",""coordinates"":[120.905,14.661666666666667]}"