"airportCode","airportName","cityName","countryName","countryCode","latitude","longitude","geometry"
"ESA","Esa'Ala","Esa'Ala","PNG","PNG",-9.870316666666668,150.95255,"{""type"":""Point"",""coordinates"":[150.95255,-9.870316666666668]}"
"AYXM","Komo","Komo","PNG","PNG",-6.063375,142.87680555555556,"{""type"":""Point"",""coordinates"":[142.87680555555556,-6.063375]}"
"AYWQ","Wakunai","Wakunai","PNG","PNG",-5.875000000000001,155.23333333333332,"{""type"":""Point"",""coordinates"":[155.23333333333332,-5.875000000000001]}"
"AYWG","Wanigela","Wanigela","PNG","PNG",-9.3368,149.15245000000002,"{""type"":""Point"",""coordinates"":[149.15245000000002,-9.3368]}"
"AYTJ","Tadji","Tadji","PNG","PNG",-3.1955999999999998,142.42481666666666,"{""type"":""Point"",""coordinates"":[142.42481666666666,-3.1955999999999998]}"
"AYTI","Tapini","Tapini","PNG","PNG",-8.358166666666666,146.99383333333333,"{""type"":""Point"",""coordinates"":[146.99383333333333,-8.358166666666666]}"
"AYTA","Tari","Tari","PNG","PNG",-5.8437166666666664,142.94613333333334,"{""type"":""Point"",""coordinates"":[142.94613333333334,-5.8437166666666664]}"
"AYSL","Sehulea","Sehulea","PNG","PNG",-9.961049999999998,151.16213333333334,"{""type"":""Point"",""coordinates"":[151.16213333333334,-9.961049999999998]}"
"AYSF","Safia","Safia","PNG","PNG",-9.594966666666668,148.63891666666666,"{""type"":""Point"",""coordinates"":[148.63891666666666,-9.594966666666668]}"
"AYSD","Saidor","Saidor","PNG","PNG",-5.624066666666667,146.45915,"{""type"":""Point"",""coordinates"":[146.45915,-5.624066666666667]}"
"AYPY","Jacksons","Port Moresby","PNG","PNG",-9.441466666666667,147.22045,"{""type"":""Point"",""coordinates"":[147.22045,-9.441466666666667]}"
"AYRI","Karimui","Karimui","PNG","PNG",-6.4947,144.82673333333332,"{""type"":""Point"",""coordinates"":[144.82673333333332,-6.4947]}"
"AYNZ","Nadzab","Lae","PNG","PNG",-6.569216666666667,146.72806666666668,"{""type"":""Point"",""coordinates"":[146.72806666666668,-6.569216666666667]}"
"AYNN","Kandep","Kandep","PNG","PNG",-5.840949999999999,143.51153333333335,"{""type"":""Point"",""coordinates"":[143.51153333333335,-5.840949999999999]}"
"AYMV","Malekolon","Malekolon","PNG","PNG",-4.0224166666666665,153.65661666666668,"{""type"":""Point"",""coordinates"":[153.65661666666668,-4.0224166666666665]}"
"AYMO","Momote","Momote","PNG","PNG",-2.0599833333333333,147.42411666666666,"{""type"":""Point"",""coordinates"":[147.42411666666666,-2.0599833333333333]}"
"AYVN","Vanimo","Vanimo","PNG","PNG",-2.697116666666667,141.30228333333335,"{""type"":""Point"",""coordinates"":[141.30228333333335,-2.697116666666667]}"
"AYTB","Tabubil","Tabubil","PNG","PNG",-5.279166666666667,141.22748333333334,"{""type"":""Point"",""coordinates"":[141.22748333333334,-5.279166666666667]}"
"AYMP","Malalaua","Malalaua","PNG","PNG",-8.073566666666666,146.16070000000002,"{""type"":""Point"",""coordinates"":[146.16070000000002,-8.073566666666666]}"
"AYKY","Kunaye","Lihir, Papa New Guinea","PNG","PNG",-3.043133333333333,152.62800000000001,"{""type"":""Point"",""coordinates"":[152.62800000000001,-3.043133333333333]}"
"AYGV","Green River","Green River","PNG","PNG",-3.9004666666666665,141.17776666666666,"{""type"":""Point"",""coordinates"":[141.17776666666666,-3.9004666666666665]}"
"AYKC","Kandrian","Kandrian","PNG","PNG",-6.198633333333333,149.54833333333332,"{""type"":""Point"",""coordinates"":[149.54833333333332,-6.198633333333333]}"
"AYMD","Madang","Madang","PNG","PNG",-5.208722222222223,145.78779722222222,"{""type"":""Point"",""coordinates"":[145.78779722222222,-5.208722222222223]}"
"AYGB","Gobe","Gobe","PNG","PNG",-6.8778500000000005,143.72188333333332,"{""type"":""Point"",""coordinates"":[143.72188333333332,-6.8778500000000005]}"
"AYKO","Kokoda","Kokoda","PNG","PNG",-8.888083333333332,147.73053333333334,"{""type"":""Point"",""coordinates"":[147.73053333333334,-8.888083333333332]}"
"AYTK","Tokua","Rabaul","PNG","PNG",-4.341033333333333,152.37921666666668,"{""type"":""Point"",""coordinates"":[152.37921666666668,-4.341033333333333]}"
"AYTE","Telefomin","Telefomin","PNG","PNG",-5.1292833333333325,141.63736666666665,"{""type"":""Point"",""coordinates"":[141.63736666666665,-5.1292833333333325]}"
"AYKM","Kerema","Kerema","PNG","PNG",-7.963816666666667,145.77186666666668,"{""type"":""Point"",""coordinates"":[145.77186666666668,-7.963816666666667]}"
"AYWD","Wapenamanda","Wapenamanda","PNG","PNG",-5.635316666666666,143.89231666666666,"{""type"":""Point"",""coordinates"":[143.89231666666666,-5.635316666666666]}"
"AYKI","Kiunga","Kiunga","PNG","PNG",-6.1251999999999995,141.28238333333334,"{""type"":""Point"",""coordinates"":[141.28238333333334,-6.1251999999999995]}"
"AYNX","Namatanai","Namatanai","PNG","PNG",-3.6727666666666665,152.44058333333334,"{""type"":""Point"",""coordinates"":[152.44058333333334,-3.6727666666666665]}"
"AYKA","Kiriwina","Kiriwina","PNG","PNG",-8.506283333333334,151.08093333333332,"{""type"":""Point"",""coordinates"":[151.08093333333332,-8.506283333333334]}"
"AYKW","Kawito","Kawito","PNG","PNG",-7.980483333333334,142.8239,"{""type"":""Point"",""coordinates"":[142.8239,-7.980483333333334]}"
"AYKV","Kavieng","Kavieng","PNG","PNG",-2.578983333333333,150.80742777777778,"{""type"":""Point"",""coordinates"":[150.80742777777778,-2.578983333333333]}"
"AYFI","Finschhafen","Finschhafen","PNG","PNG",-6.6217500000000005,147.85405,"{""type"":""Point"",""coordinates"":[147.85405,-6.6217500000000005]}"
"AYMH","Mount Hagen","Mount Hagen","PNG","PNG",-5.828916666666666,144.30053333333333,"{""type"":""Point"",""coordinates"":[144.30053333333333,-5.828916666666666]}"
"AYJS","Josephstall","Josephstall","PNG","PNG",-4.7494,145.00528333333332,"{""type"":""Point"",""coordinates"":[145.00528333333332,-4.7494]}"
"AYSE","Simberi","Simberi","PNG","PNG",-2.6625,151.9983333333333,"{""type"":""Point"",""coordinates"":[151.9983333333333,-2.6625]}"
"AYEH","Morehead","Morehead","PNG","PNG",-8.715366666666666,141.64884999999998,"{""type"":""Point"",""coordinates"":[141.64884999999998,-8.715366666666666]}"
"AYMS","Misima","Bwagaoia","PNG","PNG",-10.68815,152.83928333333336,"{""type"":""Point"",""coordinates"":[152.83928333333336,-10.68815]}"
"AYKK","Kikori","Kikori","PNG","PNG",-7.424655555555556,144.2500638888889,"{""type"":""Point"",""coordinates"":[144.2500638888889,-7.424655555555556]}"
"AYDU","Daru","Daru","PNG","PNG",-9.0866,143.20818333333332,"{""type"":""Point"",""coordinates"":[143.20818333333332,-9.0866]}"
"AYJB","Jacquinot Bay","Jacquinot Bay","PNG","PNG",-5.6565,151.50751666666667,"{""type"":""Point"",""coordinates"":[151.50751666666667,-5.6565]}"
"AYIQ","Kieta","Kieta","PNG","PNG",-6.306122222222222,155.72800555555557,"{""type"":""Point"",""coordinates"":[155.72800555555557,-6.306122222222222]}"
"AYIA","Nissan","Nissan","PNG","PNG",-4.496333333333333,154.22495,"{""type"":""Point"",""coordinates"":[154.22495,-4.496333333333333]}"
"DGO","Daugo Island","Port Moresby","PNG","PNG",-9.512802777777777,147.05013055555557,"{""type"":""Point"",""coordinates"":[147.05013055555557,-9.512802777777777]}"
"AYHF","Hayfield","Hayfield","PNG","PNG",-3.7017,143.05793333333335,"{""type"":""Point"",""coordinates"":[143.05793333333335,-3.7017]}"
"AYBM","Balimo","Balimo","PNG","PNG",-8.052150000000001,142.94058333333334,"{""type"":""Point"",""coordinates"":[142.94058333333334,-8.052150000000001]}"
"AYGN","Gurney","Alotau, Png","PNG","PNG",-10.310425,150.3341166666667,"{""type"":""Point"",""coordinates"":[150.3341166666667,-10.310425]}"
"AYHK","Hoskins","Hoskins","PNG","PNG",-5.464166666666667,150.40673333333334,"{""type"":""Point"",""coordinates"":[150.40673333333334,-5.464166666666667]}"
"AYGR","Girua","Girua","PNG","PNG",-8.8045,148.3089666666667,"{""type"":""Point"",""coordinates"":[148.3089666666667,-8.8045]}"
"AYMR","Moro","Moro","PNG","PNG",-6.363133333333333,143.23831666666666,"{""type"":""Point"",""coordinates"":[143.23831666666666,-6.363133333333333]}"
"AYIX","Witu","Witu","PNG","PNG",-4.687666666666667,149.43593333333334,"{""type"":""Point"",""coordinates"":[149.43593333333334,-4.687666666666667]}"
"AYBL","Bialla","Bialla","PNG","PNG",-5.3279,151.00433333333334,"{""type"":""Point"",""coordinates"":[151.00433333333334,-5.3279]}"
"AYCG","Cape Gloucester","Cape Gloucester","PNG","PNG",-5.45,148.44166666666666,"{""type"":""Point"",""coordinates"":[148.44166666666666,-5.45]}"
"AYCH","Chimbu","Chimbu","PNG","PNG",-6.024283333333333,144.97,"{""type"":""Point"",""coordinates"":[144.97,-6.024283333333333]}"
"AYGI","Garaina","Garaina","PNG","PNG",-7.881383333333334,147.14703333333333,"{""type"":""Point"",""coordinates"":[147.14703333333333,-7.881383333333334]}"
"AYMN","Mendi","Mendi","PNG","PNG",-6.148216666666667,143.65716666666668,"{""type"":""Point"",""coordinates"":[143.65716666666668,-6.148216666666667]}"
"AYNR","Nomad River","Nomad River","PNG","PNG",-6.293083333333334,142.23725,"{""type"":""Point"",""coordinates"":[142.23725,-6.293083333333334]}"
"AYRK","Kairuku","Kairuku","PNG","PNG",-8.817,146.52438333333333,"{""type"":""Point"",""coordinates"":[146.52438333333333,-8.817]}"
"AYEV","Erave","Erave","PNG","PNG",-6.608333333333333,143.9,"{""type"":""Point"",""coordinates"":[143.9,-6.608333333333333]}"
"AYGA","Goroka","Goroka","PNG","PNG",-6.082599999999999,145.39128333333332,"{""type"":""Point"",""coordinates"":[145.39128333333332,-6.082599999999999]}"
"AYGL","Gonali","Gonali","PNG","PNG",-5.527716666666667,151.57333333333332,"{""type"":""Point"",""coordinates"":[151.57333333333332,-5.527716666666667]}"
"AYAO","Aiome","Aiome","PNG","PNG",-5.145700000000001,144.7307,"{""type"":""Point"",""coordinates"":[144.7307,-5.145700000000001]}"
"AYMC","Menyamya","Menyamya","PNG","PNG",-7.216483333333334,146.01985000000002,"{""type"":""Point"",""coordinates"":[146.01985000000002,-7.216483333333334]}"
"AYEE","Emirau","Emirau","PNG","PNG",-1.6539499999999998,149.97576666666666,"{""type"":""Point"",""coordinates"":[149.97576666666666,-1.6539499999999998]}"
"AYOY","Open Bay","Open Bay","PNG","PNG",-4.798733333333333,151.69431666666668,"{""type"":""Point"",""coordinates"":[151.69431666666668,-4.798733333333333]}"
"AYBU","Bulolo","Bulolo","PNG","PNG",-7.221183333333333,146.65125,"{""type"":""Point"",""coordinates"":[146.65125,-7.221183333333333]}"
"AYWK","Boram","Wewak","PNG","PNG",-3.6004666666666667,143.669175,"{""type"":""Point"",""coordinates"":[143.669175,-3.6004666666666667]}"
"AYGJ","Guasopa","Guasopa","PNG","PNG",-9.224833333333333,152.9438,"{""type"":""Point"",""coordinates"":[152.9438,-9.224833333333333]}"
"AYWT","Woitape","Woitape","PNG","PNG",-8.549883333333334,147.25551666666667,"{""type"":""Point"",""coordinates"":[147.25551666666667,-8.549883333333334]}"
"AYBK","Buka","Buka","PNG","PNG",-5.420766666666667,154.6755,"{""type"":""Point"",""coordinates"":[154.6755,-5.420766666666667]}"