"airportCode","airportName","cityName","countryName","countryCode","latitude","longitude","geometry"
"EPZG","Babimost","Zielona Gora","Poland","POL",52.13861111111111,15.79861111111111,"{""type"":""Point"",""coordinates"":[15.79861111111111,52.13861111111111]}"
"EPZA","Zamosc","Zamosc","Poland","POL",50.70194444444445,23.204166666666666,"{""type"":""Point"",""coordinates"":[23.204166666666666,50.70194444444445]}"
"EPWS","Szymanow","Szymanow","Poland","POL",51.20583333333334,16.998055555555556,"{""type"":""Point"",""coordinates"":[16.998055555555556,51.20583333333334]}"
"EPTM","Tomaszow Mazowiecki","Tomaszow Mazowiecki","Poland","POL",51.58444444444444,20.09722222222222,"{""type"":""Point"",""coordinates"":[20.09722222222222,51.58444444444444]}"
"EPSU","Suwalki","Suwalki","Poland","POL",54.07277777777778,22.899166666666666,"{""type"":""Point"",""coordinates"":[22.899166666666666,54.07277777777778]}"
"EPST","Turbia","Stalowa Wola","Poland","POL",50.6275,21.998055555555556,"{""type"":""Point"",""coordinates"":[21.998055555555556,50.6275]}"
"EPIR","Inowroclaw","Inowroclaw","Poland","POL",52.828611111111115,18.330277777777777,"{""type"":""Point"",""coordinates"":[18.330277777777777,52.828611111111115]}"
"EPGY","Grady","Grady","Poland","POL",52.83694444444445,21.7775,"{""type"":""Point"",""coordinates"":[21.7775,52.83694444444445]}"
"EPSK","Krepa","Slupsk","Poland","POL",54.40833333333333,17.095555555555553,"{""type"":""Point"",""coordinates"":[17.095555555555553,54.40833333333333]}"
"EPRJ","Rzeszow","Rzeszow","Poland","POL",50.10416666666667,22.046944444444446,"{""type"":""Point"",""coordinates"":[22.046944444444446,50.10416666666667]}"
"EPPZ","Przasnysz","Przasnysz","Poland","POL",53.01,20.933333333333334,"{""type"":""Point"",""coordinates"":[20.933333333333334,53.01]}"
"EPPW","Powidz","Powidz","Poland","POL",52.37916666666667,17.852222222222224,"{""type"":""Point"",""coordinates"":[17.852222222222224,52.37916666666667]}"
"EPBC","Babice","Warsaw","Poland","POL",52.26916666666666,20.90722222222222,"{""type"":""Point"",""coordinates"":[20.90722222222222,52.26916666666666]}"
"EPSN","Swidwin","Swidwin","Poland","POL",53.79055555555556,15.82638888888889,"{""type"":""Point"",""coordinates"":[15.82638888888889,53.79055555555556]}"
"EPPL","Plock","Plock","Poland","POL",52.56194444444444,19.71972222222222,"{""type"":""Point"",""coordinates"":[19.71972222222222,52.56194444444444]}"
"EPRA","Sadkow","Radom","Poland","POL",51.388888888888886,21.211666666666666,"{""type"":""Point"",""coordinates"":[21.211666666666666,51.388888888888886]}"
"EPPT","Piotrkow Trybunalski","Piotrkow Trybunalski","Poland","POL",51.3825,19.68861111111111,"{""type"":""Point"",""coordinates"":[19.68861111111111,51.3825]}"
"EPPR","Pruszcz Gdanski","Pruszcz Gdanski","Poland","POL",54.24805555555556,18.671111111111113,"{""type"":""Point"",""coordinates"":[18.671111111111113,54.24805555555556]}"
"EPMM","Minsk Mazowiecki","Minsk Mazowiecki","Poland","POL",52.19555555555555,21.65583333333333,"{""type"":""Point"",""coordinates"":[21.65583333333333,52.19555555555555]}"
"EPPO","Lawica","Poznan","Poland","POL",52.42111111111111,16.82638888888889,"{""type"":""Point"",""coordinates"":[16.82638888888889,52.42111111111111]}"
"EPWA","Chopin","Warsaw","Poland","POL",52.16583333333333,20.96722222222222,"{""type"":""Point"",""coordinates"":[20.96722222222222,52.16583333333333]}"
"EPGO","Goraszka","Goraszka","Poland","POL",52.18444444444444,21.281388888888888,"{""type"":""Point"",""coordinates"":[21.281388888888888,52.18444444444444]}"
"EPOD","Dajtki","Olsztyn","Poland","POL",53.77305555555555,20.415,"{""type"":""Point"",""coordinates"":[20.415,53.77305555555555]}"
"EPML","Mielec","Mielec","Poland","POL",50.32222222222222,21.46222222222222,"{""type"":""Point"",""coordinates"":[21.46222222222222,50.32222222222222]}"
"EPLS","Leszno","Leszno","Poland","POL",51.835,16.521944444444443,"{""type"":""Point"",""coordinates"":[16.521944444444443,51.835]}"
"EPDA","Darlowo","Darlowo","Poland","POL",54.40472222222222,16.353055555555557,"{""type"":""Point"",""coordinates"":[16.353055555555557,54.40472222222222]}"
"EPDE","Deblin","Deblin","Poland","POL",51.551111111111105,21.891944444444444,"{""type"":""Point"",""coordinates"":[21.891944444444444,51.551111111111105]}"
"EPPB","Bednary","Poznan","Poland","POL",52.53472222222222,17.215833333333332,"{""type"":""Point"",""coordinates"":[17.215833333333332,52.53472222222222]}"
"EPIN","Inowroclaw","Inowroclaw","Poland","POL",52.80638888888888,18.285833333333336,"{""type"":""Point"",""coordinates"":[18.285833333333336,52.80638888888888]}"
"EPKR","Krosno","Krosno","Poland","POL",49.683055555555555,21.733611111111113,"{""type"":""Point"",""coordinates"":[21.733611111111113,49.683055555555555]}"
"EPMB","Malbork","Malbork","Poland","POL",54.026666666666664,19.135555555555555,"{""type"":""Point"",""coordinates"":[19.135555555555555,54.026666666666664]}"
"EPSD","Dabie","Szczecin","Poland","POL",53.39222222222222,14.633888888888889,"{""type"":""Point"",""coordinates"":[14.633888888888889,53.39222222222222]}"
"EPRP","Piastow","Radom","Poland","POL",51.47888888888889,21.110000000000003,"{""type"":""Point"",""coordinates"":[21.110000000000003,51.47888888888889]}"
"EPBK","Krywlany","Bialystok","Poland","POL",53.10138888888889,23.170555555555556,"{""type"":""Point"",""coordinates"":[23.170555555555556,53.10138888888889]}"
"EPTO","Torun","Torun","Poland","POL",53.02916666666667,18.545833333333334,"{""type"":""Point"",""coordinates"":[18.545833333333334,53.02916666666667]}"
"EPKA","Maslow","Kielce","Poland","POL",50.89694444444444,20.731666666666666,"{""type"":""Point"",""coordinates"":[20.731666666666666,50.89694444444444]}"
"EPLB","Lublin","Lublin","Poland","POL",51.24027777777778,22.71361111111111,"{""type"":""Point"",""coordinates"":[22.71361111111111,51.24027777777778]}"
"EPMR","Miroslawice","Miroslawice","Poland","POL",50.95916666666667,16.77027777777778,"{""type"":""Point"",""coordinates"":[16.77027777777778,50.95916666666667]}"
"EPLU","Lubin","Lubin","Poland","POL",51.42305555555555,16.19611111111111,"{""type"":""Point"",""coordinates"":[16.19611111111111,51.42305555555555]}"
"EPGL","Gliwice","Gliwice","Poland","POL",50.269444444444446,18.672777777777778,"{""type"":""Point"",""coordinates"":[18.672777777777778,50.269444444444446]}"
"EPMO","Modlin","Warsaw","Poland","POL",52.45111111111111,20.651944444444442,"{""type"":""Point"",""coordinates"":[20.651944444444442,52.45111111111111]}"
"EPSY","Mazury","Olsztyn","Poland","POL",53.481944444444444,20.93777777777778,"{""type"":""Point"",""coordinates"":[20.93777777777778,53.481944444444444]}"
"EPMI","Miroslawiec","Miroslawiec","Poland","POL",53.394999999999996,16.08277777777778,"{""type"":""Point"",""coordinates"":[16.08277777777778,53.394999999999996]}"
"EPKZ","Zegrze Pomorskie","Koszalin","Poland","POL",54.04222222222222,16.26361111111111,"{""type"":""Point"",""coordinates"":[16.26361111111111,54.04222222222222]}"
"EPZR","Zar","Zywiec","Poland","POL",49.77111111111111,19.218055555555555,"{""type"":""Point"",""coordinates"":[19.218055555555555,49.77111111111111]}"
"EPWT","Watorowo","Watorowo","Poland","POL",53.29861111111111,18.414166666666667,"{""type"":""Point"",""coordinates"":[18.414166666666667,53.29861111111111]}"
"EPKI","Kikity","Kikity","Poland","POL",53.98277777777778,20.877222222222223,"{""type"":""Point"",""coordinates"":[20.877222222222223,53.98277777777778]}"
"EPWK","Kruszyn","Wloclawek","Poland","POL",52.584722222222226,19.015555555555554,"{""type"":""Point"",""coordinates"":[19.015555555555554,52.584722222222226]}"
"EPKG","Bagicz","Kolobrzeg","Poland","POL",54.20027777777778,15.684166666666666,"{""type"":""Point"",""coordinates"":[15.684166666666666,54.20027777777778]}"
"EPIW","Iwonicz","Iwonicz","Poland","POL",49.657777777777774,21.8175,"{""type"":""Point"",""coordinates"":[21.8175,49.657777777777774]}"
"EPKW","Kaniow","Kaniow","Poland","POL",49.94083333333333,19.020833333333332,"{""type"":""Point"",""coordinates"":[19.020833333333332,49.94083333333333]}"
"EPLY","Leczyca","Leczyca","Poland","POL",52.005,19.14388888888889,"{""type"":""Point"",""coordinates"":[19.14388888888889,52.005]}"
"EPKS","Krzesiny","Poznan","Poland","POL",52.331944444444446,16.966666666666665,"{""type"":""Point"",""coordinates"":[16.966666666666665,52.331944444444446]}"
"EPWR","Strachowice","Wroclaw","Poland","POL",51.10277777777778,16.885833333333334,"{""type"":""Point"",""coordinates"":[16.885833333333334,51.10277777777778]}"
"EPLR","Radawiec","Lublin","Poland","POL",51.22166666666667,22.394444444444446,"{""type"":""Point"",""coordinates"":[22.394444444444446,51.22166666666667]}"
"EPKT","Pyrzowice","Katowice","Poland","POL",50.47416666666667,19.08,"{""type"":""Point"",""coordinates"":[19.08,50.47416666666667]}"
"EPOK","Gdynia-Oksywie","Gdynia-Oksywie","Poland","POL",54.57972222222222,18.51722222222222,"{""type"":""Point"",""coordinates"":[18.51722222222222,54.57972222222222]}"
"EPKP","Pobiednik Wielki","Pobiednik Wielki","Poland","POL",50.08722222222222,20.202777777777776,"{""type"":""Point"",""coordinates"":[20.202777777777776,50.08722222222222]}"
"EPKK","Balice","Krakow","Poland","POL",50.07777777777778,19.784722222222225,"{""type"":""Point"",""coordinates"":[19.784722222222225,50.07777777777778]}"
"EPKM","Muchowiec","Katowice","Poland","POL",50.23833333333334,19.03388888888889,"{""type"":""Point"",""coordinates"":[19.03388888888889,50.23833333333334]}"
"EPSC","Goleniow","Szczecin","Poland","POL",53.584722222222226,14.902222222222223,"{""type"":""Point"",""coordinates"":[14.902222222222223,53.584722222222226]}"
"EPJG","Jelenia Gora","Jelenia Gora","Poland","POL",50.89888888888889,15.785555555555556,"{""type"":""Point"",""coordinates"":[15.785555555555556,50.89888888888889]}"
"EPKO","Korne","Korne","Poland","POL",54.12972222222222,17.845277777777778,"{""type"":""Point"",""coordinates"":[17.845277777777778,54.12972222222222]}"
"EPBA","Aleksandrowice","Bielsko-Biala","Poland","POL",49.805,19.001944444444444,"{""type"":""Point"",""coordinates"":[19.001944444444444,49.805]}"
"EPNT","Nowy Targ","Nowy Targ","Poland","POL",49.462500000000006,20.05027777777778,"{""type"":""Point"",""coordinates"":[20.05027777777778,49.462500000000006]}"
"EPNL","Lososina Dolna","Nowy Sacz","Poland","POL",49.745555555555555,20.62361111111111,"{""type"":""Point"",""coordinates"":[20.62361111111111,49.745555555555555]}"
"EPGD","Lech Walesa","Gdansk","Poland","POL",54.3775,18.46611111111111,"{""type"":""Point"",""coordinates"":[18.46611111111111,54.3775]}"
"EPRZ","Jasionka","Rzeszow","Poland","POL",50.11,22.01888888888889,"{""type"":""Point"",""coordinates"":[22.01888888888889,50.11]}"
"EPKN","Kamien Slaski","Opole","Poland","POL",50.52910833333333,18.085175,"{""type"":""Point"",""coordinates"":[18.085175,50.52910833333333]}"
"EPCE","Cewice","Cewice","Poland","POL",54.41611111111111,17.763333333333332,"{""type"":""Point"",""coordinates"":[17.763333333333332,54.41611111111111]}"
"EPLL","Lublinek","Lodz","Poland","POL",51.721944444444446,19.398055555555555,"{""type"":""Point"",""coordinates"":[19.398055555555555,51.721944444444446]}"
"EPOP","Polska Nowa Wies","Opole","Poland","POL",50.63333333333333,17.781666666666666,"{""type"":""Point"",""coordinates"":[17.781666666666666,50.63333333333333]}"
"EPRG","Gotartowice","Rybnik","Poland","POL",50.07055555555556,18.628888888888888,"{""type"":""Point"",""coordinates"":[18.628888888888888,50.07055555555556]}"
"EPOM","Michalkow","Ostrow Wielkopolski","Poland","POL",51.7025,17.846944444444443,"{""type"":""Point"",""coordinates"":[17.846944444444443,51.7025]}"
"EPEL","Elblag","Elblag","Poland","POL",54.14083333333333,19.423333333333336,"{""type"":""Point"",""coordinates"":[19.423333333333336,54.14083333333333]}"
"EPRU","Rudniki","Rudniki","Poland","POL",50.88633333333333,19.202472222222223,"{""type"":""Point"",""coordinates"":[19.202472222222223,50.88633333333333]}"
"EPKE","Ketrzyn","Ketrzyn","Poland","POL",54.04972222222222,21.426111111111112,"{""type"":""Point"",""coordinates"":[21.426111111111112,54.04972222222222]}"
"EPGI","Lisie Katy","Grudziadz","Poland","POL",53.52444444444444,18.849444444444444,"{""type"":""Point"",""coordinates"":[18.849444444444444,53.52444444444444]}"
"EPCD","Depultycze Krolewskie","Depultycze Krolewskie","Poland","POL",51.081944444444446,23.4375,"{""type"":""Point"",""coordinates"":[23.4375,51.081944444444446]}"
"EPBY","Szwederowo","Bydgoszcz","Poland","POL",53.09666666666667,17.977777777777778,"{""type"":""Point"",""coordinates"":[17.977777777777778,53.09666666666667]}"
"EPZP","Przylep","Zielona Gora","Poland","POL",51.97972222222222,15.464166666666666,"{""type"":""Point"",""coordinates"":[15.464166666666666,51.97972222222222]}"
"EPPK","Kobylnica","Poznan","Poland","POL",52.43388888888889,17.04388888888889,"{""type"":""Point"",""coordinates"":[17.04388888888889,52.43388888888889]}"
"EPLK","Lask","Lask","Poland","POL",51.55166666666666,19.179166666666667,"{""type"":""Point"",""coordinates"":[19.179166666666667,51.55166666666666]}"