"airportCode","airportName","cityName","countryName","countryCode","latitude","longitude","geometry"
"UWWW","Kurumoch","Samara","Russia","RUS",53.50111111111111,50.153888888888886,"{""type"":""Point"",""coordinates"":[50.153888888888886,53.50111111111111]}"
"UWUU","Ufa","Ufa","Russia","RUS",54.55777777777777,55.87388888888889,"{""type"":""Point"",""coordinates"":[55.87388888888889,54.55777777777777]}"
"UWPS","Saransk","Saransk","Russia","RUS",54.125277777777775,45.212500000000006,"{""type"":""Point"",""coordinates"":[45.212500000000006,54.125277777777775]}"
"UWPP","Penza","Penza","Russia","RUS",53.10916666666667,45.02611111111111,"{""type"":""Point"",""coordinates"":[45.02611111111111,53.10916666666667]}"
"UWLW","Vostochny","Ulyanovsk","Russia","RUS",54.39944444444444,48.801111111111105,"{""type"":""Point"",""coordinates"":[48.801111111111105,54.39944444444444]}"
"UWLL","Baratayevka","Ulyanovsk","Russia","RUS",54.26833333333333,48.22361111111111,"{""type"":""Point"",""coordinates"":[48.22361111111111,54.26833333333333]}"
"UWKJ","Yoshkar-Ola","Yoshkar-Ola","Russia","RUS",56.70527777777778,47.89527777777778,"{""type"":""Point"",""coordinates"":[47.89527777777778,56.70527777777778]}"
"UWKE","Begishevo","Begishevo","Russia","RUS",55.56472222222222,52.0925,"{""type"":""Point"",""coordinates"":[52.0925,55.56472222222222]}"
"UWGG","Strigino","Nizhny Novgorod","Russia","RUS",56.230000000000004,43.784166666666664,"{""type"":""Point"",""coordinates"":[43.784166666666664,56.230000000000004]}"
"UUYW","Vorkuta","Vorkuta","Russia","RUS",67.48916666666666,63.989444444444445,"{""type"":""Point"",""coordinates"":[63.989444444444445,67.48916666666666]}"
"UUYS","Usinsk","Usinsk","Russia","RUS",66.00472222222223,57.367222222222225,"{""type"":""Point"",""coordinates"":[57.367222222222225,66.00472222222223]}"
"UUYP","Pechora","Pechora","Russia","RUS",65.12138888888889,57.130833333333335,"{""type"":""Point"",""coordinates"":[57.130833333333335,65.12138888888889]}"
"UUWW","Vnukovo","Moscow","Russia","RUS",55.59916666666667,37.27305555555555,"{""type"":""Point"",""coordinates"":[37.27305555555555,55.59916666666667]}"
"UUOS","Stary Oskol","Stary Oskol","Russia","RUS",51.32916666666667,37.76916666666666,"{""type"":""Point"",""coordinates"":[37.76916666666666,51.32916666666667]}"
"UUOD","Pridacha","Voronezh","Russia","RUS",51.65333333333333,39.25666666666667,"{""type"":""Point"",""coordinates"":[39.25666666666667,51.65333333333333]}"
"UWOO","Orenburg","Orenburg","Russia","RUS",51.795833333333334,55.45666666666667,"{""type"":""Point"",""coordinates"":[55.45666666666667,51.795833333333334]}"
"ULMM","Murmansk","Murmansk","Russia","RUS",68.78166666666667,32.75111111111111,"{""type"":""Point"",""coordinates"":[32.75111111111111,68.78166666666667]}"
"UUMB","Kubinka","Kubinka","Russia","RUS",55.61138888888889,36.647777777777776,"{""type"":""Point"",""coordinates"":[36.647777777777776,55.61138888888889]}"
"UHKD","Dzyomgi","Komsomolsk-Na-Amure","Russia","RUS",50.60527777777778,137.07999999999998,"{""type"":""Point"",""coordinates"":[137.07999999999998,50.60527777777778]}"
"URWW","Gumrak","Volgograd","Russia","RUS",48.7825,44.345555555555556,"{""type"":""Point"",""coordinates"":[44.345555555555556,48.7825]}"
"UUBI","Yuzhny","Ivanovo","Russia","RUS",56.942499999999995,40.93222222222222,"{""type"":""Point"",""coordinates"":[40.93222222222222,56.942499999999995]}"
"UWKB","Bugulma","Bugulma","Russia","RUS",54.64138888888889,52.800555555555555,"{""type"":""Point"",""coordinates"":[52.800555555555555,54.64138888888889]}"
"UUBA","Sokerkino","Kostroma","Russia","RUS",57.79666666666667,41.018055555555556,"{""type"":""Point"",""coordinates"":[41.018055555555556,57.79666666666667]}"
"USSS","Koltsovo","Yekaterinburg","Russia","RUS",56.74305555555556,60.80305555555555,"{""type"":""Point"",""coordinates"":[60.80305555555555,56.74305555555556]}"
"USRR","Surgut","Surgut","Russia","RUS",61.34388888888889,73.40222222222222,"{""type"":""Point"",""coordinates"":[73.40222222222222,61.34388888888889]}"
"UNKL","Yemelyanovo","Krasnoyarsk","Russia","RUS",56.17305555555555,92.49333333333334,"{""type"":""Point"",""coordinates"":[92.49333333333334,56.17305555555555]}"
"USRO","Noyabrsk","Noyabrsk","Russia","RUS",63.18388888888889,75.26888888888888,"{""type"":""Point"",""coordinates"":[75.26888888888888,63.18388888888889]}"
"USPP","Bolshoe Savino","Perm","Russia","RUS",57.91444444444444,56.021388888888886,"{""type"":""Point"",""coordinates"":[56.021388888888886,57.91444444444444]}"
"UWKS","Cheboksary","Cheboksary","Russia","RUS",56.09027777777778,47.34722222222222,"{""type"":""Point"",""coordinates"":[47.34722222222222,56.09027777777778]}"
"USKK","Pobedilovo","Kirov","Russia","RUS",58.50361111111111,49.34722222222222,"{""type"":""Point"",""coordinates"":[49.34722222222222,58.50361111111111]}"
"USDD","Salekhard","Salekhard","Russia","RUS",66.59055555555555,66.6111111111111,"{""type"":""Point"",""coordinates"":[66.6111111111111,66.59055555555555]}"
"UUDL","Tunoshna","Yaroslavl","Russia","RUS",57.56055555555555,40.1575,"{""type"":""Point"",""coordinates"":[40.1575,57.56055555555555]}"
"USII","Izhevsk","Izhevsk","Russia","RUS",56.83527777777778,53.462500000000006,"{""type"":""Point"",""coordinates"":[53.462500000000006,56.83527777777778]}"
"USMU","Novy Urengoy","Novy Urengoy","Russia","RUS",66.07,76.51944444444445,"{""type"":""Point"",""coordinates"":[76.51944444444445,66.07]}"
"UESU","Zyryanka","Zyryanka","Russia","RUS",65.74833333333333,150.88833333333332,"{""type"":""Point"",""coordinates"":[150.88833333333332,65.74833333333333]}"
"USHS","Sovetskiy","Sovetskiy","Russia","RUS",61.324444444444445,63.60444444444445,"{""type"":""Point"",""coordinates"":[63.60444444444445,61.324444444444445]}"
"UUOL","Lipetsk","Lipetsk","Russia","RUS",52.70333333333333,39.53777777777778,"{""type"":""Point"",""coordinates"":[39.53777777777778,52.70333333333333]}"
"USHQ","Beloyarskiy","Beloyarskiy","Russia","RUS",63.68805555555555,66.69972222222222,"{""type"":""Point"",""coordinates"":[66.69972222222222,63.68805555555555]}"
"ULAA","Talagi","Arkhangelsk","Russia","RUS",64.60027777777778,40.71666666666667,"{""type"":""Point"",""coordinates"":[40.71666666666667,64.60027777777778]}"
"UOOO","Alykel","Norilsk","Russia","RUS",69.3111111111111,87.33194444444445,"{""type"":""Point"",""coordinates"":[87.33194444444445,69.3111111111111]}"
"URMO","Beslan","Vladikavkaz","Russia","RUS",43.20527777777778,44.60666666666667,"{""type"":""Point"",""coordinates"":[44.60666666666667,43.20527777777778]}"
"UUBW","Ramenskoye","Ramenskoye","Russia","RUS",55.55277777777778,38.14972222222222,"{""type"":""Point"",""coordinates"":[38.14972222222222,55.55277777777778]}"
"UHWE","Yedinka","Yedinka","Russia","RUS",47.18,138.6483333333333,"{""type"":""Point"",""coordinates"":[138.6483333333333,47.18]}"
"USDA","Sabetta","Sabetta","Russia","RUS",71.21444444444445,72.03888888888889,"{""type"":""Point"",""coordinates"":[72.03888888888889,71.21444444444445]}"
"USHN","Nyagan","Nyagan","Russia","RUS",62.11055555555556,65.61388888888888,"{""type"":""Point"",""coordinates"":[65.61388888888888,62.11055555555556]}"
"UERO","Olenyok","Olenyok","Russia","RUS",68.51611111111112,112.48,"{""type"":""Point"",""coordinates"":[112.48,68.51611111111112]}"
"USDK","Mys Kamenyy","Mys Kamenyy","Russia","RUS",68.46722222222222,73.59722222222221,"{""type"":""Point"",""coordinates"":[73.59722222222221,68.46722222222222]}"
"URWA","Astrakhan","Astrakhan","Russia","RUS",46.28333333333333,48.006388888888885,"{""type"":""Point"",""coordinates"":[48.006388888888885,46.28333333333333]}"
"UUOK","Vostochny","Kursk","Russia","RUS",51.75055555555556,36.29555555555555,"{""type"":""Point"",""coordinates"":[36.29555555555555,51.75055555555556]}"
"URWI","Elista","Elista","Russia","RUS",46.374722222222225,44.323888888888895,"{""type"":""Point"",""coordinates"":[44.323888888888895,46.374722222222225]}"
"UWKD","Kazan","Kazan","Russia","RUS",55.606944444444444,49.280277777777776,"{""type"":""Point"",""coordinates"":[49.280277777777776,55.606944444444444]}"
"UIBB","Bratsk","Bratsk","Russia","RUS",56.370555555555555,101.69861111111112,"{""type"":""Point"",""coordinates"":[101.69861111111112,56.370555555555555]}"
"USTR","Roshchino","Tyumen","Russia","RUS",57.16833333333333,65.31611111111111,"{""type"":""Point"",""coordinates"":[65.31611111111111,57.16833333333333]}"
"UUOO","Chertovitskoye","Voronezh","Russia","RUS",51.815,39.22972222222222,"{""type"":""Point"",""coordinates"":[39.22972222222222,51.815]}"
"USRK","Kogalym","Kogalym","Russia","RUS",62.190555555555555,74.53361111111111,"{""type"":""Point"",""coordinates"":[74.53361111111111,62.190555555555555]}"
"URRT","Yuzhny","Taganrog","Russia","RUS",47.19833333333333,38.84916666666667,"{""type"":""Point"",""coordinates"":[38.84916666666667,47.19833333333333]}"
"UEMH","Tyoply Klyuch","Tyoply Klyuch","Russia","RUS",62.78944444444444,136.855,"{""type"":""Point"",""coordinates"":[136.855,62.78944444444444]}"
"URRR","Rostov-Na-Donu","Rostov-Na-Donu","Russia","RUS",47.25833333333333,39.81805555555556,"{""type"":""Point"",""coordinates"":[39.81805555555556,47.25833333333333]}"
"UHMK","Keperveyem","Keperveyem","Russia","RUS",67.84694444444445,166.13527777777776,"{""type"":""Point"",""coordinates"":[166.13527777777776,67.84694444444445]}"
"URMS","Magas","Sleptsovskaya","Russia","RUS",43.32361111111111,45.01222222222222,"{""type"":""Point"",""coordinates"":[45.01222222222222,43.32361111111111]}"
"UNNE","Yeltsovka","Novosibirsk","Russia","RUS",55.09166666666667,83.0038888888889,"{""type"":""Point"",""coordinates"":[83.0038888888889,55.09166666666667]}"
"UUOT","Donskoye","Tambov","Russia","RUS",52.805,41.483333333333334,"{""type"":""Point"",""coordinates"":[41.483333333333334,52.805]}"
"USHU","Uray","Uray","Russia","RUS",60.10722222222223,64.82583333333334,"{""type"":""Point"",""coordinates"":[64.82583333333334,60.10722222222223]}"
"URMM","Mineralnyye Vody","Mineralnyye Vody","Russia","RUS",44.22680555555556,43.08302777777778,"{""type"":""Point"",""coordinates"":[43.08302777777778,44.22680555555556]}"
"UUDD","Domodedovo","Moscow","Russia","RUS",55.40861111111111,37.906388888888884,"{""type"":""Point"",""coordinates"":[37.906388888888884,55.40861111111111]}"
"ULPB","Besovets","Petrozavodsk","Russia","RUS",61.88527777777778,34.15472222222222,"{""type"":""Point"",""coordinates"":[34.15472222222222,61.88527777777778]}"
"UEMO","Olekminsk","Olekminsk","Russia","RUS",60.40083333333333,120.47083333333333,"{""type"":""Point"",""coordinates"":[120.47083333333333,60.40083333333333]}"
"USUU","Kurgan","Kurgan","Russia","RUS",55.475,65.41527777777779,"{""type"":""Point"",""coordinates"":[65.41527777777779,55.475]}"
"UUYH","Ukhta","Ukhta","Russia","RUS",63.566944444444445,53.80444444444444,"{""type"":""Point"",""coordinates"":[53.80444444444444,63.566944444444445]}"
"URML","Uytash","Makhachkala","Russia","RUS",42.81679722222223,47.652408333333334,"{""type"":""Point"",""coordinates"":[47.652408333333334,42.81679722222223]}"
"URKG","Gelendzhik","Gelendzhik","Russia","RUS",44.581944444444446,38.01305555555555,"{""type"":""Point"",""coordinates"":[38.01305555555555,44.581944444444446]}"
"URKA","Vityazevo","Anapa","Russia","RUS",45.00222222222222,37.34722222222222,"{""type"":""Point"",""coordinates"":[37.34722222222222,45.00222222222222]}"
"UNTT","Bogashevo","Tomsk","Russia","RUS",56.38305555555556,85.21055555555556,"{""type"":""Point"",""coordinates"":[85.21055555555556,56.38305555555556]}"
"USDB","Bovanenkovo","Bovanenkovo","Russia","RUS",70.31527777777778,68.33361111111111,"{""type"":""Point"",""coordinates"":[68.33361111111111,70.31527777777778]}"
"USMM","Nadym","Nadym","Russia","RUS",65.48222222222222,72.69833333333334,"{""type"":""Point"",""coordinates"":[72.69833333333334,65.48222222222222]}"
"UECT","Talakan","Talakan","Russia","RUS",59.88166666666667,111.04555555555555,"{""type"":""Point"",""coordinates"":[111.04555555555555,59.88166666666667]}"
"UNOO","Tsentralny","Omsk","Russia","RUS",54.967222222222226,73.31027777777777,"{""type"":""Point"",""coordinates"":[73.31027777777777,54.967222222222226]}"
"UUBP","Bryansk","Bryansk","Russia","RUS",53.214444444444446,34.17583333333333,"{""type"":""Point"",""coordinates"":[34.17583333333333,53.214444444444446]}"
"USHH","Khanty-Mansiysk","Khanty-Mansiysk","Russia","RUS",61.02861111111111,69.08611111111111,"{""type"":""Point"",""coordinates"":[69.08611111111111,61.02861111111111]}"
"UNKM","Krasnoyarsk","Cheremshanka","Russia","RUS",56.17666666666666,92.54333333333334,"{""type"":""Point"",""coordinates"":[92.54333333333334,56.17666666666666]}"
"UOHH","Khatanga","Khatanga","Russia","RUS",71.97833333333334,102.49333333333334,"{""type"":""Point"",""coordinates"":[102.49333333333334,71.97833333333334]}"
"URMN","Nalchik","Nalchik","Russia","RUS",43.513333333333335,43.63666666666666,"{""type"":""Point"",""coordinates"":[43.63666666666666,43.513333333333335]}"
"UERP","Poliarny","Poliarny","Russia","RUS",66.40055555555556,112.03027777777778,"{""type"":""Point"",""coordinates"":[112.03027777777778,66.40055555555556]}"
"UNEE","Kemerovo","Kemerovo","Russia","RUS",55.269999999999996,86.10749999999999,"{""type"":""Point"",""coordinates"":[86.10749999999999,55.269999999999996]}"
"UHNN","Nikolayevsk na Amure","Nikolayevsk na Amure","Russia","RUS",53.15416666666667,140.6511111111111,"{""type"":""Point"",""coordinates"":[140.6511111111111,53.15416666666667]}"
"UHHH","Novy","Khabarovsk","Russia","RUS",48.528055555555554,135.18805555555556,"{""type"":""Point"",""coordinates"":[135.18805555555556,48.528055555555554]}"
"UNAA","Abakan","Abakan","Russia","RUS",53.74,91.38527777777779,"{""type"":""Point"",""coordinates"":[91.38527777777779,53.74]}"
"ULWW","Vologda","Vologda","Russia","RUS",59.281666666666666,39.94472222222222,"{""type"":""Point"",""coordinates"":[39.94472222222222,59.281666666666666]}"
"UIUU","Mukhino","Ulan-Ude","Russia","RUS",51.80777777777777,107.43833333333333,"{""type"":""Point"",""coordinates"":[107.43833333333333,51.80777777777777]}"
"UHMA","Ugolny","Anadyr","Russia","RUS",64.735,177.73833333333332,"{""type"":""Point"",""coordinates"":[177.73833333333332,64.735]}"
"UNIP","Podkamennaya Tunguska","Podkamennaya Tunguska","Russia","RUS",61.59166666666667,89.99972222222222,"{""type"":""Point"",""coordinates"":[89.99972222222222,61.59166666666667]}"
"UESS","Chersky","Chersky","Russia","RUS",68.74138888888889,161.33972222222224,"{""type"":""Point"",""coordinates"":[161.33972222222224,68.74138888888889]}"
"UNBB","Mikhaylovka","Barnaul","Russia","RUS",53.36333333333334,83.53972222222222,"{""type"":""Point"",""coordinates"":[83.53972222222222,53.36333333333334]}"
"UHMP","Pevek","Pevek","Russia","RUS",69.78333333333333,170.595,"{""type"":""Point"",""coordinates"":[170.595,69.78333333333333]}"
"UELL","Chulman","Neryungri","Russia","RUS",56.913888888888884,124.91388888888889,"{""type"":""Point"",""coordinates"":[124.91388888888889,56.913888888888884]}"
"ULNR","Staraya Russa","Staraya Russa","Russia","RUS",57.961111111111116,31.384444444444444,"{""type"":""Point"",""coordinates"":[31.384444444444444,57.961111111111116]}"
"ULWC","Cherepovets","Cherepovets","Russia","RUS",59.27611111111111,38.01888888888889,"{""type"":""Point"",""coordinates"":[38.01888888888889,59.27611111111111]}"
"ULMK","Khibiny","Apatity","Russia","RUS",67.46277777777777,33.58555555555556,"{""type"":""Point"",""coordinates"":[33.58555555555556,67.46277777777777]}"
"UHWP","Plastun","Plastun","Russia","RUS",44.815,136.29166666666666,"{""type"":""Point"",""coordinates"":[136.29166666666666,44.815]}"
"UNSS","Strezhevoy","Strezhevoy","Russia","RUS",60.70888888888889,77.66111111111111,"{""type"":""Point"",""coordinates"":[77.66111111111111,60.70888888888889]}"
"UHTZ","Agzu","Agzu","Russia","RUS",47.59666666666667,138.36833333333334,"{""type"":""Point"",""coordinates"":[138.36833333333334,47.59666666666667]}"
"ULLI","Pulkovo","St Petersburg","Russia","RUS",59.80027777777777,30.2625,"{""type"":""Point"",""coordinates"":[30.2625,59.80027777777777]}"
"UIII","Irkutsk","Irkutsk","Russia","RUS",52.26722222222222,104.39472222222223,"{""type"":""Point"",""coordinates"":[104.39472222222223,52.26722222222222]}"
"UITT","Ust-Kut","Ust-Kut","Russia","RUS",56.85805555555556,105.72944444444444,"{""type"":""Point"",""coordinates"":[105.72944444444444,56.85805555555556]}"
"UIIR","Vostochny","Irkutsk-2","Russia","RUS",52.367777777777775,104.18333333333334,"{""type"":""Point"",""coordinates"":[104.18333333333334,52.367777777777775]}"
"UHBB","Ignatyevo","Blagoveshchensk","Russia","RUS",50.425555555555555,127.41250000000001,"{""type"":""Point"",""coordinates"":[127.41250000000001,50.425555555555555]}"
"UHWW","Knevichi","Vladivostok","Russia","RUS",43.39805555555556,132.14888888888888,"{""type"":""Point"",""coordinates"":[132.14888888888888,43.39805555555556]}"
"URKK","Pashkovskiy","Krasnodar","Russia","RUS",45.03472222222222,39.17027777777778,"{""type"":""Point"",""coordinates"":[39.17027777777778,45.03472222222222]}"
"UHMD","Provideniya Bay","Provideniya Bay","Russia","RUS",64.37805555555555,-173.2433333333333,"{""type"":""Point"",""coordinates"":[-173.2433333333333,64.37805555555555]}"
"UNWW","Spichenkovo","Novokuznetsk","Russia","RUS",53.81194444444444,86.87833333333333,"{""type"":""Point"",""coordinates"":[86.87833333333333,53.81194444444444]}"
"UUYY","Syktyvkar","Syktyvkar","Russia","RUS",61.646966666666664,50.845105555555556,"{""type"":""Point"",""coordinates"":[50.845105555555556,61.646966666666664]}"
"UNKY","Kyzyl","Kyzyl","Russia","RUS",51.669444444444444,94.40055555555556,"{""type"":""Point"",""coordinates"":[94.40055555555556,51.669444444444444]}"
"UUOB","Belgorod","Belgorod","Russia","RUS",50.64388888888889,36.59,"{""type"":""Point"",""coordinates"":[36.59,50.64388888888889]}"
"UWOR","Orsk","Orsk","Russia","RUS",51.072500000000005,58.59583333333334,"{""type"":""Point"",""coordinates"":[58.59583333333334,51.072500000000005]}"
"UIAA","Kadala","Chita","Russia","RUS",52.02611111111111,113.30499999999999,"{""type"":""Point"",""coordinates"":[113.30499999999999,52.02611111111111]}"
"UHMN","Omolon","Omolon","Russia","RUS",65.2388888888889,160.545,"{""type"":""Point"",""coordinates"":[160.545,65.2388888888889]}"
"UHSI","Iturup","Kurilsk","Russia","RUS",45.256388888888885,147.95583333333332,"{""type"":""Point"",""coordinates"":[147.95583333333332,45.256388888888885]}"
"UUEE","Sheremetyevo","Moscow","Russia","RUS",55.972500000000004,37.41305555555555,"{""type"":""Point"",""coordinates"":[37.41305555555555,55.972500000000004]}"
"UNNT","Tolmachevo","Novosibirsk","Russia","RUS",55.03333333333333,82.59916666666666,"{""type"":""Point"",""coordinates"":[82.59916666666666,55.03333333333333]}"
"ULAH","Vaskovo","Arkhangelsk","Russia","RUS",64.44166666666668,40.42222222222222,"{""type"":""Point"",""coordinates"":[40.42222222222222,64.44166666666668]}"
"UEVV","Zhigansk","Zhigansk","Russia","RUS",66.79541388888889,123.36253055555555,"{""type"":""Point"",""coordinates"":[123.36253055555555,66.79541388888889]}"
"USNN","Nizhnevartovsk","Nizhnevartovsk","Russia","RUS",60.948611111111106,76.48055555555555,"{""type"":""Point"",""coordinates"":[76.48055555555555,60.948611111111106]}"
"UOII","Igarka","Igarka","Russia","RUS",67.4375,86.62194444444444,"{""type"":""Point"",""coordinates"":[86.62194444444444,67.4375]}"
"USMQ","Yamburg","Yamburg","Russia","RUS",67.98833333333333,75.09694444444445,"{""type"":""Point"",""coordinates"":[75.09694444444445,67.98833333333333]}"
"UEMU","Ust-Maya","Ust-Maya","Russia","RUS",60.35611111111111,134.43472222222223,"{""type"":""Point"",""coordinates"":[134.43472222222223,60.35611111111111]}"
"UHMM","Sokol","Magadan","Russia","RUS",59.91111111111111,150.72055555555556,"{""type"":""Point"",""coordinates"":[150.72055555555556,59.91111111111111]}"
"URMT","Shpakovskoye","Stavropol","Russia","RUS",45.10916666666667,42.112500000000004,"{""type"":""Point"",""coordinates"":[42.112500000000004,45.10916666666667]}"
"UHPP","Yelizovo","Petropavlovsk-Kamchatsky","Russia","RUS",53.17027777777778,158.4536111111111,"{""type"":""Point"",""coordinates"":[158.4536111111111,53.17027777777778]}"
"USCC","Balandino","Chelyabinsk","Russia","RUS",55.30583333333333,61.50361111111111,"{""type"":""Point"",""coordinates"":[61.50361111111111,55.30583333333333]}"
"UMKK","Khrabrovo","Kaliningrad","Russia","RUS",54.89,20.592499999999998,"{""type"":""Point"",""coordinates"":[20.592499999999998,54.89]}"
"UERR","Mirny","Mirny","Russia","RUS",62.53472222222222,114.03888888888889,"{""type"":""Point"",""coordinates"":[114.03888888888889,62.53472222222222]}"
"UHSH","Novostroyka","Okha","Russia","RUS",53.51694444444444,142.8827777777778,"{""type"":""Point"",""coordinates"":[142.8827777777778,53.51694444444444]}"
"UERL","Lensk","Lensk","Russia","RUS",60.72361111111111,114.82527777777777,"{""type"":""Point"",""coordinates"":[114.82527777777777,60.72361111111111]}"
"UUBC","Grabtsevo","Kaluga","Russia","RUS",54.54861111111111,36.37138888888889,"{""type"":""Point"",""coordinates"":[36.37138888888889,54.54861111111111]}"
"URMG","Severny","Grozny","Russia","RUS",43.388333333333335,45.69972222222222,"{""type"":""Point"",""coordinates"":[45.69972222222222,43.388333333333335]}"
"URSS","Sochi","Sochi","Russia","RUS",43.44444444444444,39.94694444444444,"{""type"":""Point"",""coordinates"":[39.94694444444444,43.44444444444444]}"
"UESO","Chokurdakh","Chokurdakh","Russia","RUS",70.62472222222222,147.89638888888888,"{""type"":""Point"",""coordinates"":[147.89638888888888,70.62472222222222]}"
"USCM","Magnitogorsk","Magnitogorsk","Russia","RUS",53.393055555555556,58.75555555555555,"{""type"":""Point"",""coordinates"":[58.75555555555555,53.393055555555556]}"
"UENN","Nyurba","Nyurba","Russia","RUS",63.29694444444444,118.34305555555555,"{""type"":""Point"",""coordinates"":[118.34305555555555,63.29694444444444]}"
"ULOO","Pskov","Pskov","Russia","RUS",57.78388888888889,28.39527777777778,"{""type"":""Point"",""coordinates"":[28.39527777777778,57.78388888888889]}"
"UNII","Yeniseysk","Yeniseysk","Russia","RUS",58.473888888888894,92.11305555555555,"{""type"":""Point"",""coordinates"":[92.11305555555555,58.473888888888894]}"
"UNBG","Gorno-Altaisk","Gorno-Altaisk","Russia","RUS",51.969166666666666,85.83638888888889,"{""type"":""Point"",""coordinates"":[85.83638888888889,51.969166666666666]}"
"UEST","Tiksi","Tiksi","Russia","RUS",71.69555555555556,128.90055555555557,"{""type"":""Point"",""coordinates"":[128.90055555555557,71.69555555555556]}"
"UEEE","Yakutsk","Yakutsk","Russia","RUS",62.093333333333334,129.77333333333334,"{""type"":""Point"",""coordinates"":[129.77333333333334,62.093333333333334]}"
"UWSS","Tsentralny","Saratov","Russia","RUS",51.565555555555555,46.04555555555555,"{""type"":""Point"",""coordinates"":[46.04555555555555,51.565555555555555]}"
"ULAM","Naryan-Mar","Naryan-Mar","Russia","RUS",67.64027777777778,53.121944444444445,"{""type"":""Point"",""coordinates"":[53.121944444444445,67.64027777777778]}"
"UHSS","Khomutovo","Yuzhno-Sakhalinsk","Russia","RUS",46.88861111111111,142.7175,"{""type"":""Point"",""coordinates"":[142.7175,46.88861111111111]}"
"UUMO","Ostafyevo","Ostafyevo","Russia","RUS",55.5075,37.50416666666667,"{""type"":""Point"",""coordinates"":[37.50416666666667,55.5075]}"
"UEEA","Aldan","Aldan","Russia","RUS",58.60333333333333,125.40777777777778,"{""type"":""Point"",""coordinates"":[125.40777777777778,58.60333333333333]}"
"UEBB","Batagay","Batagay","Russia","RUS",67.6477888888889,134.69371666666666,"{""type"":""Point"",""coordinates"":[134.69371666666666,67.6477888888889]}"