"airportCode","airportName","cityName","countryName","countryCode","latitude","longitude","geometry"
"ESVS","Siljansnas","Siljansnas","Sweden","SWE",60.785,14.827222222222222,"{""type"":""Point"",""coordinates"":[14.827222222222222,60.785]}"
"ESVM","Skinnlanda","Malung","Sweden","SWE",60.65888888888889,13.726666666666667,"{""type"":""Point"",""coordinates"":[13.726666666666667,60.65888888888889]}"
"ESVH","Hallefors","Hallefors","Sweden","SWE",59.8675,14.42361111111111,"{""type"":""Point"",""coordinates"":[14.42361111111111,59.8675]}"
"ESUV","Alvsbyn","Alvsbyn","Sweden","SWE",65.64583333333334,21.06138888888889,"{""type"":""Point"",""coordinates"":[21.06138888888889,65.64583333333334]}"
"ESUT","Hemavan Tarnaby","Hemavan Tarnaby","Sweden","SWE",65.80611111111111,15.082777777777778,"{""type"":""Point"",""coordinates"":[15.082777777777778,65.80611111111111]}"
"ESVA","Avesta","Avesta","Sweden","SWE",60.180277777777775,16.122777777777777,"{""type"":""Point"",""coordinates"":[16.122777777777777,60.180277777777775]}"
"ESUS","Asele","Asele","Sweden","SWE",64.15916666666668,17.274444444444445,"{""type"":""Point"",""coordinates"":[17.274444444444445,64.15916666666668]}"
"ESVQ","Koping","Koping","Sweden","SWE",59.527519444444444,15.969633333333334,"{""type"":""Point"",""coordinates"":[15.969633333333334,59.527519444444444]}"
"ESUR","Ramsele","Ramsele","Sweden","SWE",63.49027777777778,16.483611111111113,"{""type"":""Point"",""coordinates"":[16.483611111111113,63.49027777777778]}"
"ESUP","Pajala","Pajala","Sweden","SWE",67.24583333333334,23.06888888888889,"{""type"":""Point"",""coordinates"":[23.06888888888889,67.24583333333334]}"
"ESVB","Bunge","Bunge","Sweden","SWE",57.85,19.038333333333334,"{""type"":""Point"",""coordinates"":[19.038333333333334,57.85]}"
"ESUL","Ljusdal","Ljusdal","Sweden","SWE",61.816944444444445,16.004166666666666,"{""type"":""Point"",""coordinates"":[16.004166666666666,61.816944444444445]}"
"ESUE","Idre","Idre","Sweden","SWE",61.86972222222222,12.689444444444444,"{""type"":""Point"",""coordinates"":[12.689444444444444,61.86972222222222]}"
"ESUD","Storuman","Storuman","Sweden","SWE",64.96083333333334,17.696666666666665,"{""type"":""Point"",""coordinates"":[17.696666666666665,64.96083333333334]}"
"ESVK","Katrineholm","Katrineholm","Sweden","SWE",59.02222222222222,16.220277777777778,"{""type"":""Point"",""coordinates"":[16.220277777777778,59.02222222222222]}"
"ESSZ","Gnesta","Stockholm","Sweden","SWE",59.10111111111111,17.211111111111112,"{""type"":""Point"",""coordinates"":[17.211111111111112,59.10111111111111]}"
"ESNM","Optand","Optand","Sweden","SWE",63.125277777777775,14.808333333333334,"{""type"":""Point"",""coordinates"":[14.808333333333334,63.125277777777775]}"
"ESSU","Eskilstuna","Eskilstuna","Sweden","SWE",59.352222222222224,16.708333333333332,"{""type"":""Point"",""coordinates"":[16.708333333333332,59.352222222222224]}"
"ESST","Torsby","Torsby","Sweden","SWE",60.15472222222222,12.993611111111111,"{""type"":""Point"",""coordinates"":[12.993611111111111,60.15472222222222]}"
"ESFS","Sandvik","Sandvik","Sweden","SWE",57.068333333333335,16.86416666666667,"{""type"":""Point"",""coordinates"":[16.86416666666667,57.068333333333335]}"
"ESSM","Brattforsheden","Brattforsheden","Sweden","SWE",59.608333333333334,13.912222222222223,"{""type"":""Point"",""coordinates"":[13.912222222222223,59.608333333333334]}"
"ESSP","Kungsangen","Norrkoping","Sweden","SWE",58.586111111111116,16.24638888888889,"{""type"":""Point"",""coordinates"":[16.24638888888889,58.586111111111116]}"
"ESSL","Saab","Linkoping","Sweden","SWE",58.406388888888884,15.679722222222221,"{""type"":""Point"",""coordinates"":[15.679722222222221,58.406388888888884]}"
"ESSV","Visby","Visby","Sweden","SWE",57.66277777777778,18.34611111111111,"{""type"":""Point"",""coordinates"":[18.34611111111111,57.66277777777778]}"
"ESSK","Gavle","Gavle","Sweden","SWE",60.593333333333334,16.95138888888889,"{""type"":""Point"",""coordinates"":[16.95138888888889,60.593333333333334]}"
"ESUJ","Talje","Ange","Sweden","SWE",62.56527777777777,15.834722222222222,"{""type"":""Point"",""coordinates"":[15.834722222222222,62.56527777777777]}"
"ESSI","Visingso","Visingso","Sweden","SWE",58.09861111111111,14.4025,"{""type"":""Point"",""coordinates"":[14.4025,58.09861111111111]}"
"ESTT","Vellinge","Vellinge","Sweden","SWE",55.39611111111111,13.025277777777779,"{""type"":""Point"",""coordinates"":[13.025277777777779,55.39611111111111]}"
"ESUH","Myran","Harnosand","Sweden","SWE",62.63361111111111,17.981388888888887,"{""type"":""Point"",""coordinates"":[17.981388888888887,62.63361111111111]}"
"ESKM","Siljan","Mora","Sweden","SWE",60.95861111111111,14.510555555555555,"{""type"":""Point"",""coordinates"":[14.510555555555555,60.95861111111111]}"
"ESNA","Hallviken","Hallviken","Sweden","SWE",63.73833333333334,15.458888888888888,"{""type"":""Point"",""coordinates"":[15.458888888888888,63.73833333333334]}"
"ESSE","Ska-Edeby","Stockholm","Sweden","SWE",59.345,17.740555555555556,"{""type"":""Point"",""coordinates"":[17.740555555555556,59.345]}"
"ESSD","Borlange","Borlange","Sweden","SWE",60.42222222222222,15.515,"{""type"":""Point"",""coordinates"":[15.515,60.42222222222222]}"
"ESCM","Uppsala","Uppsala","Sweden","SWE",59.900277777777774,17.592499999999998,"{""type"":""Point"",""coordinates"":[17.592499999999998,59.900277777777774]}"
"ESTA","Angelholm","Angelholm","Sweden","SWE",56.29111111111111,12.855,"{""type"":""Point"",""coordinates"":[12.855,56.29111111111111]}"
"ESSB","Bromma","Stockholm","Sweden","SWE",59.35444444444445,17.942222222222224,"{""type"":""Point"",""coordinates"":[17.942222222222224,59.35444444444445]}"
"ESGR","Skovde","Skovde","Sweden","SWE",58.45611111111111,13.972777777777777,"{""type"":""Point"",""coordinates"":[13.972777777777777,58.45611111111111]}"
"ESOH","Hagfors","Hagfors","Sweden","SWE",60.02111111111111,13.578888888888889,"{""type"":""Point"",""coordinates"":[13.578888888888889,60.02111111111111]}"
"ESNU","Umea","Umea","Sweden","SWE",63.793055555555554,20.279999999999998,"{""type"":""Point"",""coordinates"":[20.279999999999998,63.793055555555554]}"
"ESQO","Arboga","Arboga","Sweden","SWE",59.388333333333335,15.920833333333333,"{""type"":""Point"",""coordinates"":[15.920833333333333,59.388333333333335]}"
"ESNP","Pitea","Pitea","Sweden","SWE",65.39833333333334,21.260833333333334,"{""type"":""Point"",""coordinates"":[21.260833333333334,65.39833333333334]}"
"ES08","Odestugu","Jonkoping","Sweden","SWE",57.60333333333333,14.296666666666667,"{""type"":""Point"",""coordinates"":[14.296666666666667,57.60333333333333]}"
"ESNO","Ornskoldsvik","Ornskoldsvik","Sweden","SWE",63.407777777777774,18.9925,"{""type"":""Point"",""coordinates"":[18.9925,63.407777777777774]}"
"ESNN","Sundsvall-Timra","Sundsvall-Timra","Sweden","SWE",62.529444444444444,17.442777777777778,"{""type"":""Point"",""coordinates"":[17.442777777777778,62.529444444444444]}"
"ES05","Lunda","Gimo","Sweden","SWE",60.132777777777775,18.105,"{""type"":""Point"",""coordinates"":[18.105,60.132777777777775]}"
"ESNH","Hudiksvall","Hudiksvall","Sweden","SWE",61.76833333333333,17.080555555555556,"{""type"":""Point"",""coordinates"":[17.080555555555556,61.76833333333333]}"
"ES09","Mala","Mala","Sweden","SWE",65.21666666666667,18.68888888888889,"{""type"":""Point"",""coordinates"":[18.68888888888889,65.21666666666667]}"
"ESGT","Trollhattan-Vanersborg","Trollhattan-Vanersborg","Sweden","SWE",58.31805555555556,12.345,"{""type"":""Point"",""coordinates"":[12.345,58.31805555555556]}"
"ESFA","Bokeberg","Hassleholm","Sweden","SWE",56.13361111111111,13.87888888888889,"{""type"":""Point"",""coordinates"":[13.87888888888889,56.13361111111111]}"
"ESNB","Solleftea","Solleftea","Sweden","SWE",63.17111111111111,16.985555555555557,"{""type"":""Point"",""coordinates"":[16.985555555555557,63.17111111111111]}"
"ESSH","Laxa","Laxa","Sweden","SWE",58.97868888888889,14.666225,"{""type"":""Point"",""coordinates"":[14.666225,58.97868888888889]}"
"ESSX","Johannisberg","Vasteras","Sweden","SWE",59.575833333333335,16.503055555555555,"{""type"":""Point"",""coordinates"":[16.503055555555555,59.575833333333335]}"
"ESMT","Halmstad","Halmstad","Sweden","SWE",56.69083333333333,12.82,"{""type"":""Point"",""coordinates"":[12.82,56.69083333333333]}"
"ESMK","Kristianstad","Kristianstad","Sweden","SWE",55.92055555555555,14.085277777777778,"{""type"":""Point"",""coordinates"":[14.085277777777778,55.92055555555555]}"
"ESMY","Smalandsstenar","Smalandsstenar","Sweden","SWE",57.16861111111111,13.44,"{""type"":""Point"",""coordinates"":[13.44,57.16861111111111]}"
"ESMV","Hagshult","Hagshult","Sweden","SWE",57.29222222222222,14.136944444444444,"{""type"":""Point"",""coordinates"":[14.136944444444444,57.29222222222222]}"
"ESMZ","Olanda","Olanda","Sweden","SWE",57.328611111111115,17.05027777777778,"{""type"":""Point"",""coordinates"":[17.05027777777778,57.328611111111115]}"
"ESOE","Orebro","Orebro","Sweden","SWE",59.22805555555556,15.04,"{""type"":""Point"",""coordinates"":[15.04,59.22805555555556]}"
"ESMU","Mockeln","Almhult","Sweden","SWE",56.57055555555556,14.16638888888889,"{""type"":""Point"",""coordinates"":[14.16638888888889,56.57055555555556]}"
"ESMB","Borglanda","Borglanda","Sweden","SWE",56.863055555555555,16.65611111111111,"{""type"":""Point"",""coordinates"":[16.65611111111111,56.863055555555555]}"
"ESMS","Malmo","Malmo","Sweden","SWE",55.54833333333333,13.353333333333333,"{""type"":""Point"",""coordinates"":[13.353333333333333,55.54833333333333]}"
"ESTL","Ljungbyhed","Ljungbyhed","Sweden","SWE",56.08527777777778,13.206944444444444,"{""type"":""Point"",""coordinates"":[13.206944444444444,56.08527777777778]}"
"ESSW","Vastervik","Vastervik","Sweden","SWE",57.78,16.52361111111111,"{""type"":""Point"",""coordinates"":[16.52361111111111,57.78]}"
"ESGL","Lidkoping","Lidkoping","Sweden","SWE",58.46527777777778,13.174444444444443,"{""type"":""Point"",""coordinates"":[13.174444444444443,58.46527777777778]}"
"ESNV","Vilhelmina","Vilhelmina","Sweden","SWE",64.5786111111111,16.83972222222222,"{""type"":""Point"",""coordinates"":[16.83972222222222,64.5786111111111]}"
"ESMQ","Kalmar","Kalmar","Sweden","SWE",56.68555555555555,16.2875,"{""type"":""Point"",""coordinates"":[16.2875,56.68555555555555]}"
"ESNG","Gallivare","Gallivare","Sweden","SWE",67.13305555555554,20.81222222222222,"{""type"":""Point"",""coordinates"":[20.81222222222222,67.13305555555554]}"
"ESSA","Arlanda","Stockholm","Sweden","SWE",59.651944444444446,17.91861111111111,"{""type"":""Point"",""coordinates"":[17.91861111111111,59.651944444444446]}"
"ESUK","Kalixfors","Kalixfors","Sweden","SWE",67.76527777777778,20.26222222222222,"{""type"":""Point"",""coordinates"":[20.26222222222222,67.76527777777778]}"
"ESMC","Ranneslatt","Eksjo","Sweden","SWE",57.66638888888889,14.946944444444444,"{""type"":""Point"",""coordinates"":[14.946944444444444,57.66638888888889]}"
"ESMO","Oskarshamn","Oskarshamn","Sweden","SWE",57.35194444444445,16.498333333333335,"{""type"":""Point"",""coordinates"":[16.498333333333335,57.35194444444445]}"
"ESOW","Vaesteraas","Stockholm","Sweden","SWE",59.589444444444446,16.63361111111111,"{""type"":""Point"",""coordinates"":[16.63361111111111,59.589444444444446]}"
"ESML","Landskrona","Landskrona","Sweden","SWE",55.94444444444444,12.869444444444445,"{""type"":""Point"",""coordinates"":[12.869444444444445,55.94444444444444]}"
"ES12","Norberg","Norberg","Sweden","SWE",60.108333333333334,15.955555555555556,"{""type"":""Point"",""coordinates"":[15.955555555555556,60.108333333333334]}"
"ESGS","Nasinge","Stromstad","Sweden","SWE",59.01694444444444,11.343611111111112,"{""type"":""Point"",""coordinates"":[11.343611111111112,59.01694444444444]}"
"ESUY","Edsbyn","Edsbyn","Sweden","SWE",61.386944444444445,15.833333333333334,"{""type"":""Point"",""coordinates"":[15.833333333333334,61.386944444444445]}"
"ESNQ","Kiruna","Kiruna","Sweden","SWE",67.82126111111111,20.335591666666666,"{""type"":""Point"",""coordinates"":[20.335591666666666,67.82126111111111]}"
"ESMH","Hoganas","Hoganas","Sweden","SWE",56.18472222222222,12.575833333333334,"{""type"":""Point"",""coordinates"":[12.575833333333334,56.18472222222222]}"
"ESGM","Oresten","Oresten","Sweden","SWE",57.445277777777775,12.648888888888889,"{""type"":""Point"",""coordinates"":[12.648888888888889,57.445277777777775]}"
"ESSG","Ludvika","Ludvika","Sweden","SWE",60.08833333333334,15.096388888888889,"{""type"":""Point"",""coordinates"":[15.096388888888889,60.08833333333334]}"
"ESOK","Karlstad","Karlstad","Sweden","SWE",59.44472222222222,13.3375,"{""type"":""Point"",""coordinates"":[13.3375,59.44472222222222]}"
"ESMG","Feringe","Ljungby","Sweden","SWE",56.95027777777778,13.921666666666667,"{""type"":""Point"",""coordinates"":[13.921666666666667,56.95027777777778]}"
"ESUG","Gargnas","Gargnas","Sweden","SWE",65.30527777777777,17.975555555555555,"{""type"":""Point"",""coordinates"":[17.975555555555555,65.30527777777777]}"
"ESSC","Ekeby","Eskilstuna","Sweden","SWE",59.38388888888889,16.441944444444445,"{""type"":""Point"",""coordinates"":[16.441944444444445,59.38388888888889]}"
"ESKO","Munkfors","Munkfors","Sweden","SWE",59.79888888888889,13.490555555555554,"{""type"":""Point"",""coordinates"":[13.490555555555554,59.79888888888889]}"
"ESPE","Vidsel","Vidsel","Sweden","SWE",65.87527777777777,20.15,"{""type"":""Point"",""coordinates"":[20.15,65.87527777777777]}"
"ESMF","Fagerhult","Fagerhult","Sweden","SWE",56.38777777777778,13.470555555555556,"{""type"":""Point"",""coordinates"":[13.470555555555556,56.38777777777778]}"
"ESUB","Arbra","Arbra","Sweden","SWE",61.5125,16.3725,"{""type"":""Point"",""coordinates"":[16.3725,61.5125]}"
"ESME","Eslov","Eslov","Sweden","SWE",55.848333333333336,13.328333333333333,"{""type"":""Point"",""coordinates"":[13.328333333333333,55.848333333333336]}"
"ESGH","Herrljunga","Herrljunga","Sweden","SWE",58.029444444444444,13.108055555555556,"{""type"":""Point"",""coordinates"":[13.108055555555556,58.029444444444444]}"
"ESMX","Kronoberg","Vaxjo","Sweden","SWE",56.930277777777775,14.72888888888889,"{""type"":""Point"",""coordinates"":[14.72888888888889,56.930277777777775]}"
"ESMI","Sovde","Sjobo","Sweden","SWE",55.598333333333336,13.677222222222222,"{""type"":""Point"",""coordinates"":[13.677222222222222,55.598333333333336]}"
"ESTF","Fjallbacka","Fjallbacka","Sweden","SWE",58.63027777777778,11.303611111111111,"{""type"":""Point"",""coordinates"":[11.303611111111111,58.63027777777778]}"
"ESNK","Kramfors-Solleftea","Kramfors-Solleftea","Sweden","SWE",63.04861111111111,17.76888888888889,"{""type"":""Point"",""coordinates"":[17.76888888888889,63.04861111111111]}"
"ESPA","Kallax","Lulea","Sweden","SWE",65.54333333333334,22.12361111111111,"{""type"":""Point"",""coordinates"":[22.12361111111111,65.54333333333334]}"
"ESMJ","Kagerod","Kagerod","Sweden","SWE",55.995,13.053333333333335,"{""type"":""Point"",""coordinates"":[13.053333333333335,55.995]}"
"ESNR","Orsa","Orsa","Sweden","SWE",61.19222222222222,14.719166666666666,"{""type"":""Point"",""coordinates"":[14.719166666666666,61.19222222222222]}"
"ESKV","Arvika","Arvika","Sweden","SWE",59.675,12.639444444444443,"{""type"":""Point"",""coordinates"":[12.639444444444443,59.675]}"
"ES03","Backa","Finnskoga","Sweden","SWE",60.553888888888885,13.105277777777777,"{""type"":""Point"",""coordinates"":[13.105277777777777,60.553888888888885]}"
"ESKU","Sunne","Sunne","Sweden","SWE",59.86027777777778,13.112777777777778,"{""type"":""Point"",""coordinates"":[13.112777777777778,59.86027777777778]}"
"ESND","Sveg","Sveg","Sweden","SWE",62.047777777777775,14.424166666666666,"{""type"":""Point"",""coordinates"":[14.424166666666666,62.047777777777775]}"
"ESIB","Satenas","Satenas","Sweden","SWE",58.428469444444445,12.711236111111111,"{""type"":""Point"",""coordinates"":[12.711236111111111,58.428469444444445]}"
"ESCF","Malmen","Linkoping","Sweden","SWE",58.397777777777776,15.522777777777778,"{""type"":""Point"",""coordinates"":[15.522777777777778,58.397777777777776]}"
"ESKH","Eksharad","Eksharad","Sweden","SWE",60.15472222222222,13.528611111111111,"{""type"":""Point"",""coordinates"":[13.528611111111111,60.15472222222222]}"
"ESFR","Rada","Rada","Sweden","SWE",58.49805555555556,13.054722222222223,"{""type"":""Point"",""coordinates"":[13.054722222222223,58.49805555555556]}"
"ES04","Finspang","Finspang","Sweden","SWE",58.735,15.606666666666666,"{""type"":""Point"",""coordinates"":[15.606666666666666,58.735]}"
"ESIA","Karlsborg","Karlsborg","Sweden","SWE",58.51361111111111,14.507222222222222,"{""type"":""Point"",""coordinates"":[14.507222222222222,58.51361111111111]}"
"ESVG","Gagnef","Gagnef","Sweden","SWE",60.55083333333333,15.078055555555554,"{""type"":""Point"",""coordinates"":[15.078055555555554,60.55083333333333]}"
"ESNY","Soderhamn","Soderhamn","Sweden","SWE",61.26138888888889,17.098333333333333,"{""type"":""Point"",""coordinates"":[17.098333333333333,61.26138888888889]}"
"ESGC","Alleberg","Alleberg","Sweden","SWE",58.13472222222222,13.6025,"{""type"":""Point"",""coordinates"":[13.6025,58.13472222222222]}"
"ESGY","Saffle","Saffle","Sweden","SWE",59.09111111111111,12.958333333333332,"{""type"":""Point"",""coordinates"":[12.958333333333332,59.09111111111111]}"
"ES18","Timmele","Timmele","Sweden","SWE",57.873333333333335,13.43,"{""type"":""Point"",""coordinates"":[13.43,57.873333333333335]}"
"ESGU","Rorkarr","Uddevalla","Sweden","SWE",58.367777777777775,11.775277777777779,"{""type"":""Point"",""coordinates"":[11.775277777777779,58.367777777777775]}"
"ESGG","Landvetter","Goteborg","Sweden","SWE",57.66,12.29111111111111,"{""type"":""Point"",""coordinates"":[12.29111111111111,57.66]}"
"ESSN","Norrtalje","Norrtalje","Sweden","SWE",59.73277777777778,18.69638888888889,"{""type"":""Point"",""coordinates"":[18.69638888888889,59.73277777777778]}"
"ESGA","Backamo","Backamo","Sweden","SWE",58.17722222222222,11.973611111111111,"{""type"":""Point"",""coordinates"":[11.973611111111111,58.17722222222222]}"
"ESKK","Karlskoga","Karlskoga","Sweden","SWE",59.34444444444445,14.49472222222222,"{""type"":""Point"",""coordinates"":[14.49472222222222,59.34444444444445]}"
"ESKD","Dala-Jarna","Dala-Jarna","Sweden","SWE",60.55611111111111,14.377222222222223,"{""type"":""Point"",""coordinates"":[14.377222222222223,60.55611111111111]}"
"ESNJ","Jokkmokk","Jokkmokk","Sweden","SWE",66.49666666666667,20.1475,"{""type"":""Point"",""coordinates"":[20.1475,66.49666666666667]}"
"ESGK","Falkoping","Falkoping","Sweden","SWE",58.169999999999995,13.587777777777779,"{""type"":""Point"",""coordinates"":[13.587777777777779,58.169999999999995]}"
"ESGO","Vargarda","Vargarda","Sweden","SWE",58.03916666666667,12.785833333333333,"{""type"":""Point"",""coordinates"":[12.785833333333333,58.03916666666667]}"
"ESGN","Brannebrona","Gotene","Sweden","SWE",58.578611111111115,13.610555555555555,"{""type"":""Point"",""coordinates"":[13.610555555555555,58.578611111111115]}"
"ESNL","Lycksele","Lycksele","Sweden","SWE",64.5475,18.717777777777776,"{""type"":""Point"",""coordinates"":[18.717777777777776,64.5475]}"
"ESNZ","Are Ostersund","Are Ostersund","Sweden","SWE",63.19444444444444,14.500277777777777,"{""type"":""Point"",""coordinates"":[14.500277777777777,63.19444444444444]}"
"ESGF","Morup","Falkenberg","Sweden","SWE",56.97138888888889,12.389166666666666,"{""type"":""Point"",""coordinates"":[12.389166666666666,56.97138888888889]}"
"ESGP","Save","Goteborg","Sweden","SWE",57.775555555555556,11.870555555555557,"{""type"":""Point"",""coordinates"":[11.870555555555557,57.775555555555556]}"
"ESKN","Skavsta","Stockholm","Sweden","SWE",58.78861111111111,16.90361111111111,"{""type"":""Point"",""coordinates"":[16.90361111111111,58.78861111111111]}"
"ESGE","Boras","Boras","Sweden","SWE",57.69583333333333,12.845,"{""type"":""Point"",""coordinates"":[12.845,57.69583333333333]}"
"ES13","Rorbacksnas","Salen","Sweden","SWE",61.15833333333333,12.841666666666667,"{""type"":""Point"",""coordinates"":[12.841666666666667,61.15833333333333]}"
"ESDF","Ronneby","Ronneby","Sweden","SWE",56.266666666666666,15.265,"{""type"":""Point"",""coordinates"":[15.265,56.266666666666666]}"
"ESKT","Tierp","Tierp","Sweden","SWE",60.345,17.421944444444446,"{""type"":""Point"",""coordinates"":[17.421944444444446,60.345]}"
"ESGI","Alingsas","Alingsas","Sweden","SWE",57.94972222222222,12.578055555555554,"{""type"":""Point"",""coordinates"":[12.578055555555554,57.94972222222222]}"
"ESNX","Arvidsjaur","Arvidsjaur","Sweden","SWE",65.59027777777777,19.281944444444445,"{""type"":""Point"",""coordinates"":[19.281944444444445,65.59027777777777]}"
"ESNS","Skelleftea","Skelleftea","Sweden","SWE",64.62472222222222,21.076944444444443,"{""type"":""Point"",""coordinates"":[21.076944444444443,64.62472222222222]}"
"ESGV","Varberg","Varberg","Sweden","SWE",57.124722222222225,12.228055555555555,"{""type"":""Point"",""coordinates"":[12.228055555555555,57.124722222222225]}"
"ESKG","Gryttjom","Gryttjom","Sweden","SWE",60.28611111111111,17.429444444444446,"{""type"":""Point"",""coordinates"":[17.429444444444446,60.28611111111111]}"
"ES02","Bollnas","Bollnas","Sweden","SWE",61.35527777777778,16.334166666666665,"{""type"":""Point"",""coordinates"":[16.334166666666665,61.35527777777778]}"
"ESUM","Mohed","Mohed","Sweden","SWE",61.29111111111111,16.84638888888889,"{""type"":""Point"",""coordinates"":[16.84638888888889,61.29111111111111]}"
"ES01","Alvdalen","Alvdalen","Sweden","SWE",61.21333333333334,14.041666666666666,"{""type"":""Point"",""coordinates"":[14.041666666666666,61.21333333333334]}"
"ESGD","Bammelshed","Tidaholm","Sweden","SWE",58.19194444444444,13.995555555555555,"{""type"":""Point"",""coordinates"":[13.995555555555555,58.19194444444444]}"
"ESVL","Langtora","Enkoping","Sweden","SWE",59.74722222222222,17.145,"{""type"":""Point"",""coordinates"":[17.145,59.74722222222222]}"
"ESSF","Hultsfred-Vimmerby","Hultsfred-Vimmerby","Sweden","SWE",57.52583333333333,15.823333333333332,"{""type"":""Point"",""coordinates"":[15.823333333333332,57.52583333333333]}"
"ES17","Prastbordet","Stode","Sweden","SWE",62.406666666666666,16.533333333333335,"{""type"":""Point"",""coordinates"":[16.533333333333335,62.406666666666666]}"
"ES16","Frolunda","Stockholm","Sweden","SWE",59.45860277777778,17.706752777777776,"{""type"":""Point"",""coordinates"":[17.706752777777776,59.45860277777778]}"
"ES11","Skarstad","Motala","Sweden","SWE",58.49166666666667,15.103333333333333,"{""type"":""Point"",""coordinates"":[15.103333333333333,58.49166666666667]}"
"ES14","Salanda","Sala","Sweden","SWE",59.91166666666666,16.63,"{""type"":""Point"",""coordinates"":[16.63,59.91166666666666]}"
"ESOL","Lemstanas","Storvik","Sweden","SWE",60.58777777777778,16.586666666666666,"{""type"":""Point"",""coordinates"":[16.586666666666666,60.58777777777778]}"
"ESVE","Stegeborg","Stegeborg","Sweden","SWE",58.43338333333333,16.604825,"{""type"":""Point"",""coordinates"":[16.604825,58.43338333333333]}"
"ESUO","Oviken","Oviken","Sweden","SWE",63.041666666666664,14.001388888888888,"{""type"":""Point"",""coordinates"":[14.001388888888888,63.041666666666664]}"
"ESUI","Mellansel","Mellansel","Sweden","SWE",63.39194444444444,18.320555555555554,"{""type"":""Point"",""coordinates"":[18.320555555555554,63.39194444444444]}"
"ESNC","Hedlanda","Hede","Sweden","SWE",62.40888888888889,13.747222222222222,"{""type"":""Point"",""coordinates"":[13.747222222222222,62.40888888888889]}"
"ESKC","Sundbro","Sundbro","Sweden","SWE",59.922777777777775,17.53666666666667,"{""type"":""Point"",""coordinates"":[17.53666666666667,59.922777777777775]}"
"ESGJ","Jonkoping","Jonkoping","Sweden","SWE",57.75833333333333,14.069166666666666,"{""type"":""Point"",""coordinates"":[14.069166666666666,57.75833333333333]}"