"airportCode","airportName","cityName","countryName","countryCode","latitude","longitude","geometry"
"VTUV","Roi Et","Roi Et","Thailand","THA",16.11676111111111,103.77379722222223,"{""type"":""Point"",""coordinates"":[103.77379722222223,16.11676111111111]}"
"VTUQ","Nakhon Ratchasima","Nakhon Ratchasima","Thailand","THA",14.949497222222222,102.31273888888889,"{""type"":""Point"",""coordinates"":[102.31273888888889,14.949497222222222]}"
"VTUN","Khorat","Nakhon Ratchasima","Thailand","THA",14.933333333333334,102.08333333333333,"{""type"":""Point"",""coordinates"":[102.08333333333333,14.933333333333334]}"
"VTUD","Udon Thani","Udon Thani","Thailand","THA",17.38643611111111,102.78824722222222,"{""type"":""Point"",""coordinates"":[102.78824722222222,17.38643611111111]}"
"VTSN","Cha-Ian","Nakhon Si Thammarat","Thailand","THA",8.463888888888889,99.95833333333334,"{""type"":""Point"",""coordinates"":[99.95833333333334,8.463888888888889]}"
"VTSH","Songkhla","Songkhla","Thailand","THA",7.1857194444444445,100.60879444444444,"{""type"":""Point"",""coordinates"":[100.60879444444444,7.1857194444444445]}"
"VTSF","Nakhon Si Thammarat","Nakhon Si Thammarat","Thailand","THA",8.539616666666667,99.944725,"{""type"":""Point"",""coordinates"":[99.944725,8.539616666666667]}"
"VTSE","Chumphon","Chumphon","Thailand","THA",10.711202777777777,99.3617111111111,"{""type"":""Point"",""coordinates"":[99.3617111111111,10.711202777777777]}"
"VTUJ","Surin","Surin","Thailand","THA",14.869277777777778,103.4888888888889,"{""type"":""Point"",""coordinates"":[103.4888888888889,14.869277777777778]}"
"VTSC","Narathiwat","Narathiwat","Thailand","THA",6.523238888888889,101.74484166666667,"{""type"":""Point"",""coordinates"":[101.74484166666667,6.523238888888889]}"
"VTST","Trang","Trang","Thailand","THA",7.508616666666667,99.615775,"{""type"":""Point"",""coordinates"":[99.615775,7.508616666666667]}"
"VTSK","Pattani","Pattani","Thailand","THA",6.785708333333333,101.15363611111111,"{""type"":""Point"",""coordinates"":[101.15363611111111,6.785708333333333]}"
"VTSB","Surat Thani","Surat Thani","Thailand","THA",9.13613611111111,99.13904166666667,"{""type"":""Point"",""coordinates"":[99.13904166666667,9.13613611111111]}"
"VTPO","Sukhothai","Sukhothai","Thailand","THA",17.23777777777778,99.81833333333333,"{""type"":""Point"",""coordinates"":[99.81833333333333,17.23777777777778]}"
"VTPY","Khuan Phumiphon","Tak","Thailand","THA",17.233333333333334,99.05,"{""type"":""Point"",""coordinates"":[99.05,17.233333333333334]}"
"VTPT","Tak","Tak","Thailand","THA",16.89598611111111,99.25372777777778,"{""type"":""Point"",""coordinates"":[99.25372777777778,16.89598611111111]}"
"VTUL","Loei","Loei","Thailand","THA",17.439133333333334,101.7220638888889,"{""type"":""Point"",""coordinates"":[101.7220638888889,17.439133333333334]}"
"VTCN","Nan Nakhon",null,"Thailand","THA",18.80791388888889,100.78341944444445,"{""type"":""Point"",""coordinates"":[100.78341944444445,18.80791388888889]}"
"VTPR","Photharam","Ratchaburi","Thailand","THA",13.66861111111111,99.73138888888889,"{""type"":""Point"",""coordinates"":[99.73138888888889,13.66861111111111]}"
"VTPP","Phitsanulok","Phitsanulok","Thailand","THA",16.782933333333332,100.279125,"{""type"":""Point"",""coordinates"":[100.279125,16.782933333333332]}"
"VTPM","Mae Sot Aero","Tak","Thailand","THA",16.699833333333334,98.54348333333333,"{""type"":""Point"",""coordinates"":[98.54348333333333,16.699833333333334]}"
"VTSR","Ranong","Ranong","Thailand","THA",9.777622222222224,98.58548333333333,"{""type"":""Point"",""coordinates"":[98.58548333333333,9.777622222222224]}"
"VTPI","Takhli","Nakhon Sawan","Thailand","THA",15.278333333333334,100.3,"{""type"":""Point"",""coordinates"":[100.3,15.278333333333334]}"
"VTPN","Nakhon Sawan","Nakhon Sawan","Thailand","THA",15.670555555555556,100.13916666666667,"{""type"":""Point"",""coordinates"":[100.13916666666667,15.670555555555556]}"
"VTCL","Lampang","Lampang","Thailand","THA",18.272116666666665,99.50406111111111,"{""type"":""Point"",""coordinates"":[99.50406111111111,18.272116666666665]}"
"VTUO","Buri Ram","Buri Ram","Thailand","THA",15.226766666666666,103.251225,"{""type"":""Point"",""coordinates"":[103.251225,15.226766666666666]}"
"VTBO","Trat","Trat","Thailand","THA",12.275277777777779,102.32,"{""type"":""Point"",""coordinates"":[102.32,12.275277777777779]}"
"VTUW","Nakhon Phanom","Nakhon Phanom","Thailand","THA",17.38533888888889,104.6418888888889,"{""type"":""Point"",""coordinates"":[104.6418888888889,17.38533888888889]}"
"VTUU","Ubon Ratchathani","Ubon Ratchathani","Thailand","THA",15.251275,104.87022777777777,"{""type"":""Point"",""coordinates"":[104.87022777777777,15.251275]}"
"VTUI","Sakon Nakhon","Sakon Nakhon","Thailand","THA",17.195141666666668,104.11862777777777,"{""type"":""Point"",""coordinates"":[104.11862777777777,17.195141666666668]}"
"VTSM","Samui","Surat Thani","Thailand","THA",9.549166666666666,100.0625,"{""type"":""Point"",""coordinates"":[100.0625,9.549166666666666]}"
"VTBD","Don Mueang Intl","Bangkok","Thailand","THA",13.914444444444445,100.60555555555555,"{""type"":""Point"",""coordinates"":[100.60555555555555,13.914444444444445]}"
"VTCH","Mae Hong Son","Mae Hong Son","Thailand","THA",19.301716666666668,97.97505555555556,"{""type"":""Point"",""coordinates"":[97.97505555555556,19.301716666666668]}"
"VTBK","Kamphaeng Saen","Nakhon Pathom","Thailand","THA",14.100555555555555,99.92277777777778,"{""type"":""Point"",""coordinates"":[99.92277777777778,14.100555555555555]}"
"VTBP","Prachuap Khiri Khan","Prachuap Khiri Khan","Thailand","THA",11.786666666666667,99.80499999999999,"{""type"":""Point"",""coordinates"":[99.80499999999999,11.786666666666667]}"
"VTBL","Khok Kathiam","Lop Buri","Thailand","THA",14.874638888888889,100.66338888888889,"{""type"":""Point"",""coordinates"":[100.66338888888889,14.874638888888889]}"
"VTSG","Krabi","Krabi","Thailand","THA",8.100163888888888,98.9853138888889,"{""type"":""Point"",""coordinates"":[98.9853138888889,8.100163888888888]}"
"VTBU","U-Tapao Rayong Pattaya Intl","Rayong","Thailand","THA",12.679611111111111,101.00491666666667,"{""type"":""Point"",""coordinates"":[101.00491666666667,12.679611111111111]}"
"VTCI","Pai","Maehongson","Thailand","THA",19.372008333333333,98.43586388888889,"{""type"":""Point"",""coordinates"":[98.43586388888889,19.372008333333333]}"
"VTUK","Khon Kaen","Khon Kaen","Thailand","THA",16.464552777777776,102.782275,"{""type"":""Point"",""coordinates"":[102.782275,16.464552777777776]}"
"VTPH","Hua Hin","Prachuap Khiri Khan","Thailand","THA",12.630319444444446,99.95344444444444,"{""type"":""Point"",""coordinates"":[99.95344444444444,12.630319444444446]}"
"VTCP","Phrae","Phrae","Thailand","THA",18.13171388888889,100.16461666666667,"{""type"":""Point"",""coordinates"":[100.16461666666667,18.13171388888889]}"
"VTBH","SA Pran Nak Aero","Lop Buri","Thailand","THA",14.948333333333334,100.64166666666668,"{""type"":""Point"",""coordinates"":[100.64166666666668,14.948333333333334]}"
"VTSS","Hat Yai Intl","Songkhla","Thailand","THA",6.932777777777778,100.39500000000001,"{""type"":""Point"",""coordinates"":[100.39500000000001,6.932777777777778]}"
"VTPB","Phetchabun","Phetchabun","Thailand","THA",16.676030555555556,101.19510833333334,"{""type"":""Point"",""coordinates"":[101.19510833333334,16.676030555555556]}"
"VTSP","Phuket Intl","Phuket","Thailand","THA",8.112499999999999,98.30916666666667,"{""type"":""Point"",""coordinates"":[98.30916666666667,8.112499999999999]}"
"VTCC","Chiang Mai Intl","Chiang Mai","Thailand","THA",18.77138888888889,98.96277777777777,"{""type"":""Point"",""coordinates"":[98.96277777777777,18.77138888888889]}"
"VTBT","Bang Phra","Chon Buri","Thailand","THA",13.233333333333333,100.95833333333334,"{""type"":""Point"",""coordinates"":[100.95833333333334,13.233333333333333]}"
"VTCT","Chiang Rai Intl","Chiang Rai","Thailand","THA",19.952222222222222,99.88305555555554,"{""type"":""Point"",""coordinates"":[99.88305555555554,19.952222222222222]}"
"VTBI","Prachin Buri","Prachin Buri","Thailand","THA",14.076666666666666,101.38166666666666,"{""type"":""Point"",""coordinates"":[101.38166666666666,14.076666666666666]}"
"VTBW","Watthana Nakhon","Watthana Nakhon","Thailand","THA",13.7688,102.31549166666666,"{""type"":""Point"",""coordinates"":[102.31549166666666,13.7688]}"
"VTBS","Suvarnabhumi Intl","Bangkok","Thailand","THA",13.685833333333333,100.74888888888889,"{""type"":""Point"",""coordinates"":[100.74888888888889,13.685833333333333]}"