"airportCode","airportName","cityName","countryName","countryCode","latitude","longitude","geometry"
"LTFK","Gokceada","Gokceada","Turkey","TUR",40.2,25.881666666666668,"{""type"":""Point"",""coordinates"":[25.881666666666668,40.2]}"
"LTFG","Alanya","Gazipasa","Turkey","TUR",36.29944444444444,32.30138888888889,"{""type"":""Point"",""coordinates"":[32.30138888888889,36.29944444444444]}"
"LTFE","Bodrum","Milas","Turkey","TUR",37.24722222222222,27.68138888888889,"{""type"":""Point"",""coordinates"":[27.68138888888889,37.24722222222222]}"
"LTFD","Koca Seyit","Balikesir","Turkey","TUR",39.552499999999995,27.010277777777777,"{""type"":""Point"",""coordinates"":[27.010277777777777,39.552499999999995]}"
"LTFC","Suleyman Demirel","Isparta","Turkey","TUR",37.85583333333334,30.366944444444446,"{""type"":""Point"",""coordinates"":[30.366944444444446,37.85583333333334]}"
"LTFA","Kaklic","Izmir","Turkey","TUR",38.5175,26.97722222222222,"{""type"":""Point"",""coordinates"":[26.97722222222222,38.5175]}"
"LTCS","Gap","Sanliurfa","Turkey","TUR",37.45666666666667,38.90833333333333,"{""type"":""Point"",""coordinates"":[38.90833333333333,37.45666666666667]}"
"LTCR","Mardin","Mardin","Turkey","TUR",37.23277777777778,40.64055555555556,"{""type"":""Point"",""coordinates"":[40.64055555555556,37.23277777777778]}"
"LTCP","Adiyaman","Adiyaman","Turkey","TUR",37.73222222222223,38.469166666666666,"{""type"":""Point"",""coordinates"":[38.469166666666666,37.73222222222223]}"
"LTCT","Igdir","Igdir","Turkey","TUR",39.97555555555556,43.87833333333333,"{""type"":""Point"",""coordinates"":[43.87833333333333,39.97555555555556]}"
"LTCO","Ahmed-I Hani","Agri","Turkey","TUR",39.6475,43.02861111111111,"{""type"":""Point"",""coordinates"":[43.02861111111111,39.6475]}"
"LTCN","Kahramanmaras","Kahramanmaras","Turkey","TUR",37.538333333333334,36.95194444444445,"{""type"":""Point"",""coordinates"":[36.95194444444445,37.538333333333334]}"
"LTCM","Sinop","Sinop","Turkey","TUR",42.01583333333333,35.06638888888889,"{""type"":""Point"",""coordinates"":[35.06638888888889,42.01583333333333]}"
"LTFJ","Sabiha Gokcen","Istanbul","Turkey","TUR",40.89833333333333,29.309166666666666,"{""type"":""Point"",""coordinates"":[29.309166666666666,40.89833333333333]}"
"LTCL","Siirt","Siirt","Turkey","TUR",37.97805555555556,41.83916666666667,"{""type"":""Point"",""coordinates"":[41.83916666666667,37.97805555555556]}"
"LTCK","Mus","Mus","Turkey","TUR",38.74472222222222,41.66888888888889,"{""type"":""Point"",""coordinates"":[41.66888888888889,38.74472222222222]}"
"LTCA","Elazig","Elazig","Turkey","TUR",38.59777777777778,39.28138888888889,"{""type"":""Point"",""coordinates"":[39.28138888888889,38.59777777777778]}"
"LTCJ","Batman","Batman","Turkey","TUR",37.93222222222222,41.11638888888889,"{""type"":""Point"",""coordinates"":[41.11638888888889,37.93222222222222]}"
"LTCE","Erzurum","Erzurum","Turkey","TUR",39.95583333333334,41.17055555555555,"{""type"":""Point"",""coordinates"":[41.17055555555555,39.95583333333334]}"
"LTAN","Konya","Konya","Turkey","TUR",37.980555555555554,32.5625,"{""type"":""Point"",""coordinates"":[32.5625,37.980555555555554]}"
"LTCG","Trabzon","Trabzon","Turkey","TUR",40.99583333333334,39.78527777777778,"{""type"":""Point"",""coordinates"":[39.78527777777778,40.99583333333334]}"
"LTCC","Diyarbakir","Diyarbakir","Turkey","TUR",37.8925,40.20111111111111,"{""type"":""Point"",""coordinates"":[40.20111111111111,37.8925]}"
"LTBY","Hasan Polatkan","Eskisehir","Turkey","TUR",39.8125,30.520555555555553,"{""type"":""Point"",""coordinates"":[30.520555555555553,39.8125]}"
"LTBT","Akhisar","Manisa","Turkey","TUR",38.809444444444445,27.834444444444443,"{""type"":""Point"",""coordinates"":[27.834444444444443,38.809444444444445]}"
"LTBS","Dalaman","Mugla","Turkey","TUR",36.712500000000006,28.79138888888889,"{""type"":""Point"",""coordinates"":[28.79138888888889,36.712500000000006]}"
"LTAD","Etimesgut","Ankara","Turkey","TUR",39.95166666666667,32.6875,"{""type"":""Point"",""coordinates"":[32.6875,39.95166666666667]}"
"LTBQ","Cengiz Topel","Kocaeli","Turkey","TUR",40.735,30.083333333333332,"{""type"":""Point"",""coordinates"":[30.083333333333332,40.735]}"
"LTFH","Carsamba","Samsun","Turkey","TUR",41.26555555555556,36.54861111111111,"{""type"":""Point"",""coordinates"":[36.54861111111111,41.26555555555556]}"
"LTCW","Yuksekova Selahaddin Eyyubi","Hakkari","Turkey","TUR",37.543055555555554,44.25361111111111,"{""type"":""Point"",""coordinates"":[44.25361111111111,37.543055555555554]}"
"LTCI","Ferit Melen","Van","Turkey","TUR",38.46805555555556,43.33222222222223,"{""type"":""Point"",""coordinates"":[43.33222222222223,38.46805555555556]}"
"LTBO","Usak","Usak","Turkey","TUR",38.68138888888889,29.471666666666664,"{""type"":""Point"",""coordinates"":[29.471666666666664,38.68138888888889]}"
"LTBN","Kutahya","Kutahya","Turkey","TUR",39.42666666666666,30.016944444444444,"{""type"":""Point"",""coordinates"":[30.016944444444444,39.42666666666666]}"
"LTBL","Cigli","Izmir","Turkey","TUR",38.526666666666664,27.01,"{""type"":""Point"",""coordinates"":[27.01,38.526666666666664]}"
"LTCB","Ordu-Giresun","Ordu-Giresun","Turkey","TUR",40.967222222222226,38.081944444444446,"{""type"":""Point"",""coordinates"":[38.081944444444446,40.967222222222226]}"
"LTAC","Esenboga","Ankara","Turkey","TUR",40.128055555555555,32.995,"{""type"":""Point"",""coordinates"":[32.995,40.128055555555555]}"
"LTBU","Corlu","Tekirdag","Turkey","TUR",41.129444444444445,27.906388888888888,"{""type"":""Point"",""coordinates"":[27.906388888888888,41.129444444444445]}"
"LTBP","Yalova","Yalova","Turkey","TUR",40.68833333333333,29.37611111111111,"{""type"":""Point"",""coordinates"":[29.37611111111111,40.68833333333333]}"
"LTAJ","Gaziantep","Gaziantep","Turkey","TUR",36.94777777777777,37.47888888888889,"{""type"":""Point"",""coordinates"":[37.47888888888889,36.94777777777777]}"
"LTBK","Gaziemir","Izmir","Turkey","TUR",38.32,27.15972222222222,"{""type"":""Point"",""coordinates"":[27.15972222222222,38.32]}"
"LTBZ","Zafer","Zafer","Turkey","TUR",39.11138888888889,30.130277777777778,"{""type"":""Point"",""coordinates"":[30.130277777777778,39.11138888888889]}"
"LTBW","Hezarfen","Istanbul","Turkey","TUR",41.10416666666667,28.55,"{""type"":""Point"",""coordinates"":[28.55,41.10416666666667]}"
"LTBI","Eskisehir","Eskisehir","Turkey","TUR",39.784166666666664,30.581944444444446,"{""type"":""Point"",""coordinates"":[30.581944444444446,39.784166666666664]}"
"LTBR","Yenisehir","Bursa","Turkey","TUR",40.255833333333335,29.561944444444446,"{""type"":""Point"",""coordinates"":[29.561944444444446,40.255833333333335]}"
"LTDA","Hatay","Hatay","Turkey","TUR",36.37222222222222,36.29861111111111,"{""type"":""Point"",""coordinates"":[36.29861111111111,36.37222222222222]}"
"LTAZ","Kapadokya","Kapadokya","Turkey","TUR",38.775277777777774,34.526666666666664,"{""type"":""Point"",""coordinates"":[34.526666666666664,38.775277777777774]}"
"LTFL","Kesan","Kesan","Turkey","TUR",40.78722222222222,26.60666666666667,"{""type"":""Point"",""coordinates"":[26.60666666666667,40.78722222222222]}"
"LTAB","Guvercinlik","Ankara","Turkey","TUR",39.93527777777778,32.740833333333335,"{""type"":""Point"",""coordinates"":[32.740833333333335,39.93527777777778]}"
"LTAY","Cardak","Denizli","Turkey","TUR",37.78777777777778,29.705,"{""type"":""Point"",""coordinates"":[29.705,37.78777777777778]}"
"LTBV","Imsik","Bodrum","Turkey","TUR",37.14,27.66888888888889,"{""type"":""Point"",""coordinates"":[27.66888888888889,37.14]}"
"LTBA","Ataturk","Istanbul","Turkey","TUR",40.976111111111116,28.81416666666667,"{""type"":""Point"",""coordinates"":[28.81416666666667,40.976111111111116]}"
"LTAO","Tulga","Malatya","Turkey","TUR",38.35388888888889,38.25388888888889,"{""type"":""Point"",""coordinates"":[38.25388888888889,38.35388888888889]}"
"LTAL","Kastamonu","Kastamonu","Turkey","TUR",41.316944444444445,33.79611111111111,"{""type"":""Point"",""coordinates"":[33.79611111111111,41.316944444444445]}"
"LTAV","Sivrihisar","Eskisehir","Turkey","TUR",39.45138888888889,31.365000000000002,"{""type"":""Point"",""coordinates"":[31.365000000000002,39.45138888888889]}"
"LTAU","Kayseri","Kayseri","Turkey","TUR",38.77027777777778,35.49527777777778,"{""type"":""Point"",""coordinates"":[35.49527777777778,38.77027777777778]}"
"LTCD","Erzincan","Erzincan","Turkey","TUR",39.713055555555556,39.52055555555555,"{""type"":""Point"",""coordinates"":[39.52055555555555,39.713055555555556]}"
"LTAS","Caycuma","Zonguldak","Turkey","TUR",41.50694444444444,32.08972222222222,"{""type"":""Point"",""coordinates"":[32.08972222222222,41.50694444444444]}"
"LTBG","Bandirma","Balikesir","Turkey","TUR",40.318333333333335,27.977777777777778,"{""type"":""Point"",""coordinates"":[27.977777777777778,40.318333333333335]}"
"LTAG","Incirlik AB","Adana","Turkey","TUR",37.00205555555556,35.425975,"{""type"":""Point"",""coordinates"":[35.425975,37.00205555555556]}"
"LTAI","Antalya","Antalya","Turkey","TUR",36.900277777777774,30.79277777777778,"{""type"":""Point"",""coordinates"":[30.79277777777778,36.900277777777774]}"
"LTCU","Bingol","Bingol","Turkey","TUR",38.861111111111114,40.5925,"{""type"":""Point"",""coordinates"":[40.5925,38.861111111111114]}"
"LTAR","Nuri Demirag","Sivas","Turkey","TUR",39.814166666666665,36.902499999999996,"{""type"":""Point"",""coordinates"":[36.902499999999996,39.814166666666665]}"
"LTBX","Samandira","Istanbul","Turkey","TUR",40.99055555555556,29.21611111111111,"{""type"":""Point"",""coordinates"":[29.21611111111111,40.99055555555556]}"
"LTBF","Merkez","Balikesir","Turkey","TUR",39.61555555555556,27.93277777777778,"{""type"":""Point"",""coordinates"":[27.93277777777778,39.61555555555556]}"
"LTCF","Kars Harakani","Kars","Turkey","TUR",40.56222222222222,43.11472222222223,"{""type"":""Point"",""coordinates"":[43.11472222222223,40.56222222222222]}"
"LTAP","Merzifon","Amasya","Turkey","TUR",40.82944444444445,35.52222222222222,"{""type"":""Point"",""coordinates"":[35.52222222222222,40.82944444444445]}"
"LTBD","Cildir","Aydin","Turkey","TUR",37.81527777777777,27.888055555555557,"{""type"":""Point"",""coordinates"":[27.888055555555557,37.81527777777777]}"
"LTAT","Malatya","Malatya","Turkey","TUR",38.43222222222222,38.08305555555556,"{""type"":""Point"",""coordinates"":[38.08305555555556,38.43222222222222]}"
"LTAW","Tokat","Tokat","Turkey","TUR",40.31166666666666,36.37361111111111,"{""type"":""Point"",""coordinates"":[36.37361111111111,40.31166666666666]}"
"LTAE","Akinci","Ankara","Turkey","TUR",40.07888888888889,32.565555555555555,"{""type"":""Point"",""coordinates"":[32.565555555555555,40.07888888888889]}"
"LTAH","Afyon","Afyon","Turkey","TUR",38.725833333333334,30.603055555555557,"{""type"":""Point"",""coordinates"":[30.603055555555557,38.725833333333334]}"
"LTAF","Adana","Adana","Turkey","TUR",36.98222222222223,35.280277777777776,"{""type"":""Point"",""coordinates"":[35.280277777777776,36.98222222222223]}"
"LTBH","Canakkale","Canakkale","Turkey","TUR",40.138333333333335,26.42777777777778,"{""type"":""Point"",""coordinates"":[26.42777777777778,40.138333333333335]}"
"LTFB","Selcuk-Efes","Izmir","Turkey","TUR",37.95111111111111,27.33277777777778,"{""type"":""Point"",""coordinates"":[27.33277777777778,37.95111111111111]}"
"LTCV","Serafettin Elci","Sirnak","Turkey","TUR",37.36388888888889,42.059999999999995,"{""type"":""Point"",""coordinates"":[42.059999999999995,37.36388888888889]}"
"LTBJ","Adnan Menderes","Izmir","Turkey","TUR",38.28916666666667,27.154999999999998,"{""type"":""Point"",""coordinates"":[27.154999999999998,38.28916666666667]}"