"airportCode","airportName","cityName","countryName","countryCode","latitude","longitude","geometry"
"FAWK","Waterkloof","Waterkloof","South African Rep","ZAF",-25.82768888888889,28.220891666666667,"{""type"":""Point"",""coordinates"":[28.220891666666667,-25.82768888888889]}"
"FAWI","Witbank","Witbank","South African Rep","ZAF",-25.833777777777776,29.192625,"{""type"":""Point"",""coordinates"":[29.192625,-25.833777777777776]}"
"FAVV","Vereeniging","Vereeniging","South African Rep","ZAF",-26.575,27.9625,"{""type"":""Point"",""coordinates"":[27.9625,-26.575]}"
"FAVR","Vredendal","Vredendal","South African Rep","ZAF",-31.64313611111111,18.53956388888889,"{""type"":""Point"",""coordinates"":[18.53956388888889,-31.64313611111111]}"
"FAVM","Venetia","Venetia","South African Rep","ZAF",-22.448980555555554,29.335016666666665,"{""type"":""Point"",""coordinates"":[29.335016666666665,-22.448980555555554]}"
"FAWM","Welkom","Welkom","South African Rep","ZAF",-27.998008333333335,26.669555555555558,"{""type"":""Point"",""coordinates"":[26.669555555555558,-27.998008333333335]}"
"FAVG","Virginia","Durban","South African Rep","ZAF",-29.770833333333332,31.060277777777777,"{""type"":""Point"",""coordinates"":[31.060277777777777,-29.770833333333332]}"
"FAUT","Mthatha","Mthatha","South African Rep","ZAF",-31.546247222222224,28.675316666666667,"{""type"":""Point"",""coordinates"":[28.675316666666667,-31.546247222222224]}"
"FAUP","Upington Intl","Upington","South African Rep","ZAF",-28.40102222222222,21.25966111111111,"{""type"":""Point"",""coordinates"":[21.25966111111111,-28.40102222222222]}"
"FATF","Tommy's Field","Tommy's Field","South African Rep","ZAF",-28.266666666666666,23,"{""type"":""Point"",""coordinates"":[23,-28.266666666666666]}"
"FASX","Hendrik Swellengrebel","Swellendam","South African Rep","ZAF",-34.05,20.483333333333334,"{""type"":""Point"",""coordinates"":[20.483333333333334,-34.05]}"
"FASS","Sishen","Sishen","South African Rep","ZAF",-27.65,23,"{""type"":""Point"",""coordinates"":[23,-27.65]}"
"FAUL","Prince Mangosuthu Buthelezi","Ulundi","South African Rep","ZAF",-28.31947222222222,31.417055555555557,"{""type"":""Point"",""coordinates"":[31.417055555555557,-28.31947222222222]}"
"FASH","Stellenbosch","Stellenbosch","South African Rep","ZAF",-33.980555555555554,18.822777777777777,"{""type"":""Point"",""coordinates"":[18.822777777777777,-33.980555555555554]}"
"FAGY","Greytown","Greytown","South African Rep","ZAF",-29.122725,30.58510833333333,"{""type"":""Point"",""coordinates"":[30.58510833333333,-29.122725]}"
"FAKR","Krugersdorp","Krugersdorp","South African Rep","ZAF",-26.081647222222223,27.725677777777776,"{""type"":""Point"",""coordinates"":[27.725677777777776,-26.081647222222223]}"
"FAPP","Polokwane Intl","Polokwane","South African Rep","ZAF",-23.84964722222222,29.456488888888888,"{""type"":""Point"",""coordinates"":[29.456488888888888,-23.84964722222222]}"
"FASC","Secunda","Secunda","South African Rep","ZAF",-26.520555555555553,29.172222222222224,"{""type"":""Point"",""coordinates"":[29.172222222222224,-26.520555555555553]}"
"FAQT","Queenstown","Queenstown","South African Rep","ZAF",-31.916666666666668,26.883333333333333,"{""type"":""Point"",""coordinates"":[26.883333333333333,-31.916666666666668]}"
"FARS","Robertson","Robertson","South African Rep","ZAF",-33.81083333333333,19.91,"{""type"":""Point"",""coordinates"":[19.91,-33.81083333333333]}"
"FACT","Cape Town Intl","Cape Town","South African Rep","ZAF",-33.97136944444445,18.60429166666667,"{""type"":""Point"",""coordinates"":[18.60429166666667,-33.97136944444445]}"
"FANS","Nelspruit","Nelspruit","South African Rep","ZAF",-25.502225,30.911816666666667,"{""type"":""Point"",""coordinates"":[30.911816666666667,-25.502225]}"
"FAPS","Potchefstroom","Potchefstroom","South African Rep","ZAF",-26.66829166666667,27.084108333333333,"{""type"":""Point"",""coordinates"":[27.084108333333333,-26.66829166666667]}"
"FAFK","Fisantekraal","Fisantekraal","South African Rep","ZAF",-33.771388888888886,18.740000000000002,"{""type"":""Point"",""coordinates"":[18.740000000000002,-33.771388888888886]}"
"FAPM","Pietermaritzburg","Pietermaritzburg","South African Rep","ZAF",-29.64678888888889,30.397772222222223,"{""type"":""Point"",""coordinates"":[30.397772222222223,-29.64678888888889]}"
"FAEL","East London","East London","South African Rep","ZAF",-33.03511944444444,27.82135,"{""type"":""Point"",""coordinates"":[27.82135,-33.03511944444444]}"
"FAPL","Pongola","Pongola","South African Rep","ZAF",-27.36161388888889,31.605525,"{""type"":""Point"",""coordinates"":[31.605525,-27.36161388888889]}"
"FAOH","Oudtshoorn","Oudtshoorn","South African Rep","ZAF",-33.60611111111111,22.189444444444444,"{""type"":""Point"",""coordinates"":[22.189444444444444,-33.60611111111111]}"
"FABL","Bram Fischer Intl","Bloemfontein","South African Rep","ZAF",-29.093788888888888,26.30396388888889,"{""type"":""Point"",""coordinates"":[26.30396388888889,-29.093788888888888]}"
"FAPG","Plettenberg Bay","Plettenberg Bay","South African Rep","ZAF",-34.08815833333333,23.328616666666665,"{""type"":""Point"",""coordinates"":[23.328616666666665,-34.08815833333333]}"
"FAPH","Hendrik Van Eck","Phalaborwa","South African Rep","ZAF",-23.93607777777778,31.155094444444444,"{""type"":""Point"",""coordinates"":[31.155094444444444,-23.93607777777778]}"
"FAMD","Malamala","Malamala","South African Rep","ZAF",-24.81758333333333,31.54471388888889,"{""type"":""Point"",""coordinates"":[31.54471388888889,-24.81758333333333]}"
"FAMN","Malelane","Malelane","South African Rep","ZAF",-25.473333333333333,31.565555555555555,"{""type"":""Point"",""coordinates"":[31.565555555555555,-25.473333333333333]}"
"FAPE","Port Elizabeth Intl","Port Elizabeth","South African Rep","ZAF",-33.99001388888889,25.610277777777778,"{""type"":""Point"",""coordinates"":[25.610277777777778,-33.99001388888889]}"
"FALY","Ladysmith","Ladysmith","South African Rep","ZAF",-28.57991388888889,29.75273888888889,"{""type"":""Point"",""coordinates"":[29.75273888888889,-28.57991388888889]}"
"FALE","King Shaka Intl","Durban","South African Rep","ZAF",-29.611772222222225,31.11931388888889,"{""type"":""Point"",""coordinates"":[31.11931388888889,-29.611772222222225]}"
"FAWB","Wonderboom","Pretoria","South African Rep","ZAF",-25.655305555555554,28.221341666666664,"{""type"":""Point"",""coordinates"":[28.221341666666664,-25.655305555555554]}"
"FASZ","Skukuza","Skukuza","South African Rep","ZAF",-24.961322222222222,31.588825,"{""type"":""Point"",""coordinates"":[31.588825,-24.961322222222222]}"
"FABM","Bethlehem","Bethlehem","South African Rep","ZAF",-28.248611111111114,28.33611111111111,"{""type"":""Point"",""coordinates"":[28.33611111111111,-28.248611111111114]}"
"FALA","Lanseria Intl","Lanseria","South African Rep","ZAF",-25.93969166666667,27.925575000000002,"{""type"":""Point"",""coordinates"":[27.925575000000002,-25.93969166666667]}"
"FAOR","O.R. Tambo Intl","Johannesburg","South African Rep","ZAF",-26.133694444444444,28.242316666666667,"{""type"":""Point"",""coordinates"":[28.242316666666667,-26.133694444444444]}"
"FALW","Langebaanweg AB","Langebaanweg","South African Rep","ZAF",-32.968811111111116,18.16526111111111,"{""type"":""Point"",""coordinates"":[18.16526111111111,-32.968811111111116]}"
"FAHL","Hluhluwe","Hluhluwe","South African Rep","ZAF",-28.01388888888889,32.275,"{""type"":""Point"",""coordinates"":[32.275,-28.01388888888889]}"
"FAGG","George","George","South African Rep","ZAF",-34.006702777777775,22.374280555555558,"{""type"":""Point"",""coordinates"":[22.374280555555558,-34.006702777777775]}"
"FAHS","Hoedspruit AB","Hoedspruit","South African Rep","ZAF",-24.354619444444445,31.0504,"{""type"":""Point"",""coordinates"":[31.0504,-24.354619444444445]}"
"FAGM","Rand","Johannesburg","South African Rep","ZAF",-26.24197777777778,28.151355555555554,"{""type"":""Point"",""coordinates"":[28.151355555555554,-26.24197777777778]}"
"FANC","Newcastle","Newcastle","South African Rep","ZAF",-27.772777777777776,29.976388888888888,"{""type"":""Point"",""coordinates"":[29.976388888888888,-27.772777777777776]}"
"FAKU","Johan Pienaar","Kuruman","South African Rep","ZAF",-27.459652777777777,23.412569444444443,"{""type"":""Point"",""coordinates"":[23.412569444444443,-27.459652777777777]}"
"FAMI","Marble Hall","Marble Hall","South African Rep","ZAF",-24.991666666666667,29.283333333333335,"{""type"":""Point"",""coordinates"":[29.283333333333335,-24.991666666666667]}"
"FAPA","Port Alfred","Port Alfred","South African Rep","ZAF",-33.56038333333333,26.877966666666666,"{""type"":""Point"",""coordinates"":[26.877966666666666,-33.56038333333333]}"
"FARB","Richards Bay","Richards Bay","South African Rep","ZAF",-28.740180555555558,32.093383333333335,"{""type"":""Point"",""coordinates"":[32.093383333333335,-28.740180555555558]}"
"FAMG","Margate","Margate","South African Rep","ZAF",-30.856944444444444,30.343333333333334,"{""type"":""Point"",""coordinates"":[30.343333333333334,-30.856944444444444]}"
"FAGC","Grand Central","Grand Central","South African Rep","ZAF",-25.987066666666667,28.14054722222222,"{""type"":""Point"",""coordinates"":[28.14054722222222,-25.987066666666667]}"
"FATT","Tutuka Power Station","Tutuka Power Station","South African Rep","ZAF",-26.778555555555556,29.33839722222222,"{""type"":""Point"",""coordinates"":[29.33839722222222,-26.778555555555556]}"
"FABE","Bhisho","Bhisho","South African Rep","ZAF",-32.894999999999996,27.285,"{""type"":""Point"",""coordinates"":[27.285,-32.894999999999996]}"
"FAPF","Piet Retief","Piet Retief","South African Rep","ZAF",-27.002222222222223,30.843888888888888,"{""type"":""Point"",""coordinates"":[30.843888888888888,-27.002222222222223]}"
"FAAB","Alexander Bay","Alexander Bay","South African Rep","ZAF",-28.573316666666667,16.534336111111113,"{""type"":""Point"",""coordinates"":[16.534336111111113,-28.573316666666667]}"
"FATZ","Tzaneen","Tzaneen","South African Rep","ZAF",-23.83,30.316666666666666,"{""type"":""Point"",""coordinates"":[30.316666666666666,-23.83]}"
"FAKM","Kimberley","Kimberley","South African Rep","ZAF",-28.804783333333333,24.764033333333334,"{""type"":""Point"",""coordinates"":[24.764033333333334,-28.804783333333333]}"
"FAYP","Ysterplaat AB","Ysterplaat","South African Rep","ZAF",-33.90098888888889,18.49748888888889,"{""type"":""Point"",""coordinates"":[18.49748888888889,-33.90098888888889]}"
"FACV","Calvinia","Calvinia","South African Rep","ZAF",-31.50027777777778,19.72583333333333,"{""type"":""Point"",""coordinates"":[19.72583333333333,-31.50027777777778]}"
"FALM","Makhado AB","Makhado","South African Rep","ZAF",-23.159452777777776,29.701502777777776,"{""type"":""Point"",""coordinates"":[29.701502777777776,-23.159452777777776]}"
"FATW","Tswalu Game Reserve","Tswalu Game Reserve","South African Rep","ZAF",-27.202805555555553,22.480833333333333,"{""type"":""Point"",""coordinates"":[22.480833333333333,-27.202805555555553]}"
"FAPI","Pietersburg","Pietersburg","South African Rep","ZAF",-23.926055555555557,29.484361111111113,"{""type"":""Point"",""coordinates"":[29.484361111111113,-23.926055555555557]}"
"FAMM","Mafikeng","Mafikeng","South African Rep","ZAF",-25.807447222222223,25.544469444444445,"{""type"":""Point"",""coordinates"":[25.544469444444445,-25.807447222222223]}"
"FASD","Saldanaha-Vredenburg","Saldanaha-Vredenburg","South African Rep","ZAF",-32.96333333333334,17.97,"{""type"":""Point"",""coordinates"":[17.97,-32.96333333333334]}"
"FAWC","Worcester","Worcester","South African Rep","ZAF",-33.666666666666664,19.416666666666668,"{""type"":""Point"",""coordinates"":[19.416666666666668,-33.666666666666664]}"
"FAOB","Overberg AB","Overberg","South African Rep","ZAF",-34.55811666666666,20.249122222222223,"{""type"":""Point"",""coordinates"":[20.249122222222223,-34.55811666666666]}"
"FACO","Alkantpan","Alkantpan","South African Rep","ZAF",-29.90648611111111,22.316583333333334,"{""type"":""Point"",""coordinates"":[22.316583333333334,-29.90648611111111]}"
"FAPN","Pilanesberg Intl","Pilanesberg","South African Rep","ZAF",-25.335483333333332,27.171633333333336,"{""type"":""Point"",""coordinates"":[27.171633333333336,-25.335483333333332]}"
"FAKN","Kruger Mpumalanga Intl","Kruger Mpumalanga","South African Rep","ZAF",-25.391583333333333,31.099277777777775,"{""type"":""Point"",""coordinates"":[31.099277777777775,-25.391583333333333]}"
"FAMJ","Majuba Power Station","Majuba Power Station","South African Rep","ZAF",-27.083055555555557,29.785,"{""type"":""Point"",""coordinates"":[29.785,-27.083055555555557]}"
"FABB","Brakpan-Benoni","Brakpan-Benoni","South African Rep","ZAF",-26.238055555555558,28.305833333333332,"{""type"":""Point"",""coordinates"":[28.305833333333332,-26.238055555555558]}"